{"type":"FeatureCollection","features":[{"type":"Feature","properties":{"place":"armistice-no-mans-lands","region":"area/armistice-no-mans-lands","donors":"IL;PS area/east-jerusalem","rank":2,"whose_line":"the 1949 Israel–Jordan armistice lines (limits of the no-man's-lands) as drawn by the US Department of State","publisher":"US Department of State, Office of the Geographer and Global Issues (World Polygons, high-resolution layer DoS_WP_11_4)","source_url":"https://data.geodata.state.gov/WorldPolygons.zip","version_or_date":"World Polygons 11.4 BETA, 2025-02-24; read 2026-10-04","feature_id":"DoS_WP_11_4 fid 216; 217; 204","licence":"US government work, not subject to US copyright (17 U.S.C. § 105)","notes":"Union of DoS 'No Man's Land' x2 (Latrun, Jerusalem; LSIB label '1949 Armistice Line') and 'Mt. Scopus South'; one DoS feature also has a 0.01 km² part at about 35.495°E 32.401°N, outside the three places. The Mount Scopus enclave itself (about 1.0 km²) is not a separate DoS feature (it is a part of DoS's 'Israel' polygon), so it is missing here; Natural Earth's 'Mount Scopus' feature included it. Owner to decide (see README). The no-man's-lands take precedence over East Jerusalem where the two outlines overlap (0.1 km²): East Jerusalem is one of their donors.","input_sha256":"55fab422ef09e35eb48d68141b9ece0ace86d4276dfe332a04dfd401c0bfc80c","operation":"union of the 3 source features","crs":"WGS84 longitude/latitude, as in the source (no reprojection)","source_features":[{"id":"DoS_WP_11_4 fid 216","WP_Name":"No Man's Land","WP_ID":"55cd4e05-4750-4921-95f1-6e1a2571c056","Map_Label":"No Man's Land","NOTES":null,"US_Recog":null,"Show_Disp":null,"GENC_3":"QX4"},{"id":"DoS_WP_11_4 fid 217","WP_Name":"No Man's Land","WP_ID":"861318b1-8857-4296-b3e0-451d7d53f4e6","Map_Label":"No Man's Land","NOTES":null,"US_Recog":null,"Show_Disp":null,"GENC_3":"QX4"},{"id":"DoS_WP_11_4 fid 204","WP_Name":"Mt. Scopus South","WP_ID":"7935c70b-1e4e-46bf-85c0-28d2d3d7efff","Map_Label":null,"NOTES":null,"US_Recog":null,"Show_Disp":null,"GENC_3":"XWB"}]},"geometry":{"type":"MultiPolygon","coordinates":[[[[35.22405080000004,31.744366700000057],[35.22386810000006,31.744600000000048],[35.222982900000034,31.74546820000006],[35.22326280000004,31.74635090000004],[35.22364550000003,31.746586600000057],[35.22372690000003,31.74664720000004],[35.224397500000066,31.74723380000006],[35.224438200000066,31.747285700000077],[35.224469800000065,31.747361200000057],[35.224495200000035,31.74744780000003],[35.224515600000075,31.747590500000058],[35.22451550000005,31.74783720000005],[35.22448500000007,31.748010200000067],[35.22442390000003,31.74818760000005],[35.22431300000005,31.74846240000005],[35.22457620000006,31.749392300000068],[35.22462710000008,31.749837900000045],[35.22477470000007,31.75054750000004],[35.22482720000005,31.750851600000033],[35.224221700000044,31.750981400000057],[35.224263800000074,31.75123780000007],[35.22430460000004,31.751532000000054],[35.224396400000046,31.75242030000004],[35.22455910000008,31.754129900000066],[35.22463550000003,31.75465380000003],[35.22475910000003,31.755428600000073],[35.22492200000005,31.756255500000066],[35.225014000000044,31.75663600000007],[35.225207400000045,31.757133800000076],[35.225703800000076,31.757167000000038],[35.226447800000074,31.75723620000008],[35.226549600000055,31.75708030000004],[35.22669720000005,31.756885500000067],[35.227130000000045,31.756452600000046],[35.22720640000006,31.75638760000004],[35.22733860000005,31.75636990000004],[35.22751350000004,31.756359200000077],[35.227608400000065,31.75637420000004],[35.22782780000006,31.756456900000046],[35.227981500000055,31.757717600000035],[35.22813670000005,31.758763000000044],[35.22821320000003,31.759053400000028],[35.22828970000006,31.75963660000008],[35.22838090000005,31.76018090000008],[35.22843580000006,31.760802600000034],[35.228453900000034,31.76133130000005],[35.228437100000065,31.761949800000025],[35.22838090000005,31.76223600000003],[35.22828400000003,31.76252210000007],[35.22816160000008,31.762743200000045],[35.22775400000006,31.763336500000037],[35.22778960000005,31.763765100000057],[35.227896600000065,31.764319200000045],[35.22793670000004,31.76447950000005],[35.22803340000007,31.764739200000065],[35.228170900000066,31.765358400000025],[35.228502400000025,31.76656890000004],[35.228583800000024,31.76688960000007],[35.228813100000025,31.767461900000058],[35.228950800000064,31.767796100000055],[35.22908380000007,31.76805410000003],[35.22924810000006,31.768349800000067],[35.22930300000007,31.768520800000033],[35.229486000000065,31.769111500000065],[35.22959600000007,31.769406600000025],[35.229840300000035,31.771073500000057],[35.22989820000004,31.77224680000006],[35.22986060000005,31.77237660000003],[35.22980960000007,31.772471800000062],[35.22974720000008,31.772554700000057],[35.229670800000065,31.77261960000004],[35.22960460000007,31.772662900000057],[35.22953330000007,31.772675900000024],[35.22944160000003,31.772680200000025],[35.22908010000003,31.772658600000057],[35.228382500000066,31.772662900000057],[35.22791380000007,31.772754100000043],[35.227715000000046,31.772827800000073],[35.22766410000003,31.77287110000003],[35.22750300000007,31.773116900000048],[35.227228600000046,31.77353670000008],[35.227063900000076,31.773940800000048],[35.226606600000025,31.774857800000063],[35.22630480000004,31.775321700000063],[35.22594820000006,31.776194200000077],[35.225337600000046,31.776877900000045],[35.22537280000006,31.778708300000062],[35.22536130000003,31.77884460000007],[35.22531060000006,31.77917620000005],[35.22565550000007,31.779342600000064],[35.22645980000004,31.779766900000027],[35.22693650000008,31.78009090000006],[35.227272500000026,31.780298600000037],[35.22746600000005,31.780415400000038],[35.22717060000008,31.780917500000044],[35.22685980000006,31.781350400000065],[35.22656940000007,31.78176590000004],[35.226503200000025,31.78190010000003],[35.22645220000004,31.78206030000007],[35.22642160000004,31.78230270000006],[35.22642150000007,31.78271840000008],[35.22644690000004,31.783043100000043],[35.22647820000003,31.783217900000068],[35.22656470000004,31.78373300000004],[35.226875300000074,31.78372010000004],[35.22720130000005,31.78372020000006],[35.22723690000004,31.783759100000054],[35.22726750000004,31.78380240000007],[35.227272500000026,31.784105500000067],[35.227277600000036,31.784205000000043],[35.227323400000046,31.784291600000074],[35.22730800000005,31.784586000000047],[35.22727740000005,31.784906300000046],[35.22701900000004,31.78645510000007],[35.22692850000004,31.786634700000036],[35.22684570000007,31.78685770000004],[35.22683550000005,31.786978900000065],[35.22686090000008,31.78715210000007],[35.226901600000076,31.787234400000045],[35.22708630000005,31.787469000000044],[35.22713840000006,31.78756180000005],[35.22713330000005,31.787648400000023],[35.227092500000026,31.78793410000003],[35.22705650000006,31.789246400000025],[35.226968000000056,31.790208800000073],[35.226944900000035,31.790822400000025],[35.22689900000006,31.79105620000007],[35.22684170000008,31.791192600000045],[35.226589500000046,31.791621100000043],[35.22639470000007,31.791864600000054],[35.22629960000006,31.791943100000026],[35.22619640000005,31.792021000000034],[35.22608180000003,31.79211840000005],[35.22598000000005,31.792233900000042],[35.225934100000075,31.792298800000026],[35.22478220000005,31.79420730000004],[35.22469520000004,31.794319100000052],[35.224397200000055,31.794611200000077],[35.22428260000004,31.794689100000028],[35.22425970000006,31.794893600000023],[35.224202400000024,31.79508830000003],[35.22408780000006,31.795370700000035],[35.223595000000046,31.796490300000073],[35.22492150000005,31.796488600000032],[35.22561170000006,31.796477200000027],[35.225625200000025,31.796304700000064],[35.225665900000024,31.79569520000007],[35.22570650000006,31.79521230000006],[35.225774100000024,31.794982300000072],[35.225828300000046,31.79464880000006],[35.226369600000055,31.793291700000054],[35.22641020000003,31.793119200000035],[35.226423700000055,31.792889200000047],[35.22682970000005,31.792279500000063],[35.226829800000075,31.792118500000072],[35.226802700000064,31.791957400000058],[35.22676210000003,31.791761800000074],[35.22714120000006,31.79118660000006],[35.227351200000044,31.790905700000053],[35.22745370000007,31.790685500000052],[35.22753800000004,31.79059330000007],[35.22764650000005,31.79050110000003],[35.228008000000045,31.790286000000037],[35.22825510000007,31.790188700000044],[35.22841770000008,31.790183600000034],[35.22859850000003,31.79020920000005],[35.22867680000007,31.790198900000064],[35.22876110000004,31.79016310000003],[35.22885750000006,31.790106800000046],[35.22886950000003,31.79005040000004],[35.22885620000005,31.789940500000057],[35.228832100000034,31.78986370000007],[35.228765800000076,31.789725400000066],[35.22831380000002,31.788916200000074],[35.228084900000056,31.78854750000005],[35.22794200000004,31.788300900000024],[35.22786200000007,31.788178800000026],[35.22777160000004,31.78806620000006],[35.22763910000003,31.78792800000008],[35.22722950000008,31.787472300000047],[35.22710900000004,31.787334100000066],[35.227054800000076,31.78725220000007],[35.22701370000004,31.787156500000037],[35.22700350000008,31.787078500000064],[35.22700680000003,31.786998200000028],[35.227067000000034,31.786895800000025],[35.22733200000005,31.786588600000073],[35.22769630000005,31.786243100000036],[35.22794390000007,31.786010400000066],[35.22807430000006,31.78582830000005],[35.22816100000006,31.785669900000073],[35.228207600000076,31.78547990000004],[35.22820930000006,31.785254700000053],[35.22814910000005,31.785116500000072],[35.22802260000003,31.78496800000005],[35.22794430000005,31.784901500000046],[35.227854000000036,31.784834900000078],[35.22779980000007,31.784783700000048],[35.22775160000003,31.784671100000025],[35.227757600000075,31.784573800000032],[35.22783590000006,31.78439970000005],[35.22788410000004,31.784241000000065],[35.227896100000066,31.78389290000007],[35.22756480000004,31.783821200000034],[35.22742560000006,31.783753800000056],[35.227360400000066,31.783706300000063],[35.22726730000005,31.783595400000024],[35.22726970000008,31.783534400000065],[35.227323900000044,31.783483200000035],[35.22743230000003,31.783421800000042],[35.22757470000005,31.783326300000056],[35.22770520000006,31.783231300000068],[35.22809650000005,31.78285120000004],[35.22820830000006,31.78275620000005],[35.22836670000004,31.782661200000064],[35.22870340000003,31.782489700000042],[35.22935430000007,31.782233700000063],[35.22963390000007,31.782114900000067],[35.229796100000044,31.782026100000053],[35.22989250000006,31.781959500000028],[35.23023010000003,31.781642400000067],[35.230143500000054,31.78158170000006],[35.230174100000056,31.78154710000007],[35.229837900000064,31.781300200000032],[35.22976140000003,31.78137380000004],[35.22964940000003,31.781282900000065],[35.229623900000036,31.781304500000033],[35.229511900000034,31.78121790000006],[35.22957300000007,31.781157300000075],[35.22942530000006,31.78104030000003],[35.229456500000026,31.78100010000003],[35.22851950000006,31.78029410000005],[35.228468500000076,31.780337400000064],[35.228351400000065,31.780242100000066],[35.22838710000008,31.780203200000074],[35.228096900000025,31.77998670000005],[35.22813770000005,31.77994780000006],[35.228071500000055,31.779891500000076],[35.228030800000056,31.77992610000007],[35.22770510000004,31.779670700000054],[35.22738810000004,31.77997700000003],[35.22718450000008,31.779825500000072],[35.22716920000005,31.77984280000004],[35.22682310000005,31.779596000000026],[35.22677730000004,31.779647900000043],[35.226426100000026,31.779427200000043],[35.226019000000065,31.779254000000037],[35.225968100000046,31.779327600000045],[35.22583580000003,31.77924530000007],[35.22590700000006,31.779150100000038],[35.225922300000036,31.77915880000006],[35.226125900000056,31.77893380000006],[35.225891800000056,31.778704400000038],[35.22567790000005,31.778435900000034],[35.22582040000003,31.778323400000033],[35.22581020000007,31.778189200000043],[35.22588150000007,31.77815460000005],[35.225871400000074,31.778076600000077],[35.22757740000003,31.776709400000072],[35.22753670000003,31.776661800000056],[35.22760290000008,31.776605500000073],[35.22760800000003,31.776436700000033],[35.22754690000005,31.776073000000054],[35.22748580000007,31.775869500000056],[35.22746550000005,31.775583700000027],[35.22781690000005,31.775540500000034],[35.22777620000005,31.775087400000075],[35.22773040000004,31.775091700000075],[35.22773040000004,31.774987800000076],[35.22777110000004,31.774983400000053],[35.22774570000007,31.77460240000005],[35.22766420000005,31.77460240000005],[35.227669400000025,31.774463900000057],[35.227750900000046,31.774459500000034],[35.22772040000007,31.774169400000062],[35.22771530000006,31.773931300000072],[35.22777650000006,31.77392260000005],[35.227807100000064,31.773706100000027],[35.227807100000064,31.773537300000044],[35.22774090000007,31.773537300000044],[35.22773580000006,31.77340730000003],[35.227796900000044,31.77339870000003],[35.22779190000006,31.773151900000073],[35.22774090000007,31.773151900000073],[35.22774100000004,31.77291800000006],[35.22837300000003,31.772896600000024],[35.22837300000003,31.772866300000032],[35.228479900000025,31.772866400000055],[35.228479900000025,31.772901000000047],[35.229432200000076,31.77289680000007],[35.22967660000006,31.772810200000038],[35.22972240000007,31.772801600000037],[35.23007380000007,31.772827600000028],[35.230124800000056,31.772844900000052],[35.23057300000005,31.772896900000035],[35.23060870000006,31.772888300000034],[35.23081760000008,31.772910000000024],[35.23089280000005,31.77266530000003],[35.230930700000044,31.77256330000006],[35.230993900000044,31.772445100000027],[35.23118340000008,31.772122800000034],[35.23125930000003,31.771961600000054],[35.23131610000007,31.771811100000036],[35.23139200000003,31.77152090000004],[35.23147420000004,31.771101600000065],[35.231505800000036,31.771047900000042],[35.23160690000003,31.770924200000024],[35.23203060000003,31.77045620000007],[35.232233000000065,31.77021940000003],[35.232466500000044,31.76975710000005],[35.232685600000025,31.76924420000006],[35.23273040000004,31.76907870000008],[35.23273040000004,31.76899220000007],[35.23268680000007,31.768831500000033],[35.232556000000045,31.768677000000025],[35.23240340000007,31.76857810000007],[35.232061800000054,31.768504000000064],[35.231569800000045,31.768357700000024],[35.23114920000006,31.76827990000004],[35.23098470000008,31.768233200000054],[35.23081150000007,31.768160800000032],[35.230335600000046,31.767845800000032],[35.230088900000055,31.767648300000076],[35.22991070000006,31.767462900000055],[35.229794500000025,31.767333300000075],[35.22948980000007,31.766839600000026],[35.22935210000003,31.766512700000078],[35.229228800000044,31.76620440000005],[35.22906910000006,31.765675000000044],[35.22904200000005,31.765545200000076],[35.22888980000005,31.764428300000077],[35.22880310000005,31.763364000000024],[35.22883200000007,31.763042900000073],[35.22886050000005,31.762953800000048],[35.22890400000006,31.76284890000005],[35.228969300000074,31.762750200000028],[35.229049100000054,31.76265150000006],[35.22926680000006,31.762515800000074],[35.22947010000007,31.762448000000063],[35.23122060000003,31.76212110000006],[35.23170010000007,31.761985200000026],[35.24235630000004,31.758671400000026],[35.24235870000007,31.758153700000037],[35.24239540000008,31.757904800000063],[35.24276140000006,31.757749200000035],[35.242999300000065,31.757453700000042],[35.243001900000024,31.75602630000003],[35.242910100000074,31.753723900000068],[35.24292820000005,31.753272800000047],[35.24276340000006,31.751671300000055],[35.24150220000007,31.75058320000005],[35.23967430000005,31.748919800000067],[35.23500100000007,31.74449000000004],[35.22748310000003,31.744525100000033],[35.22485440000003,31.74453740000007],[35.22448920000005,31.744475400000056],[35.22405080000004,31.744366700000057]]],[[[35.24896000000007,31.787929000000076],[35.24926500000004,31.78767000000005],[35.249495000000024,31.787521000000027],[35.249595000000056,31.787479000000076],[35.24971000000005,31.78743600000007],[35.24993500000005,31.787402000000043],[35.25012000000004,31.787364000000025],[35.250305000000026,31.78727900000007],[35.25059500000003,31.787134000000037],[35.25070000000005,31.78708800000004],[35.25080500000007,31.78706600000004],[35.25091500000008,31.78706200000005],[35.25139500000006,31.78714300000007],[35.25153000000006,31.78715600000004],[35.25162500000005,31.78714700000006],[35.251720000000034,31.787130000000047],[35.25181500000008,31.78709200000003],[35.25189000000006,31.78705400000007],[35.251945000000035,31.787003000000027],[35.25197000000003,31.78693000000004],[35.25196500000004,31.786730000000034],[35.251945000000035,31.78660700000006],[35.25160000000005,31.785183000000075],[35.251595000000066,31.785098000000062],[35.25162000000006,31.785026000000073],[35.251685000000066,31.784928000000036],[35.25178000000005,31.784839000000034],[35.25179500000007,31.784758000000068],[35.25178500000004,31.784703000000036],[35.25173900000004,31.78465700000004],[35.247780000000034,31.78469300000006],[35.248105000000066,31.785701000000074],[35.24799500000006,31.785749000000067],[35.24792400000007,31.785791000000074],[35.24788900000004,31.785829000000035],[35.24784400000004,31.78593600000005],[35.24777900000004,31.786055000000033],[35.24771400000003,31.78615700000006],[35.24763000000007,31.786254000000042],[35.24752900000004,31.786344000000042],[35.24744400000003,31.786403000000064],[35.247344000000055,31.786420000000078],[35.24714400000005,31.786437000000035],[35.24702400000007,31.78644200000008],[35.24694400000004,31.78648000000004],[35.24688400000008,31.78654800000004],[35.246849000000054,31.786624000000074],[35.246849000000054,31.78670500000004],[35.24686600000007,31.78676500000006],[35.24688900000007,31.786824000000024],[35.246838000000025,31.78685500000006],[35.246699000000035,31.786942000000067],[35.24658400000004,31.787041000000045],[35.24652400000008,31.787139000000025],[35.24643400000008,31.78730900000005],[35.24640400000004,31.78744000000006],[35.24641900000006,31.787509000000057],[35.246484000000066,31.787551000000065],[35.24670400000008,31.787585000000036],[35.24688400000008,31.78760200000005],[35.24714000000006,31.78756400000003],[35.247164000000055,31.787708000000066],[35.24719900000008,31.787768000000028],[35.24724400000008,31.78779700000007],[35.247329000000036,31.78779700000007],[35.24738400000007,31.78775900000005],[35.247469000000024,31.787679000000026],[35.247524000000055,31.787645000000055],[35.24757400000004,31.787657000000024],[35.24759400000005,31.78770000000003],[35.24758500000007,31.787768000000028],[35.247520000000065,31.787885000000074],[35.24735300000003,31.788103000000035],[35.24628500000006,31.78949700000004],[35.24786300000005,31.789631000000043],[35.24786300000005,31.789374000000066],[35.24789300000003,31.789255000000026],[35.24794300000008,31.789153000000056],[35.24797300000006,31.789097000000027],[35.24798800000008,31.789068000000043],[35.24807300000003,31.78894500000007],[35.24819900000006,31.788788000000068],[35.24846000000008,31.788478000000055],[35.248703000000035,31.788211000000047],[35.24896000000007,31.787929000000076]]],[[[35.10856400000006,31.82350800000006],[35.10655900000006,31.823538000000042],[35.10347100000007,31.823863000000074],[35.10207600000007,31.824318000000062],[35.09952300000003,31.825541000000044],[35.09680600000007,31.827198000000067],[35.09425300000004,31.828827000000047],[35.092107000000055,31.830430000000035],[35.089417000000026,31.832359000000054],[35.08637500000003,31.83445100000006],[35.08360200000004,31.83618800000005],[35.080516000000046,31.837995000000035],[35.078332000000046,31.83938500000005],[35.075627000000054,31.84105100000005],[35.07208300000008,31.843000000000075],[35.06877100000003,31.84480700000006],[35.068737000000056,31.844827000000066],[35.06546100000003,31.846715000000074],[35.065364000000045,31.846771000000047],[35.06131700000003,31.849116000000038],[35.05877400000003,31.850559000000032],[35.05757700000004,31.851080000000024],[35.05657400000007,31.851410000000044],[35.055972000000054,31.850506000000053],[35.05552000000006,31.84918600000003],[35.054692000000045,31.846892000000025],[35.05408900000003,31.84494600000005],[35.05265900000006,31.84174900000005],[35.051454000000035,31.838829000000032],[35.05077700000004,31.83632700000004],[35.050267000000076,31.83426600000007],[35.04973700000005,31.833129000000042],[35.04821700000008,31.830975000000024],[35.04610900000006,31.828403000000037],[35.04362400000008,31.826179000000025],[35.04129000000006,31.823607000000038],[35.03895600000004,31.82145200000008],[35.03662200000008,31.819923000000074],[35.03518100000008,31.819397000000038],[35.03296900000004,31.818629000000044],[35.03052400000007,31.817768000000058],[35.02813200000003,31.817391000000043],[35.02627600000005,31.817326000000037],[35.02487700000006,31.817282000000034],[35.02254300000004,31.81721200000004],[35.02005900000006,31.817421000000024],[35.01704700000005,31.817629000000068],[35.014287000000024,31.818273000000033],[35.01186900000005,31.819132000000025],[35.01060300000006,31.819510000000037],[35.009874000000025,31.819598000000042],[35.00680200000005,31.819278000000054],[35.00457400000005,31.81905900000004],[35.00263700000005,31.81882600000006],[35.00096300000007,31.81860800000004],[34.99945500000007,31.818325000000073],[34.99825000000004,31.817907000000048],[34.995314000000064,31.817490000000078],[34.99207700000005,31.81693400000006],[34.98959200000007,31.816587000000027],[34.98658100000006,31.816448000000037],[34.983569000000045,31.816309000000047],[34.980630000000076,31.81626600000004],[34.978901000000064,31.816170000000056],[34.976743000000056,31.81651800000003],[34.97468500000008,31.81693400000006],[34.972953000000075,31.81770400000005],[34.970845000000054,31.818881000000033],[34.969145000000026,31.820386000000042],[34.96753300000006,31.82186900000005],[34.965918000000045,31.823515000000043],[34.96422800000005,31.825419000000068],[34.962848000000065,31.82734300000004],[34.96181800000005,31.829286000000025],[34.96113800000006,31.830997000000025],[34.96038000000004,31.83326900000003],[34.95983600000005,31.83550500000007],[34.95940100000007,31.83750900000007],[34.95911700000005,31.83917800000006],[34.95857300000006,31.841053000000045],[34.95822300000003,31.84273500000006],[34.95765200000005,31.84499100000005],[34.957463000000075,31.846674000000064],[34.95714300000003,31.84863100000007],[34.956998000000056,31.84989900000005],[34.956706000000054,31.85124200000007],[34.956515000000024,31.852707000000066],[34.95619800000003,31.853881000000058],[34.956020000000024,31.854715000000056],[34.95589600000005,31.855259000000046],[34.95569100000006,31.85611300000005],[34.95572500000003,31.85664200000008],[34.95593000000002,31.857308000000046],[34.95611800000006,31.857769000000076],[34.95639100000005,31.85831600000006],[34.95676700000007,31.858863000000042],[34.95705700000008,31.85915300000005],[34.957621000000074,31.85961400000008],[34.95816800000006,31.85999000000004],[34.95868000000007,31.860554000000036],[34.958987000000036,31.86113400000005],[34.95934600000004,31.861681000000033],[34.959722000000056,31.861818000000028],[34.96040500000004,31.862022000000024],[34.96105400000005,31.862193000000048],[34.96197600000005,31.862347000000057],[34.96317200000004,31.862569000000065],[34.96494900000005,31.86280800000003],[34.96655400000003,31.86313300000006],[34.96757900000006,31.863286000000073],[34.96901400000007,31.863645000000076],[34.970841000000064,31.86410600000005],[34.97299300000003,31.86456700000008],[34.97448000000003,31.864926000000025],[34.975163000000066,31.865131000000076],[34.97724600000004,31.865797000000043],[34.97775900000005,31.865968000000066],[34.98066300000005,31.866634000000033],[34.98295100000007,31.86719800000003],[34.98419800000005,31.867471000000023],[34.98489100000006,31.867639000000054],[34.98583600000006,31.867863000000057],[34.98686800000007,31.86810900000006],[34.988195000000076,31.86837600000007],[34.99965600000007,31.870247000000063],[35.00183800000008,31.870161000000053],[35.00560800000005,31.87001200000003],[35.00846400000006,31.869899000000032],[35.01207800000003,31.869760000000042],[35.01501500000006,31.869760000000042],[35.01810100000006,31.869830000000036],[35.02148900000003,31.869830000000036],[35.025329000000056,31.869899000000032],[35.02570600000007,31.87219300000004],[35.02578100000005,31.873861000000034],[35.02578100000005,31.87552900000003],[35.02585600000003,31.877197000000024],[35.02585600000003,31.87879600000008],[35.02570600000007,31.87997800000005],[35.02517900000004,31.881020000000035],[35.024275000000046,31.88268800000003],[35.02344700000003,31.88428700000003],[35.021866000000045,31.885886000000028],[35.02231800000004,31.886581000000035],[35.02329600000007,31.887763000000064],[35.024576000000025,31.889222000000075],[35.02608200000003,31.890960000000064],[35.02713600000004,31.89248900000007],[35.02593100000007,31.893601000000046],[35.025329000000056,31.895061000000055],[35.02472700000004,31.89645100000007],[35.024576000000025,31.897841000000028],[35.024275000000046,31.899231000000043],[35.024200000000064,31.900899000000038],[35.02344700000003,31.90256800000003],[35.023070000000075,31.904097000000036],[35.02299500000004,31.906530000000032],[35.022920000000056,31.908198000000027],[35.02246800000006,31.910213000000056],[35.02209200000004,31.912438000000066],[35.021866000000045,31.91494000000006],[35.02148900000003,31.916400000000067],[35.020812000000035,31.91772000000003],[35.02013400000004,31.91827600000005],[35.01908000000003,31.918693000000076],[35.01689700000003,31.919388000000026],[35.014789000000064,31.920014000000037],[35.012455000000045,31.920987000000025],[35.00944300000003,31.92182100000008],[35.00703400000003,31.92272500000007],[35.00492600000007,31.92383700000005],[35.002571000000046,31.92493600000006],[35.00108400000005,31.92587400000008],[34.999768000000074,31.926644000000067],[34.99875100000003,31.927569000000062],[34.99761600000005,31.928626000000065],[34.996534000000054,31.92982500000005],[34.99574300000006,31.93114200000008],[34.99538800000005,31.932135000000073],[34.994785000000036,31.933732000000077],[34.99443000000008,31.935009000000036],[34.994181000000026,31.936464000000058],[34.99393300000003,31.93767100000008],[34.99364900000006,31.93894800000004],[34.99336500000004,31.940048000000047],[34.99329400000005,31.940935000000025],[34.993081000000075,31.942070000000058],[34.993070000000046,31.94211000000007],[34.992833000000076,31.942993000000058],[34.992585000000076,31.943809000000044],[34.99226500000003,31.945193000000074],[34.99187500000005,31.946399000000042],[34.99148400000007,31.947464000000025],[34.991165000000024,31.94835100000006],[34.99077500000004,31.949380000000076],[34.99035200000003,31.950255000000027],[34.98982100000006,31.951211000000058],[34.98932600000006,31.95213300000006],[34.98868100000004,31.953070000000025],[34.98807800000003,31.953993000000025],[34.987262000000044,31.955164000000025],[34.98658800000004,31.95605100000006],[34.98563000000007,31.957257000000027],[34.98483500000003,31.958286000000044],[34.98433300000005,31.95891800000004],[34.98371400000008,31.95963500000005],[34.98342700000006,31.960091000000034],[34.98306000000008,31.960540000000037],[34.982462000000055,31.96137200000004],[34.98190400000004,31.962225000000046],[34.98156300000005,31.963068000000078],[34.98123000000004,31.96389300000004],[34.980946000000074,31.964815000000044],[34.980804000000035,31.965596000000062],[34.98066200000005,31.966447000000073],[34.980485000000044,31.967441000000065],[34.98037000000005,31.96814900000004],[34.98102300000005,31.968009000000052],[34.98205400000006,31.96754800000008],[34.98307600000004,31.967307000000062],[34.98433800000004,31.967247000000043],[34.98438500000003,31.96725500000008],[34.98536000000007,31.967367000000024],[34.98635900000005,31.96760100000006],[34.98675300000008,31.96773500000006],[34.986897000000056,31.96788300000003],[34.98757200000006,31.967689000000064],[34.98775900000004,31.96694400000007],[34.987865000000056,31.96630600000003],[34.98804300000006,31.96556000000004],[34.98836200000005,31.964744000000053],[34.988752000000034,31.963928000000067],[34.989036000000056,31.963183000000072],[34.98939100000007,31.962438000000077],[34.98981700000007,31.961693000000025],[34.990278000000046,31.96094800000003],[34.99063300000006,31.96023800000006],[34.991165000000024,31.959209000000044],[34.991662000000076,31.958570000000066],[34.992301000000055,31.95775400000008],[34.99304600000005,31.956973000000062],[34.99393300000003,31.95605100000006],[34.994732000000056,31.95526300000006],[34.99533300000007,31.95464700000008],[34.996008000000074,31.953996000000075],[34.996665000000064,31.953354000000047],[34.99744800000008,31.95268500000003],[34.998140000000035,31.952087000000063],[34.99850600000008,31.95178500000003],[34.999817000000064,31.95077200000003],[35.000290000000064,31.950428000000045],[35.00074500000005,31.950161000000037],[35.00185000000005,31.949494000000072],[35.00307800000007,31.948843000000068],[35.00380700000005,31.94845600000008],[35.00455400000004,31.948108000000047],[35.00526300000007,31.94761900000003],[35.00601800000004,31.947088000000065],[35.006485000000055,31.94669200000004],[35.006696000000034,31.946439000000055],[35.00686300000007,31.946128000000044],[35.00686300000007,31.945700000000045],[35.00670900000006,31.945078000000024],[35.00639000000007,31.94441000000006],[35.00588700000003,31.943501000000026],[35.00548500000008,31.94280800000007],[35.004515000000026,31.942312000000072],[35.003753000000074,31.941922000000034],[35.00263600000005,31.941110000000037],[35.001689000000056,31.940230000000042],[35.00121500000006,31.939519000000075],[35.00077500000003,31.93860600000005],[35.000335000000064,31.937590000000057],[35.000166000000036,31.93677800000006],[34.99999600000007,31.93579600000004],[35.000166000000036,31.93468000000007],[35.00134700000007,31.932751000000053],[35.002743000000066,31.931552000000067],[35.00447400000007,31.930649000000074],[35.00605500000006,31.929815000000076],[35.008196000000055,31.928875000000062],[35.01052000000004,31.927966000000026],[35.012605000000065,31.92752100000007],[35.01471300000003,31.92703400000005],[35.01644500000003,31.92620000000005],[35.01780000000008,31.92592200000007],[35.019908000000044,31.925436000000047],[35.02171500000003,31.925088000000073],[35.02359700000005,31.925227000000064],[35.02593100000007,31.925644000000034],[35.027738000000056,31.925783000000024],[35.030072000000075,31.925088000000073],[35.03187900000006,31.92397600000004],[35.033536000000026,31.92272500000007],[35.03489100000007,31.920848000000035],[35.03549300000003,31.920014000000037],[35.037149000000056,31.917025000000024],[35.03797800000007,31.91424500000005],[35.03895600000004,31.911743000000058],[35.039634000000035,31.909240000000068],[35.04016100000007,31.90646000000004],[35.04038700000007,31.903958000000046],[35.04076300000003,31.90138600000006],[35.04076300000003,31.898884000000066],[35.04083900000006,31.896312000000023],[35.04083900000006,31.894574000000034],[35.040688000000046,31.892698000000053],[35.040688000000046,31.891516000000024],[35.04076300000003,31.889361000000065],[35.040688000000046,31.88755400000008],[35.04046200000005,31.885677000000044],[35.04016100000007,31.884218000000033],[35.039559000000054,31.882966000000067],[35.03910700000006,31.881229000000076],[35.038580000000024,31.879283000000044],[35.03782700000005,31.877545000000055],[35.037225000000035,31.87573800000007],[35.03684800000008,31.87351300000006],[35.036321000000044,31.870872000000077],[35.03579400000007,31.867814000000067],[35.03526700000003,31.865103000000033],[35.03459000000004,31.862253000000067],[35.03421300000008,31.859751000000074],[35.033611000000064,31.85676200000006],[35.03308400000003,31.855094000000065],[35.02623300000005,31.85516300000006],[35.019758000000024,31.85530300000005],[35.016954000000055,31.85539700000004],[35.014864000000046,31.855233000000055],[35.011551000000054,31.85516300000006],[35.007787000000064,31.855233000000055],[35.00522700000005,31.854746000000034],[35.00229100000007,31.854399000000058],[35.00048400000003,31.854121000000077],[34.99883600000004,31.853841000000045],[34.99839300000008,31.85382400000003],[34.997880000000066,31.853721000000064],[34.99750400000005,31.853653000000065],[34.99700900000005,31.85355100000004],[34.99653100000006,31.85344800000007],[34.996053000000074,31.853345000000047],[34.99559100000005,31.853226000000063],[34.99514700000003,31.853072000000054],[34.994857000000025,31.85295300000007],[34.99456600000008,31.852748000000076],[34.994395000000054,31.852577000000053],[34.992804000000035,31.850993000000074],[34.991750000000025,31.84890800000005],[34.99084700000003,31.847101000000066],[34.98911500000003,31.844112000000052],[34.987835000000075,31.842930000000024],[34.98648000000003,31.84174900000005],[34.98497400000008,31.84070600000007],[34.983168000000035,31.83966300000003],[34.98166200000003,31.838621000000046],[34.98038200000008,31.83778700000005],[34.979328000000066,31.836883000000057],[34.97902700000003,31.836396000000036],[34.97910200000007,31.83472800000004],[34.97917700000005,31.832782000000066],[34.97917700000005,31.83167000000003],[34.97940300000005,31.83076600000004],[34.98023100000006,31.83021000000008],[34.98166200000003,31.829446000000075],[34.98354400000005,31.829237000000035],[34.985727000000054,31.829237000000035],[34.987423000000035,31.829424000000074],[34.98988600000007,31.829522000000054],[34.99288000000007,31.829585000000066],[34.99589100000003,31.829793000000052],[34.99852600000003,31.829724000000056],[34.99965600000007,31.829654000000062],[35.00259200000005,31.829446000000075],[35.00492600000007,31.82930700000003],[35.00710900000007,31.829098000000045],[35.009217000000035,31.829029000000048],[35.01147600000007,31.828959000000054],[35.01403600000003,31.82916800000004],[35.01659600000005,31.82930700000003],[35.01908000000003,31.829446000000075],[35.02156500000007,31.829654000000062],[35.02337200000005,31.83021000000008],[35.025630000000035,31.83111400000007],[35.02721100000008,31.83236500000004],[35.02962100000008,31.834103000000027],[35.033611000000064,31.837370000000078],[35.037225000000035,31.840358000000037],[35.04159100000004,31.843834000000072],[35.04520500000007,31.84668400000004],[35.04851800000006,31.84918600000003],[35.05153000000007,31.850993000000074],[35.053638000000035,31.85252200000008],[35.05634800000007,31.853773000000047],[35.058456000000035,31.854677000000038],[35.060790000000054,31.85544200000004],[35.063897000000054,31.856160000000045],[35.06629000000004,31.85651800000005],[35.06633700000003,31.856525000000033],[35.07024000000007,31.856599000000074],[35.072216000000026,31.85633000000007],[35.07555600000006,31.855564000000072],[35.07891700000005,31.854395000000068],[35.08194600000007,31.85307800000004],[35.08356100000003,31.852162000000078],[35.084929000000045,31.851019000000065],[35.08603300000004,31.84992200000005],[35.08706600000005,31.848838000000057],[35.08827000000008,31.847240000000056],[35.08947500000005,31.845780000000047],[35.090291000000036,31.844768000000045],[35.09033500000004,31.844692000000066],[35.09131600000006,31.84298700000005],[35.092261000000065,31.841192000000035],[35.093267000000026,31.838962000000038],[35.09383200000008,31.83754600000003],[35.09399200000007,31.836744000000067],[35.09451900000005,31.835145000000068],[35.09527200000008,31.833338000000026],[35.096100000000035,31.832087000000058],[35.097455000000025,31.83076600000004],[35.09900700000003,31.829045000000065],[35.10082700000004,31.827523000000042],[35.10297300000008,31.82613800000007],[35.104521000000034,31.82535000000007],[35.10610400000007,31.825019000000054],[35.10793200000006,31.82481800000005],[35.10997200000003,31.824700000000064],[35.11293200000006,31.824677000000065],[35.114847000000054,31.824902000000066],[35.11328100000003,31.824154000000078],[35.11246200000005,31.82380100000006],[35.11146300000007,31.82359800000006],[35.110352000000034,31.82360600000004],[35.10856400000006,31.82350800000006]]],[[[35.49435900000003,32.40112700000003],[35.49433800000003,32.401445000000024],[35.49424600000003,32.40166500000004],[35.49424700000003,32.40166500000004],[35.49583800000005,32.401279000000045],[35.49488300000007,32.40098300000005],[35.494462000000055,32.400911000000065],[35.49435900000003,32.40112700000003]]]]}}]}
