{"type":"FeatureCollection","features":[{"type":"Feature","properties":{"place":"artsvashen","region":"area/artsvashen","donors":"AZ","rank":2,"whose_line":"the US State Department's international boundaries (World Polygons 11.4)","publisher":"US Department of State, Office of the Geographer and Global Issues (World Polygons, high-resolution layer DoS_WP_11_4)","source_url":"https://data.geodata.state.gov/WorldPolygons.zip","version_or_date":"World Polygons 11.4 BETA, 2025-02-24; read 2026-10-04","feature_id":"DoS_WP_11_4 fid 15: the Armenian exclave of Artsvashen, part of Armenia's polygon (fid 15)","licence":"US government work, not subject to US copyright (17 U.S.C. § 105)","notes":"Held by Azerbaijan since August 1992; Armenia claims it. GADM puts the land in Azerbaijan's Gadabay and its own Artsvashen part overlaps the State Department's outline by only 7 of 38 km²; Armenia's own COD-AB boundary has no exclave. OSM relation 10853047 (Chambarak community) agrees with this outline (37.4 km² overlap).","input_sha256":"55fab422ef09e35eb48d68141b9ece0ace86d4276dfe332a04dfd401c0bfc80c","operation":"the parts of the source feature that contain the points [[45.517, 40.629]]","crs":"WGS84 longitude/latitude, as in the source (no reprojection)","source_features":[{"id":"DoS_WP_11_4 fid 15","WP_Name":"Armenia","WP_ID":"f69829e1-5512-4fc3-87d6-5144e4dad363","Map_Label":"ARMENIA","NOTES":null,"US_Recog":"Independent","Show_Disp":null,"GENC_3":"ARM"}]},"geometry":{"type":"Polygon","coordinates":[[[45.48995110000004,40.64918630000005],[45.49202690000004,40.652565200000026],[45.493979800000034,40.65587590000007],[45.49618860000004,40.65978750000005],[45.497879400000045,40.66299440000006],[45.497892300000046,40.66301910000004],[45.49798450000003,40.66384450000004],[45.498092400000075,40.664810000000045],[45.498103300000025,40.66490790000006],[45.49809970000007,40.66522620000006],[45.49809710000005,40.66544860000005],[45.49884980000007,40.665368500000056],[45.50013370000005,40.665358800000035],[45.50139210000003,40.665400000000034],[45.50213940000003,40.66567480000003],[45.50551200000007,40.665383200000065],[45.50679820000005,40.66548990000007],[45.507284500000026,40.66579860000007],[45.50733210000004,40.66582880000004],[45.50682290000003,40.666538900000035],[45.50661220000006,40.66683270000004],[45.50715810000003,40.66740370000008],[45.51063860000005,40.66857930000003],[45.51275720000007,40.668977400000074],[45.513807100000065,40.66865870000004],[45.515139300000044,40.66797400000007],[45.517180100000076,40.668304000000035],[45.51837380000006,40.66886230000006],[45.52141390000003,40.66902350000004],[45.52399290000005,40.66919210000003],[45.525779200000045,40.66926300000006],[45.527281800000026,40.66933030000007],[45.52838550000007,40.66934740000005],[45.53028160000008,40.66935460000008],[45.53200460000005,40.66932940000004],[45.53330950000003,40.66930890000003],[45.53355940000006,40.66928430000007],[45.53382820000007,40.66925270000007],[45.534166500000026,40.66918050000004],[45.53454570000008,40.669002800000044],[45.53491390000005,40.66875440000007],[45.53532430000007,40.66839170000003],[45.535615000000064,40.66809960000006],[45.535795300000075,40.667812000000026],[45.535920600000054,40.66747200000003],[45.53637610000004,40.66690520000003],[45.53669190000005,40.666418100000044],[45.53696190000005,40.66586350000006],[45.53703410000003,40.66546660000006],[45.53713110000007,40.66506480000004],[45.537146300000074,40.664811900000075],[45.53702980000003,40.66452790000005],[45.53688930000004,40.664203100000066],[45.537113300000044,40.66401010000004],[45.53753100000006,40.663787900000045],[45.53782270000005,40.66370910000006],[45.53821650000003,40.663676800000076],[45.53859610000006,40.663636300000064],[45.539083600000026,40.66361510000007],[45.53966250000008,40.663684000000046],[45.54026940000006,40.66362000000004],[45.54072880000007,40.663515000000075],[45.54108140000005,40.66329490000004],[45.54123560000005,40.66309410000008],[45.54129820000003,40.66278630000005],[45.54142600000006,40.66252170000007],[45.54150890000005,40.66250290000005],[45.541768500000046,40.662459600000034],[45.54196700000006,40.66238560000005],[45.54217610000006,40.66223460000003],[45.54253630000005,40.66187250000007],[45.54262890000007,40.66170580000005],[45.542699500000026,40.66130910000004],[45.54279600000007,40.661117200000035],[45.54294640000006,40.66097120000006],[45.54317110000005,40.66084760000007],[45.54355110000006,40.660718200000076],[45.54385830000007,40.66058680000003],[45.54415010000008,40.66040140000007],[45.54440150000005,40.660172300000056],[45.545111700000064,40.659690400000045],[45.54539040000003,40.65948000000003],[45.545661600000074,40.65937340000005],[45.545957300000055,40.65932820000006],[45.546136500000046,40.65927370000003],[45.54633020000006,40.65906160000003],[45.546493600000076,40.658731800000055],[45.54669790000003,40.658412500000054],[45.54706240000007,40.65813790000004],[45.54746670000003,40.65809400000006],[45.54767620000007,40.657936300000074],[45.54800540000008,40.65755910000007],[45.54841550000003,40.657066600000064],[45.54869170000006,40.65686230000006],[45.54889490000005,40.656799300000046],[45.54911530000004,40.65681710000007],[45.549382800000046,40.65692100000007],[45.549840000000074,40.657080800000074],[45.55062810000004,40.657208300000036],[45.55111900000003,40.65717870000003],[45.55225720000004,40.65717310000008],[45.55313710000007,40.65719670000004],[45.553497400000026,40.657206700000074],[45.55358350000006,40.65711270000003],[45.553662100000054,40.656972600000074],[45.55371820000005,40.656719800000076],[45.55370460000006,40.656493100000034],[45.553661100000056,40.656191300000046],[45.55372840000007,40.65573710000007],[45.553769300000056,40.655448800000045],[45.553716800000075,40.65500730000008],[45.55353160000004,40.654550200000074],[45.55347180000007,40.65435210000004],[45.55349140000004,40.654270100000076],[45.553653300000065,40.65414660000005],[45.55393790000005,40.65395580000006],[45.55431320000008,40.65354910000008],[45.55447680000003,40.65321700000004],[45.55467560000005,40.65288350000003],[45.55496950000003,40.65265230000006],[45.555049600000075,40.65237570000005],[45.55530280000005,40.652264400000035],[45.55570860000006,40.65216710000004],[45.55593550000003,40.65198110000006],[45.55606730000005,40.65176690000004],[45.556114500000035,40.65149590000004],[45.55613800000003,40.65116050000006],[45.556154400000025,40.650846200000046],[45.55617740000008,40.65062410000007],[45.55625710000004,40.65029980000003],[45.55627140000007,40.650087900000074],[45.55622160000007,40.64990190000003],[45.55621970000004,40.64989730000008],[45.55612460000003,40.64966460000005],[45.555927600000075,40.64935500000007],[45.555873000000076,40.64923070000003],[45.55587660000003,40.64915200000007],[45.55593770000007,40.649042000000065],[45.55607950000007,40.64887710000005],[45.55613670000008,40.648725100000036],[45.556145600000036,40.64854630000008],[45.556212800000026,40.64835640000007],[45.55622160000007,40.648294700000065],[45.55624930000005,40.648101300000064],[45.556303600000035,40.647655300000054],[45.55633430000006,40.64742010000003],[45.55639400000007,40.647295600000064],[45.55665510000006,40.64712030000004],[45.556943800000056,40.64684930000004],[45.557150800000045,40.64657710000006],[45.55725320000005,40.64631040000006],[45.55727530000007,40.64589150000006],[45.55717080000005,40.645809900000074],[45.55674870000007,40.64564040000005],[45.556670300000064,40.64558560000006],[45.556609200000025,40.645542900000066],[45.55636670000007,40.64533700000004],[45.55620180000005,40.64500990000005],[45.55617650000005,40.644727500000045],[45.55606780000005,40.64454000000006],[45.55587230000003,40.64441930000004],[45.55572450000005,40.64428680000003],[45.55545360000008,40.644068900000036],[45.55526430000003,40.64381060000005],[45.555090300000074,40.643276600000036],[45.55483860000004,40.642587400000025],[45.55451150000005,40.64224840000003],[45.55431840000006,40.64193910000006],[45.554038200000036,40.641662600000075],[45.55384660000004,40.64144070000003],[45.553741400000035,40.64119960000005],[45.55371150000008,40.640905900000064],[45.55371210000004,40.64090340000007],[45.55375430000004,40.64072280000005],[45.55382640000005,40.64059800000007],[45.55392090000004,40.64027370000008],[45.55397730000004,40.63975010000007],[45.554066600000056,40.63953870000006],[45.55425330000003,40.63919880000003],[45.554425200000026,40.63880620000003],[45.554426000000035,40.63833020000004],[45.554385800000034,40.63764660000004],[45.55430480000007,40.63717690000004],[45.55420570000007,40.636658400000044],[45.55419160000008,40.63606020000003],[45.55414900000005,40.63538840000007],[45.55405390000004,40.63483910000008],[45.553999600000054,40.63468830000005],[45.55384370000007,40.634254800000065],[45.55370140000008,40.633906000000025],[45.55366760000004,40.633676800000046],[45.55383860000006,40.633474800000045],[45.55398180000003,40.63320410000006],[45.55395550000003,40.632930300000055],[45.55365390000003,40.63255850000007],[45.55368660000005,40.63240970000004],[45.55351570000005,40.63223380000005],[45.55328220000007,40.63192790000005],[45.55316600000003,40.63180580000005],[45.55308110000004,40.63156760000004],[45.553133100000025,40.63148220000005],[45.55287430000004,40.631278000000066],[45.55257860000006,40.63085780000006],[45.55240160000005,40.63070430000005],[45.55230210000008,40.63063360000007],[45.552271000000076,40.63055310000004],[45.55229150000008,40.630521000000044],[45.55235840000006,40.63048520000007],[45.552550100000076,40.63039250000003],[45.552575700000034,40.630335100000025],[45.55234770000004,40.63005570000007],[45.552032600000075,40.62984790000007],[45.55166310000004,40.629743000000076],[45.551409300000046,40.62968620000004],[45.551305100000036,40.62951810000004],[45.551197400000035,40.62937130000006],[45.55109920000007,40.629364500000065],[45.55078400000008,40.629274800000076],[45.55057540000007,40.629267500000026],[45.55052370000004,40.62919120000004],[45.55051240000006,40.62906560000005],[45.55054080000008,40.62891470000005],[45.55044460000005,40.62878680000006],[45.55043020000005,40.62872640000006],[45.55031020000007,40.62863880000003],[45.55018600000005,40.62848290000005],[45.550181800000075,40.62840890000007],[45.55026070000008,40.628319900000065],[45.55022050000008,40.628230400000064],[45.549973900000055,40.62811860000005],[45.54984250000007,40.627990100000034],[45.54978790000007,40.62778160000005],[45.54958520000008,40.62749930000007],[45.54932650000006,40.627115900000035],[45.549149500000055,40.62696910000005],[45.54907620000006,40.626878600000055],[45.549118400000054,40.626796600000034],[45.54904330000005,40.62676250000004],[45.54894000000007,40.62681640000005],[45.54878240000005,40.626715200000035],[45.54867020000006,40.62645950000007],[45.54868410000006,40.62633800000003],[45.54861140000003,40.62619810000007],[45.54858630000007,40.62610440000003],[45.548699000000056,40.626054200000056],[45.54885050000007,40.625972200000035],[45.54886800000003,40.62586010000007],[45.54869260000004,40.62572560000007],[45.54861590000007,40.62566460000005],[45.54859010000007,40.62516890000006],[45.54823810000005,40.62489990000006],[45.548177800000076,40.62448430000006],[45.54799630000008,40.62421440000003],[45.547977900000035,40.62414050000007],[45.548151000000075,40.624049100000036],[45.54837190000006,40.623898100000076],[45.54839380000004,40.623820900000055],[45.54843210000007,40.62378720000004],[45.548438600000054,40.623781500000064],[45.54871910000003,40.62371030000003],[45.549123200000054,40.62347620000003],[45.549203900000066,40.62335530000007],[45.549180000000035,40.623224400000026],[45.54930340000004,40.62308260000003],[45.549474700000076,40.62300710000005],[45.54964120000005,40.623004200000025],[45.54975650000006,40.622961700000076],[45.549780800000065,40.622902200000055],[45.54972580000003,40.62280210000006],[45.54967960000005,40.62264300000004],[45.54968330000003,40.62248070000004],[45.54956640000006,40.622321200000044],[45.549413300000026,40.62210600000003],[45.54932800000006,40.62188790000005],[45.54922830000004,40.621672200000035],[45.54921710000008,40.62150790000004],[45.54932500000007,40.62142590000008],[45.549553900000035,40.621395300000074],[45.54969760000006,40.62138580000004],[45.54995270000006,40.62130830000007],[45.55009680000006,40.62130730000007],[45.55024320000007,40.621232500000076],[45.550378400000056,40.62110050000007],[45.55065190000005,40.621065900000076],[45.55076900000006,40.62100760000004],[45.550855100000035,40.62059050000005],[45.550928000000056,40.62039470000008],[45.55136130000005,40.62014930000004],[45.55141130000004,40.62009130000007],[45.551375000000064,40.61993590000003],[45.55129180000006,40.61976750000008],[45.55131490000008,40.61967500000003],[45.551770900000065,40.61932870000004],[45.552212000000054,40.618894400000045],[45.552554300000054,40.618601600000034],[45.55283220000007,40.61835720000005],[45.55310080000004,40.61818020000004],[45.55245140000005,40.617719900000054],[45.552445600000055,40.61771580000004],[45.551183500000036,40.61712780000005],[45.549452700000074,40.61707590000003],[45.54908500000005,40.61706490000006],[45.54908080000007,40.61706710000004],[45.548923700000046,40.617150700000025],[45.54740110000006,40.61796040000007],[45.547361300000034,40.61798150000004],[45.547119200000054,40.61808370000006],[45.54585760000003,40.61861630000004],[45.54523670000003,40.61950520000005],[45.54521630000005,40.61953450000004],[45.54518410000003,40.61950030000003],[45.54510630000004,40.619417800000065],[45.54472080000005,40.61932650000006],[45.54456220000003,40.619292700000074],[45.54439630000007,40.619354100000066],[45.54427830000003,40.61941630000007],[45.54423760000003,40.61943780000007],[45.54414310000004,40.61944710000006],[45.54387580000008,40.61938260000005],[45.54386130000006,40.61937770000003],[45.54366420000008,40.61931070000003],[45.54364430000004,40.619309900000076],[45.54320110000003,40.61929300000003],[45.54260140000008,40.619285200000036],[45.54237830000005,40.61920920000006],[45.54208750000004,40.619012600000076],[45.54191670000006,40.61881580000005],[45.54164980000007,40.61868020000003],[45.54136070000004,40.618660600000055],[45.54125490000007,40.618557500000065],[45.54121790000005,40.61844050000008],[45.54125950000008,40.61833270000005],[45.541286900000046,40.61826200000007],[45.541165000000035,40.618142000000034],[45.54098570000008,40.61812230000004],[45.54087300000003,40.61815720000004],[45.54059640000003,40.61824270000005],[45.54032230000007,40.618326800000034],[45.540205300000025,40.61827260000007],[45.54008610000005,40.61827030000006],[45.539950400000066,40.61833880000006],[45.53986510000004,40.61859160000006],[45.53981640000006,40.61862880000007],[45.53970670000007,40.618612100000064],[45.53962210000003,40.618537600000025],[45.53957100000008,40.61846550000007],[45.53950720000006,40.61844450000007],[45.53930850000006,40.61854050000005],[45.53915130000007,40.618583400000034],[45.53907120000008,40.61864710000003],[45.53899220000005,40.61866180000004],[45.53883170000006,40.618596300000036],[45.53876630000008,40.61849700000005],[45.53879830000005,40.61837230000003],[45.53891170000003,40.61826180000003],[45.53891980000003,40.61821420000007],[45.53887800000007,40.61816270000003],[45.53882370000008,40.61806080000008],[45.53871630000003,40.61804170000005],[45.53860540000005,40.61806310000003],[45.53846070000003,40.61816690000006],[45.53834020000005,40.61819020000007],[45.53821320000003,40.61812200000003],[45.538050300000066,40.61806420000005],[45.537823900000035,40.61801660000003],[45.53774180000005,40.617941700000074],[45.53759100000008,40.61793940000007],[45.53742590000007,40.61797150000007],[45.53717700000004,40.61804960000006],[45.536865900000066,40.61793300000005],[45.53667610000008,40.617794600000025],[45.53657700000008,40.61778190000007],[45.53648830000003,40.61767780000008],[45.53642030000003,40.61760460000005],[45.536351800000034,40.61760830000003],[45.53629590000003,40.61755190000008],[45.53628880000008,40.61750040000004],[45.53638230000007,40.61740670000006],[45.53645220000004,40.617288200000075],[45.53641360000006,40.61720960000008],[45.53630810000004,40.61717480000004],[45.536190300000044,40.617141100000026],[45.536181200000044,40.61707140000004],[45.53628100000003,40.61694350000005],[45.53628340000006,40.616941100000076],[45.53636790000007,40.61685790000007],[45.536333900000045,40.61681340000007],[45.53605460000006,40.61678090000004],[45.53601020000008,40.61677570000006],[45.535673100000054,40.61672470000008],[45.535514800000044,40.61666520000006],[45.535443900000075,40.61643730000003],[45.535301900000036,40.61631340000008],[45.53513560000005,40.616313700000035],[45.53503530000006,40.61638280000005],[45.53507100000007,40.61653710000007],[45.53504980000008,40.61664160000004],[45.53496220000005,40.61673940000003],[45.53487140000004,40.616751400000055],[45.53481320000003,40.61668670000006],[45.53458070000005,40.61664420000005],[45.53439040000006,40.616584200000034],[45.53426900000005,40.61660290000003],[45.53413640000008,40.61674250000004],[45.53403430000003,40.616762900000026],[45.53394610000004,40.61670120000008],[45.533903000000066,40.61656700000003],[45.53361600000005,40.61641130000004],[45.53342150000003,40.61637060000004],[45.53319860000005,40.616391100000044],[45.53299130000005,40.61648700000006],[45.53282790000003,40.616576800000075],[45.532687500000065,40.61661840000005],[45.532579600000076,40.61653720000004],[45.532301000000075,40.61639420000006],[45.53198670000006,40.61637230000008],[45.53165670000004,40.61629800000003],[45.53157600000003,40.616210300000034],[45.531553400000064,40.61606660000007],[45.53159490000007,40.61601250000007],[45.53176320000006,40.61593390000007],[45.531742800000075,40.61586420000003],[45.53156290000004,40.615751800000055],[45.531246800000076,40.61570300000005],[45.53097210000004,40.61566520000008],[45.530798900000036,40.61566310000006],[45.530682600000034,40.61572120000005],[45.53071760000006,40.615773800000056],[45.53078460000006,40.61578380000003],[45.53080950000003,40.61581460000008],[45.530767000000026,40.61595220000004],[45.530638700000054,40.61595730000005],[45.53049740000006,40.61592730000007],[45.53006540000007,40.61581080000008],[45.52983320000004,40.615813100000025],[45.52965990000007,40.61579190000003],[45.52951260000003,40.615734400000065],[45.529345000000035,40.615709200000026],[45.529196600000034,40.615784200000064],[45.52909020000004,40.61578460000004],[45.52904180000007,40.61565930000006],[45.529085800000075,40.61558750000006],[45.52918690000007,40.615530500000034],[45.52934440000007,40.61552870000003],[45.52945590000007,40.61555090000007],[45.52960360000003,40.615500600000075],[45.52970750000003,40.61535330000004],[45.52967840000008,40.615199500000074],[45.52959400000003,40.615148300000044],[45.52941590000006,40.615161400000034],[45.52915000000007,40.61523850000003],[45.52906770000004,40.61528890000005],[45.528931500000056,40.61525720000003],[45.528888100000074,40.615286000000026],[45.52884140000003,40.61530010000007],[45.52880170000003,40.61525190000003],[45.52884160000008,40.615184800000065],[45.529044800000065,40.61507340000003],[45.52901460000004,40.615004000000056],[45.52872170000006,40.61505150000005],[45.52837240000008,40.61512570000008],[45.52828230000006,40.61510960000004],[45.52823790000008,40.61502910000007],[45.52846910000005,40.61485400000004],[45.528527300000064,40.61477320000006],[45.52846000000005,40.61465510000005],[45.52826860000005,40.61460320000003],[45.52802230000003,40.61459770000005],[45.527814500000034,40.614559900000074],[45.52757290000005,40.61458490000007],[45.52743850000007,40.61464730000006],[45.52730280000003,40.614638600000035],[45.52727880000003,40.61460800000003],[45.52740780000005,40.614419000000055],[45.52742180000007,40.61426280000006],[45.52726910000007,40.61422570000008],[45.52711620000008,40.614156500000036],[45.527008100000046,40.61410420000004],[45.52681420000005,40.614090900000065],[45.52673360000006,40.614068400000065],[45.526513100000045,40.61377010000007],[45.52644370000007,40.61373270000007],[45.52617850000007,40.61378490000004],[45.52580300000005,40.61378650000006],[45.52543520000006,40.61371390000005],[45.524943000000064,40.613660700000025],[45.52440790000003,40.61364260000005],[45.52412570000007,40.61361520000003],[45.523789400000055,40.61363630000005],[45.52377300000006,40.613469000000066],[45.52368080000008,40.61338930000005],[45.523679300000026,40.613080000000025],[45.52360390000007,40.61281180000003],[45.52360330000005,40.612809500000026],[45.52355460000007,40.61258940000005],[45.523455400000046,40.61237730000005],[45.52345410000004,40.61209340000005],[45.52341340000004,40.611640700000066],[45.523332700000026,40.61141900000007],[45.52331480000004,40.61138440000008],[45.52310330000006,40.61121940000004],[45.52307420000005,40.611122400000056],[45.523023600000045,40.61095380000006],[45.52293050000003,40.61089780000003],[45.52288100000004,40.61067880000007],[45.522955800000034,40.61056080000003],[45.52304490000006,40.61049090000006],[45.523108000000036,40.60991500000006],[45.523191100000076,40.60954410000005],[45.523232300000075,40.609275600000046],[45.523363000000074,40.608871100000044],[45.52345410000004,40.60837780000003],[45.52373590000008,40.60797530000008],[45.523821600000076,40.607448100000056],[45.52391190000003,40.60696520000005],[45.523925500000075,40.606961100000035],[45.52417930000007,40.60688460000006],[45.52443970000007,40.60647710000006],[45.52452020000004,40.60600400000004],[45.52465520000004,40.60546580000005],[45.52462900000006,40.605225500000074],[45.52459730000004,40.60493500000007],[45.524524900000074,40.60460910000006],[45.52409730000005,40.60392250000007],[45.52401970000005,40.603742400000044],[45.524087800000075,40.603522600000076],[45.52405210000006,40.603025400000035],[45.52412530000004,40.602837100000045],[45.52381310000004,40.60234940000004],[45.523596600000076,40.60214840000003],[45.52349250000003,40.601903400000026],[45.523319300000026,40.60171380000003],[45.522793800000045,40.60085410000005],[45.52261240000007,40.60060680000004],[45.52250780000003,40.600362000000075],[45.52233430000007,40.600139600000034],[45.52237620000005,40.59981760000005],[45.522376300000076,40.59981650000003],[45.52181090000005,40.59934190000007],[45.520405700000026,40.598830400000054],[45.51907200000005,40.59846310000006],[45.51903160000006,40.59844920000006],[45.51718770000008,40.597817200000065],[45.51701310000004,40.59772880000003],[45.516966000000025,40.597705000000076],[45.51623100000006,40.59733300000005],[45.51589300000006,40.59702360000006],[45.51587580000006,40.59698210000005],[45.51575100000008,40.59668170000003],[45.51543140000007,40.59615560000003],[45.51527500000003,40.595690200000035],[45.51504030000007,40.59535170000004],[45.51494770000005,40.595246400000065],[45.51424870000005,40.59479780000004],[45.51352160000005,40.59442640000003],[45.51324640000007,40.59429800000004],[45.51276750000005,40.59407440000007],[45.51146620000003,40.59342300000003],[45.51056250000005,40.59305010000003],[45.51052580000004,40.59303500000004],[45.50992400000007,40.592618800000025],[45.509430500000065,40.59217040000004],[45.50850070000007,40.59106420000006],[45.50783760000007,40.590131100000065],[45.507238200000074,40.58956720000003],[45.50682630000006,40.589275300000054],[45.50586780000003,40.58850410000008],[45.50555570000006,40.588378000000034],[45.50545400000004,40.58833700000008],[45.504837500000065,40.58835890000006],[45.504390700000044,40.588314800000035],[45.503823700000055,40.58831450000008],[45.50310920000004,40.58833190000007],[45.50223280000006,40.588351000000046],[45.50209140000004,40.588375900000074],[45.501829600000065,40.58854190000005],[45.50138130000005,40.58884440000003],[45.50087940000003,40.589132300000074],[45.50070950000003,40.589221500000065],[45.500624800000026,40.589304800000036],[45.50044880000007,40.58940300000006],[45.50010590000005,40.589530300000035],[45.49980750000003,40.58960950000005],[45.49915720000007,40.58979190000008],[45.498662900000056,40.589883900000075],[45.49842160000003,40.589883100000065],[45.498198400000035,40.58976320000005],[45.49810430000008,40.58973380000003],[45.49768510000007,40.589719700000046],[45.49713540000005,40.58969930000006],[45.49671410000008,40.589644700000065],[45.49666360000003,40.589638200000024],[45.49656210000006,40.58983680000006],[45.49653740000008,40.589899900000034],[45.49641840000004,40.59020380000004],[45.49622590000007,40.59078990000006],[45.496059900000034,40.59115090000006],[45.49599530000006,40.59127460000008],[45.49584370000008,40.59156440000004],[45.49547810000007,40.59215870000003],[45.49503290000007,40.59282650000006],[45.494679500000075,40.59331720000006],[45.49452610000003,40.59352330000007],[45.49422100000004,40.59393350000005],[45.49401640000008,40.59419020000007],[45.49389030000003,40.59432090000007],[45.49349930000005,40.59454600000004],[45.493227500000046,40.594800400000054],[45.49306560000008,40.59508540000007],[45.49280230000005,40.59580820000008],[45.492509400000074,40.59678910000008],[45.49227870000004,40.59746560000008],[45.49194430000006,40.59823290000003],[45.49145980000003,40.59911360000007],[45.49122250000005,40.59968300000003],[45.490953200000035,40.600423000000035],[45.490565100000026,40.601671200000055],[45.49035840000005,40.60236430000003],[45.48987520000003,40.60408830000006],[45.489679100000046,40.60473890000003],[45.48959080000003,40.60516690000003],[45.48955660000007,40.60564720000008],[45.489636200000064,40.606272200000035],[45.489642600000025,40.60662700000006],[45.48956700000008,40.607002100000045],[45.489480600000036,40.60745540000005],[45.48941000000008,40.60774230000004],[45.48913950000008,40.60814730000004],[45.48909070000008,40.60834180000006],[45.489167800000075,40.608828800000026],[45.48933900000003,40.60904510000006],[45.48960960000005,40.60944080000007],[45.48984400000006,40.61058860000003],[45.49013480000008,40.611035800000025],[45.490346800000054,40.61134520000007],[45.490419700000075,40.61156180000006],[45.49032500000004,40.61240730000003],[45.490279900000075,40.61281070000007],[45.49016510000007,40.613835900000026],[45.48995770000005,40.615223300000025],[45.48983620000007,40.615687200000025],[45.48971350000005,40.616008100000045],[45.48952190000006,40.61624450000005],[45.48912720000004,40.616511900000035],[45.48883370000004,40.616727800000035],[45.48847800000004,40.617233800000065],[45.488154200000054,40.617642000000046],[45.487962700000026,40.61804760000007],[45.48793420000004,40.61828740000004],[45.48805150000004,40.61889910000008],[45.48813210000003,40.61927470000006],[45.48815360000003,40.619695300000046],[45.488125300000036,40.62021100000004],[45.488080300000036,40.62041130000006],[45.48797230000008,40.62068220000003],[45.48792520000006,40.621022700000026],[45.48778240000007,40.621554900000035],[45.487713100000065,40.62170030000004],[45.48750860000007,40.621840700000064],[45.48724420000008,40.621965300000056],[45.486983200000054,40.62210470000008],[45.486793900000066,40.62225710000007],[45.48673260000004,40.62233550000008],[45.486679200000026,40.622492600000044],[45.48663160000007,40.622687900000074],[45.48645310000006,40.62298590000006],[45.48628750000006,40.62310340000005],[45.48598830000003,40.623229500000036],[45.48558630000008,40.62325910000004],[45.48448390000004,40.62336190000008],[45.48375070000003,40.623509900000045],[45.48321020000003,40.62372170000003],[45.48304850000005,40.62380970000004],[45.48270220000006,40.62407100000007],[45.482361800000035,40.624230400000044],[45.481738000000064,40.62441210000003],[45.48149020000005,40.624479800000074],[45.481168800000034,40.624549100000024],[45.48066280000006,40.62469390000007],[45.47990680000004,40.624985200000026],[45.47955920000004,40.62513260000003],[45.47915000000006,40.62524570000005],[45.47869440000005,40.625310600000034],[45.47844010000006,40.62534350000004],[45.47816340000003,40.62540930000006],[45.47743630000008,40.62558210000003],[45.47754870000006,40.62592250000006],[45.47764520000004,40.62621390000004],[45.477706400000045,40.62649550000003],[45.47779300000008,40.62696220000004],[45.477873800000054,40.62724530000003],[45.47793310000003,40.62745320000005],[45.478066900000044,40.62806980000005],[45.47821660000005,40.628616400000055],[45.478304200000025,40.629377900000065],[45.478454000000056,40.63075840000005],[45.478457700000035,40.63099370000003],[45.47845980000005,40.63101910000006],[45.47846530000004,40.63108730000005],[45.47847210000003,40.63122580000004],[45.47845270000005,40.63136590000005],[45.47842930000007,40.631488500000046],[45.47843590000008,40.63160640000007],[45.47848590000007,40.63173380000006],[45.47861620000003,40.63186170000006],[45.47875620000008,40.63198970000008],[45.478813400000035,40.63211760000007],[45.47894080000003,40.63260020000007],[45.479004400000065,40.63289700000007],[45.479021200000034,40.63315380000006],[45.47897550000005,40.63349450000004],[45.47893950000008,40.63375240000005],[45.47895050000005,40.633853800000054],[45.47902380000005,40.633975200000066],[45.47921900000006,40.63415200000003],[45.47947400000004,40.634441700000025],[45.479485200000056,40.63445450000006],[45.479812200000026,40.63510780000007],[45.47990620000007,40.63535940000003],[45.479920400000026,40.63559900000007],[45.47989160000003,40.635830500000054],[45.47982270000006,40.636067300000036],[45.47972000000004,40.636257700000044],[45.479594200000065,40.63640310000005],[45.47942070000005,40.63658230000004],[45.47922550000004,40.63669880000003],[45.47913070000004,40.63679040000005],[45.47898790000005,40.63705270000003],[45.47891770000007,40.63717330000003],[45.478894300000036,40.637266400000044],[45.47891820000007,40.63747710000007],[45.47894850000006,40.637664200000074],[45.47892970000004,40.63780380000003],[45.47884400000004,40.638084400000025],[45.47869410000004,40.638622800000064],[45.47861830000005,40.63898700000004],[45.478597500000035,40.63931240000005],[45.47861290000003,40.63960380000003],[45.47871260000005,40.64046380000008],[45.47894540000004,40.641264600000056],[45.47904600000004,40.64152020000006],[45.479446100000075,40.642536300000074],[45.479709600000035,40.642876700000045],[45.479809500000044,40.64296050000007],[45.480071800000076,40.64295580000004],[45.48051090000007,40.643034800000066],[45.48080760000005,40.64309610000004],[45.48095600000005,40.64318700000007],[45.481489500000066,40.64369100000005],[45.48184230000004,40.64407610000006],[45.48219910000006,40.64446410000005],[45.48282460000007,40.64495690000007],[45.48291100000006,40.64502490000007],[45.48322890000003,40.64527470000007],[45.48348420000008,40.645435500000076],[45.48357620000007,40.64552620000006],[45.48369910000008,40.64577280000003],[45.48378520000006,40.64604760000003],[45.48381600000005,40.64622040000006],[45.48384510000005,40.64638340000005],[45.48394620000005,40.646581000000026],[45.484280900000044,40.64694890000004],[45.484612800000036,40.647010100000045],[45.48479700000007,40.647019800000066],[45.485375600000054,40.64704180000007],[45.48616650000008,40.64704560000007],[45.48667480000006,40.647104100000035],[45.487006300000075,40.64720770000008],[45.48734470000005,40.64733230000007],[45.48776760000004,40.64745960000005],[45.48816330000005,40.647614900000065],[45.48856020000005,40.647815800000046],[45.488710500000025,40.64790070000004],[45.48995110000004,40.64918630000005]]]}}]}
