{"type":"FeatureCollection","features":[{"type":"Feature","properties":{"place":"baikonur","region":"area/baikonur","donors":"KZ","rank":4,"whose_line":"Natural Earth editors","publisher":"Natural Earth (ne_10m_admin_0_disputed_areas)","source_url":"https://raw.githubusercontent.com/nvkelso/natural-earth-vector/v5.1.2/geojson/ne_10m_admin_0_disputed_areas.geojson","version_or_date":"v5.1.2 (git tag); read 2026-10-04","feature_id":"NE_ID 1159320965","licence":"public domain","notes":"No published outline of the lease area found: DoS World Polygons has none (inside 'Kazakhstan'); OpenStreetMap has only the city (relation 5295657, 38 km²) and the cosmodrome land use (relation 6725906, 2,743 km²); HDX COD-AB Kazakhstan is from OSM via UNHCR, not a party's dataset.","input_sha256":"9cafef8b7dfb6b164dc58f218f981f4ace9f716f6c03795d4c62d1ac9f3d50f5","operation":"none (the source feature's geometry as published)","crs":"WGS84 longitude/latitude, as in the source (no reprojection)","source_features":[{"id":"NE_ID=1159320965","NE_ID":1159320965,"NAME":"Baikonur","BRK_NAME":"Baykonur","NOTE_BRK":"Leased to Russia by Kazakhstan","TYPE":"Lease","ADMIN":"Baykonur Cosmodrome"}]},"geometry":{"type":"Polygon","coordinates":[[[63.383914,45.565824],[63.324279,45.567969],[63.26635,45.574222],[63.210488,45.584376],[63.156899,45.598251],[63.105946,45.615615],[63.057835,45.636285],[63.012929,45.660005],[62.971484,45.686644],[62.933864,45.715945],[62.900274,45.7477],[62.871025,45.781703],[62.846479,45.817773],[62.826893,45.855703],[62.812527,45.895184],[62.803639,45.936164],[62.800642,45.978332],[62.803639,46.0205],[62.812527,46.061427],[62.826893,46.100986],[62.846479,46.13889],[62.871025,46.17496],[62.900274,46.208964],[62.933864,46.240719],[62.971484,46.270019],[63.012929,46.296658],[63.057835,46.320378],[63.105946,46.341048],[63.156899,46.358412],[63.210488,46.372261],[63.26635,46.382441],[63.324279,46.388694],[63.383914,46.390839],[63.443548,46.388694],[63.501477,46.382441],[63.557391,46.372261],[63.610928,46.358412],[63.661881,46.341048],[63.70994,46.320378],[63.754899,46.296658],[63.796343,46.270019],[63.833964,46.240719],[63.867553,46.208964],[63.896699,46.17496],[63.921297,46.13889],[63.940934,46.100986],[63.9553,46.061427],[63.964085,46.0205],[63.967134,45.978332],[63.964085,45.936164],[63.9553,45.895184],[63.940934,45.855703],[63.921297,45.817773],[63.896699,45.781703],[63.867553,45.7477],[63.833964,45.715945],[63.796343,45.686644],[63.754899,45.660005],[63.70994,45.636285],[63.661881,45.615615],[63.610928,45.598251],[63.557391,45.584376],[63.501477,45.574222],[63.443548,45.567969],[63.383914,45.565824]]]}}]}
