{"type":"FeatureCollection","features":[{"type":"Feature","properties":{"place":"bassas-da-india","region":"TF","donors":"","rank":2,"whose_line":"the coastline (uncontested), as drawn by the US Department of State","publisher":"US Department of State, Office of the Geographer and Global Issues (World Polygons, high-resolution layer DoS_WP_11_4)","source_url":"https://data.geodata.state.gov/WorldPolygons.zip","version_or_date":"World Polygons 11.4 BETA, 2025-02-24; read 2026-10-04","feature_id":"DoS_WP_11_4 fid 26","licence":"US government work, not subject to US copyright (17 U.S.C. § 105)","notes":"Natural Earth's polygon does not overlap DoS's.","input_sha256":"55fab422ef09e35eb48d68141b9ece0ace86d4276dfe332a04dfd401c0bfc80c","operation":"none (the source feature's geometry as published)","crs":"WGS84 longitude/latitude, as in the source (no reprojection)","source_features":[{"id":"DoS_WP_11_4 fid 26","WP_Name":"Bassas da India","WP_ID":"c44a33ac-82da-440e-a5ca-294c96051c59","Map_Label":null,"NOTES":"The French Southern and Antarctic Lands includes Île Amsterdam, Île Saint-Paul, Îles Crozet, and Îles Kerguelen in the southern Indian Ocean; the “Iles Eparses” (Bassas da India, Europa Island, Glorioso Islands, Juan de Nova Island and Trom","US_Recog":"Dependency or Area of Special Sovereignty","Show_Disp":null,"GENC_3":"XBI"}]},"geometry":{"type":"MultiPolygon","coordinates":[[[[39.72536700000006,-21.478515999999956],[39.72296300000005,-21.474522999999976],[39.72742600000004,-21.47675899999996],[39.73412100000007,-21.48139199999997],[39.730860000000064,-21.482669999999928],[39.72536700000006,-21.478515999999956]]],[[[39.64314100000007,-21.463180999999963],[39.64502900000008,-21.45886699999994],[39.646574000000044,-21.457109999999943],[39.646574000000044,-21.46126399999997],[39.64502900000008,-21.46333999999996],[39.64314100000007,-21.463180999999963]]]]}}]}
