{"type":"FeatureCollection","features":[{"type":"Feature","properties":{"place":"bir-tawil","region":"area/bir-tawil","donors":"EG;SD","rank":2,"whose_line":"the political boundary, which Egypt asserts, and the administrative boundary, which Sudan asserts, as drawn by the US Department of State (LSIB 'International Boundary' and 'Administrative Boundary')","publisher":"US Department of State, Office of the Geographer and Global Issues (World Polygons, high-resolution layer DoS_WP_11_4)","source_url":"https://data.geodata.state.gov/WorldPolygons.zip","version_or_date":"World Polygons 11.4 BETA, 2025-02-24; read 2026-10-04","feature_id":"DoS_WP_11_4 fid 33","licence":"US government work, not subject to US copyright (17 U.S.C. § 105)","notes":"Rank 2 on the reading that the parties dispute which of the two lines is the boundary, not where each runs (register: Egypt asserts the political, Sudan the administrative boundary); that neither disputes their position is not verified. OpenStreetMap relation 3335661 differs by about 22 km² from it.","input_sha256":"55fab422ef09e35eb48d68141b9ece0ace86d4276dfe332a04dfd401c0bfc80c","operation":"none (the source feature's geometry as published)","crs":"WGS84 longitude/latitude, as in the source (no reprojection)","source_features":[{"id":"DoS_WP_11_4 fid 33","WP_Name":"Bir Tawil","WP_ID":"dffff183-4f74-4043-91ab-335c32ec4cc0","Map_Label":null,"NOTES":null,"US_Recog":null,"Show_Disp":null,"GENC_3":"QX2"}]},"geometry":{"type":"MultiPolygon","coordinates":[[[[33.17240820000006,22.000000100000022],[34.078501000000074,22.000008000000037],[34.080621000000065,22.000008000000037],[34.08062140000004,22.000008000000037],[34.080377300000066,21.999285800000052],[34.077501400000074,21.990778700000078],[34.07462590000006,21.982271600000047],[34.07175070000005,21.97376440000005],[34.06887580000006,21.96525710000003],[34.06600130000004,21.95674980000007],[34.063127200000054,21.948242400000026],[34.06025340000008,21.939734900000076],[34.05737990000006,21.93122740000007],[34.05450680000007,21.92271990000006],[34.051634000000035,21.914212200000065],[34.04876150000007,21.905704600000035],[34.04588940000008,21.897196800000074],[34.04301760000004,21.888689000000056],[34.04014620000004,21.880181100000073],[34.037275100000045,21.871673200000032],[34.03440440000003,21.86316530000005],[34.03153400000008,21.854657200000077],[34.028663900000026,21.846149100000048],[34.025794200000064,21.837641000000076],[34.022924800000055,21.829132800000025],[34.02005580000008,21.820624500000065],[34.01718710000006,21.812116100000026],[34.01431870000005,21.803607800000066],[34.01145070000007,21.79509930000006],[34.008583000000044,21.786590800000056],[34.00571560000003,21.77808220000003],[34.00284860000005,21.769573600000058],[33.99328430000003,21.768635500000073],[33.98372010000003,21.767696800000067],[33.97415610000007,21.76675750000004],[33.96459210000006,21.76581770000007],[33.95502830000004,21.764877300000023],[33.94546460000004,21.763936400000034],[33.935901100000024,21.762995000000046],[33.92633760000007,21.76205290000007],[33.91677430000004,21.761110400000064],[33.90721120000006,21.76016720000007],[33.897648100000026,21.75922360000004],[33.888085200000035,21.758279300000027],[33.878522400000065,21.75733450000007],[33.86895970000006,21.756389200000058],[33.859397100000024,21.755443300000024],[33.84983470000003,21.75449690000005],[33.84027240000006,21.753549900000053],[33.830710200000055,21.752602300000035],[33.82114810000007,21.751654200000075],[33.81158620000008,21.75070560000006],[33.80202440000005,21.749756400000024],[33.792462700000044,21.748806600000023],[33.782901200000026,21.747856300000024],[33.77333980000003,21.74690540000006],[33.763778400000035,21.74595400000004],[33.75421730000005,21.745002100000022],[33.744656200000065,21.744049500000074],[33.73509530000007,21.743096500000036],[33.72553450000004,21.742142800000067],[33.71597380000003,21.741188700000066],[33.706413300000065,21.740233900000078],[33.69685290000007,21.739278700000057],[33.687292600000035,21.73832280000005],[33.677732400000025,21.73736640000004],[33.66817240000006,21.736409500000036],[33.65861250000006,21.735452000000066],[33.64905270000003,21.73449400000004],[33.63949300000007,21.73353540000005],[33.62993350000005,21.73257620000004],[33.62037410000005,21.73161650000003],[33.61081480000007,21.730656300000078],[33.601255700000024,21.729695500000048],[33.591696600000034,21.728734100000054],[33.58213770000003,21.72777220000006],[33.572579000000076,21.72680980000007],[33.56302030000006,21.725846800000056],[33.553461800000036,21.724883200000022],[33.54585470000006,21.730394500000045],[33.53824700000007,21.735905400000036],[33.530638700000054,21.741416000000072],[33.523029800000074,21.746926200000075],[33.51542030000007,21.752436100000068],[33.507810300000074,21.757945600000028],[33.50019970000005,21.763454700000068],[33.49258850000007,21.76896350000004],[33.48497670000006,21.77447200000006],[33.477364400000056,21.779980100000046],[33.469751400000064,21.785487800000055],[33.46213790000007,21.790995200000054],[33.45452380000006,21.796502200000077],[33.44690910000003,21.802008900000033],[33.43929380000003,21.80751520000007],[33.43167800000003,21.813021200000037],[33.42406160000007,21.81852680000003],[33.41644450000007,21.824032100000068],[33.408826900000065,21.829537000000073],[33.40120880000006,21.835041500000045],[33.393590000000074,21.840545700000064],[33.385970600000064,21.84604960000007],[33.378350700000055,21.851553100000046],[33.370730200000025,21.857056200000045],[33.36310910000003,21.862558900000067],[33.35548740000007,21.868061400000045],[33.347865100000035,21.873563400000023],[33.34024230000006,21.879065100000048],[33.33261890000006,21.884566500000062],[33.32499480000007,21.890067500000043],[33.31737020000003,21.895568100000048],[33.30974500000008,21.901068400000042],[33.30211930000007,21.90656830000006],[33.29449290000008,21.912067800000045],[33.28686600000003,21.917567000000076],[33.279238400000054,21.92306590000004],[33.27161030000008,21.928564400000027],[33.26398160000008,21.93406250000004],[33.25635230000006,21.93956030000004],[33.24872240000008,21.945057700000064],[33.24109200000004,21.950554800000077],[33.23346090000007,21.956051500000058],[33.22582930000004,21.961547800000062],[33.218197100000054,21.967043800000056],[33.210564300000044,21.972539400000073],[33.20293090000007,21.978034700000023],[33.19529690000007,21.983529600000054],[33.187662300000056,21.98902410000005],[33.180027100000075,21.99451830000004],[33.17240820000006,22.000000100000022]]]]}}]}
