{"type":"FeatureCollection","features":[{"type":"Feature","properties":{"place":"bird-island","region":"VE","donors":"","rank":3,"whose_line":"OpenStreetMap mappers (coastline)","publisher":"OpenStreetMap contributors","source_url":"https://www.openstreetmap.org/relation/11592431","version_or_date":"snapshot 2026-10-04T06:57:51Z (Overpass attic query); relation 11592431 v9 (2026-01-25T14:53:27Z)","feature_id":"relation 11592431","licence":"ODbL 1.0","notes":"DoS has the island only as a part of 'Venezuela'; HDX COD-AB Venezuela (INE) has no unit there.","input_sha256":"1838423be70b3ca5632ef5eaec9e63dbcc02882905378bd38723d4f9e6125ed7","operation":"assembled from the OSM element's member ways (outer minus inner)","crs":"WGS84 longitude/latitude, as in the source (no reprojection)","source_features":[{"id":"relation 11592431 v9","osm":"relation/11592431","version":9,"timestamp":"2026-01-25T14:53:27Z","name":"Isla de Aves","boundary":"administrative","admin_level":"10","place":"islet"}]},"geometry":{"type":"Polygon","coordinates":[[[-63.6181351,15.6703942],[-63.6180111,15.6702091],[-63.6179634,15.6701114],[-63.6179516,15.6698546],[-63.617926,15.6695012],[-63.6179423,15.6692125],[-63.6179284,15.6689082],[-63.6177971,15.6684287],[-63.6177506,15.668173],[-63.6177473,15.6679486],[-63.6177677,15.6675325],[-63.6177605,15.6672959],[-63.6177677,15.6670737],[-63.6178197,15.6668108],[-63.617956,15.6666267],[-63.6180575,15.6665067],[-63.6181823,15.666447],[-63.6182577,15.666385],[-63.6183697,15.6663323],[-63.6184963,15.6662663],[-63.6185859,15.6662412],[-63.6186934,15.6662555],[-63.6187343,15.6663509],[-63.6186511,15.6665601],[-63.6185264,15.6667758],[-63.6184435,15.6669559],[-63.6183916,15.6671052],[-63.6183641,15.6671831],[-63.6183384,15.6672627],[-63.6183042,15.6674122],[-63.6182861,15.6676954],[-63.6182544,15.6678575],[-63.6182025,15.6679863],[-63.6181696,15.6681458],[-63.6181245,15.6683759],[-63.6181476,15.6686968],[-63.6182157,15.6689664],[-63.6183777,15.6691535],[-63.618567,15.6694754],[-63.6187706,15.669735],[-63.6190803,15.6699601],[-63.6192731,15.6700798],[-63.6193498,15.6702197],[-63.6194523,15.6703595],[-63.6195455,15.6705581],[-63.6196631,15.6706986],[-63.6197254,15.6708635],[-63.6197878,15.6710191],[-63.6198466,15.6712277],[-63.6198534,15.6712889],[-63.6197877,15.671313],[-63.6197362,15.6712922],[-63.6196129,15.6711567],[-63.6193799,15.6710564],[-63.6191484,15.670981],[-63.6189713,15.6709951],[-63.6188683,15.6709489],[-63.618802,15.670855],[-63.6186602,15.6708298],[-63.6184915,15.6707812],[-63.6183246,15.6706304],[-63.6182219,15.6705424],[-63.6181351,15.6703942]]]}}]}
