{"type":"FeatureCollection","features":[{"type":"Feature","properties":{"place":"dragonja","region":"HR","donors":"SI","rank":4,"whose_line":"Natural Earth editors","publisher":"Natural Earth (ne_10m_admin_0_disputed_areas)","source_url":"https://raw.githubusercontent.com/nvkelso/natural-earth-vector/v5.1.2/geojson/ne_10m_admin_0_disputed_areas.geojson","version_or_date":"v5.1.2 (git tag); read 2026-10-04","feature_id":"NE_ID 1159320835","licence":"public domain","notes":"Two parties, two lines (register): Slovenia's (the 2017 arbitration award, which it implemented) and Croatia's (the river); not chosen here, neither checked as data. No DoS or OSM polygon of the strip. Whether the assignment to HR matches the holder is not established.","input_sha256":"9cafef8b7dfb6b164dc58f218f981f4ace9f716f6c03795d4c62d1ac9f3d50f5","operation":"none (the source feature's geometry as published)","crs":"WGS84 longitude/latitude, as in the source (no reprojection)","source_features":[{"id":"NE_ID=1159320835","NE_ID":1159320835,"NAME":"Dragonja River","BRK_NAME":"Dragonja River","NOTE_BRK":null,"TYPE":"Disputed","ADMIN":"Croatia"}]},"geometry":{"type":"Polygon","coordinates":[[[13.64292,45.45943],[13.629039,45.458979],[13.621174,45.460895],[13.585139,45.489247],[13.589529,45.488837],[13.624107,45.462745],[13.64282,45.459448],[13.64292,45.45943]]]}}]}
