{"type":"FeatureCollection","features":[{"type":"Feature","properties":{"place":"east-jerusalem","region":"area/east-jerusalem","donors":"PS;IL","rank":4,"whose_line":"Natural Earth editors","publisher":"Natural Earth (ne_10m_admin_0_disputed_areas)","source_url":"https://raw.githubusercontent.com/nvkelso/natural-earth-vector/v5.1.2/geojson/ne_10m_admin_0_disputed_areas.geojson","version_or_date":"v5.1.2 (git tag); read 2026-10-04","feature_id":"NE_ID 1746265961","licence":"public domain","notes":"Two parties, two lines (register: Israel's position follows the extended municipal boundary, the Palestinian one the 1949 Agreements); not chosen here. Neither is available as a polygon of East Jerusalem: HDX COD-AB Palestine has only the whole Jerusalem governorate (344.5 km²); OpenStreetMap relation 1381350 is the whole Israeli municipality. Natural Earth kept until the owner decides.","input_sha256":"9cafef8b7dfb6b164dc58f218f981f4ace9f716f6c03795d4c62d1ac9f3d50f5","operation":"none (the source feature's geometry as published)","crs":"WGS84 longitude/latitude, as in the source (no reprojection)","source_features":[{"id":"NE_ID=1746265961","NE_ID":1746265961,"NAME":"East Jerusalem","BRK_NAME":"East Jerusalem","NOTE_BRK":"Admin. By Israel; Claimed by Palestine","TYPE":"Disputed","ADMIN":"Israel"}]},"geometry":{"type":"Polygon","coordinates":[[[35.186167,31.80874],[35.185768,31.814117],[35.182227,31.819918],[35.183587,31.825116],[35.189931,31.826657],[35.196644,31.82644],[35.213271,31.818763],[35.215764,31.82011],[35.216132,31.823745],[35.216132,31.839146],[35.212959,31.85339],[35.209334,31.863398],[35.204802,31.871096],[35.205255,31.877254],[35.212053,31.881487],[35.222023,31.879178],[35.226555,31.867247],[35.225649,31.85724],[35.227462,31.850311],[35.233353,31.842611],[35.244768,31.845138],[35.24998,31.844368],[35.253747,31.841456],[35.257231,31.838593],[35.251566,31.831277],[35.253605,31.829352],[35.260177,31.828774],[35.264935,31.826272],[35.26063,31.818763],[35.255871,31.812216],[35.258817,31.800662],[35.25995,31.792573],[35.262896,31.789684],[35.258137,31.783713],[35.252699,31.76965],[35.253152,31.762522],[35.259724,31.756935],[35.262811,31.748625],[35.258122,31.742423],[35.252472,31.738051],[35.249215,31.723572],[35.244315,31.719356],[35.242417,31.71085],[35.23797,31.709332],[35.231399,31.712609],[35.228,31.717428],[35.224148,31.719163],[35.219389,31.715115],[35.205255,31.723187],[35.179423,31.720103],[35.166733,31.732052],[35.154355,31.733426],[35.148952,31.737349],[35.182119,31.743416],[35.199199,31.747109],[35.209128,31.747109],[35.209332,31.747109],[35.209524,31.74681],[35.216532,31.735908],[35.219389,31.7341],[35.222649,31.734553],[35.226991,31.744401],[35.236157,31.745085],[35.243295,31.751299],[35.242106,31.758621],[35.233552,31.761318],[35.230492,31.76233],[35.230492,31.766472],[35.232758,31.768784],[35.231512,31.772059],[35.228793,31.7736],[35.228113,31.777741],[35.228566,31.78978],[35.225622,31.796433],[35.223807,31.801254],[35.197752,31.809865],[35.186167,31.80874]],[[35.240123,31.799988],[35.238083,31.798062],[35.240236,31.795365],[35.240463,31.792669],[35.244428,31.791513],[35.247034,31.788432],[35.246581,31.787276],[35.248394,31.784579],[35.251906,31.784483],[35.251906,31.786602],[35.249753,31.786987],[35.24828,31.789587],[35.2493,31.794884],[35.252133,31.797002],[35.252133,31.799699],[35.249753,31.801913],[35.245448,31.801432],[35.243069,31.798832],[35.240123,31.799988]]]}}]}
