{"type":"FeatureCollection","features":[{"type":"Feature","properties":{"place":"europa-island","region":"TF","donors":"","rank":2,"whose_line":"the coastline (uncontested), as drawn by the US Department of State","publisher":"US Department of State, Office of the Geographer and Global Issues (World Polygons, high-resolution layer DoS_WP_11_4)","source_url":"https://data.geodata.state.gov/WorldPolygons.zip","version_or_date":"World Polygons 11.4 BETA, 2025-02-24; read 2026-10-04","feature_id":"DoS_WP_11_4 fid 96","licence":"US government work, not subject to US copyright (17 U.S.C. § 105)","notes":"","input_sha256":"55fab422ef09e35eb48d68141b9ece0ace86d4276dfe332a04dfd401c0bfc80c","operation":"none (the source feature's geometry as published)","crs":"WGS84 longitude/latitude, as in the source (no reprojection)","source_features":[{"id":"DoS_WP_11_4 fid 96","WP_Name":"Europa Island","WP_ID":"87a3b745-9dd1-4117-b9e2-c6e788efe8be","Map_Label":null,"NOTES":"The French Southern and Antarctic Lands includes Île Amsterdam, Île Saint-Paul, Îles Crozet, and Îles Kerguelen in the southern Indian Ocean; the “Iles Eparses” (Bassas da India, Europa Island, Glorioso Islands, Juan de Nova Island and Trom","US_Recog":"Dependency or Area of Special Sovereignty","Show_Disp":null,"GENC_3":"XEU"}]},"geometry":{"type":"MultiPolygon","coordinates":[[[[40.39827640000004,-22.364764199999968],[40.398324400000035,-22.365030499999932],[40.39838620000006,-22.365205799999956],[40.398501800000076,-22.36535609999993],[40.398547000000065,-22.365475599999968],[40.398569800000075,-22.365616399999965],[40.39860360000006,-22.36623389999994],[40.398626300000046,-22.366374899999983],[40.39867140000007,-22.36649449999993],[40.39878650000003,-22.36664529999996],[40.39884770000003,-22.366821199999947],[40.39889470000003,-22.367088399999943],[40.39892990000004,-22.367210899999975],[40.39898430000005,-22.36730229999995],[40.399076000000036,-22.36741029999996],[40.39912620000007,-22.367511199999967],[40.39918520000003,-22.367677999999955],[40.39923600000003,-22.36777829999994],[40.399359900000036,-22.36792079999998],[40.399410800000055,-22.368021099999964],[40.399469700000054,-22.368187999999975],[40.399519800000064,-22.368288999999947],[40.39961170000004,-22.36839679999997],[40.39966640000006,-22.36848779999997],[40.39971410000004,-22.368676499999935],[40.39974740000008,-22.368878799999948],[40.399781200000064,-22.36900259999993],[40.39983470000004,-22.369094899999936],[40.39992540000003,-22.36920379999998],[40.39998840000004,-22.369384999999966],[40.40000660000004,-22.369560199999967],[40.40001380000007,-22.369764999999973],[40.40001470000004,-22.370198399999936],[40.399932300000046,-22.370297299999947],[40.39980660000003,-22.370362399999976],[40.39959220000003,-22.37045269999993],[40.39949640000003,-22.370517399999983],[40.39926390000005,-22.37075139999996],[40.39921470000007,-22.370852199999945],[40.39916090000003,-22.37102169999997],[40.39911340000003,-22.371124099999975],[40.39899490000005,-22.37127099999998],[40.398947400000054,-22.37137339999998],[40.39889190000008,-22.371541399999956],[40.39884100000006,-22.371640599999978],[40.39870580000007,-22.371772199999953],[40.39861490000004,-22.371880499999975],[40.398400700000025,-22.372067499999957],[40.398310700000025,-22.372176699999955],[40.39820910000003,-22.372275199999933],[40.39815330000005,-22.37236459999997],[40.39811970000005,-22.372486899999956],[40.39807870000004,-22.372755599999948],[40.398045000000025,-22.37287779999997],[40.39798920000004,-22.372967099999983],[40.39788800000008,-22.373065999999938],[40.39776940000007,-22.373212799999976],[40.39763420000003,-22.37334439999995],[40.397582500000055,-22.373442999999952],[40.39752560000005,-22.373609699999975],[40.39747760000006,-22.37371159999998],[40.39738890000007,-22.37382189999994],[40.39733700000005,-22.373914799999966],[40.39730510000004,-22.37403869999997],[40.39726540000004,-22.374308499999927],[40.39723350000003,-22.374432399999932],[40.397181500000045,-22.37452529999996],[40.397092600000065,-22.37463539999993],[40.39704430000006,-22.37473719999997],[40.39698690000006,-22.374903599999982],[40.39693450000004,-22.37500179999995],[40.396797700000036,-22.37513249999995],[40.396676600000035,-22.375278099999946],[40.396573500000045,-22.375376399999936],[40.39651580000003,-22.375468299999966],[40.39648280000006,-22.375598899999943],[40.39646480000005,-22.37590179999995],[40.39647720000005,-22.376215099999968],[40.39649630000008,-22.37636299999997],[40.39656050000008,-22.37655159999997],[40.39668000000006,-22.37670259999993],[40.39672520000005,-22.37681509999993],[40.39674610000003,-22.376944899999955],[40.39674860000008,-22.377080099999944],[40.39671590000006,-22.377269599999977],[40.396664600000065,-22.37736199999995],[40.39657440000008,-22.377471899999932],[40.396525300000064,-22.37757399999998],[40.396468500000026,-22.37774239999993],[40.39641930000005,-22.377844099999948],[40.39629850000006,-22.377989999999954],[40.39624990000004,-22.37809169999997],[40.39619350000004,-22.378259199999945],[40.39614240000003,-22.378358499999933],[40.39600780000006,-22.378490799999952],[40.39591750000005,-22.37859979999996],[40.39570360000005,-22.378787099999954],[40.39564260000003,-22.378858999999977],[40.39549670000008,-22.378980799999965],[40.39529850000008,-22.379182399999934],[40.39515310000007,-22.379304799999943],[40.395024000000035,-22.37944189999996],[40.39494730000007,-22.37949949999995],[40.394818300000054,-22.379636799999957],[40.39467320000006,-22.379759399999955],[40.39454440000003,-22.379896799999983],[40.39439950000008,-22.38001959999997],[40.39420270000005,-22.380222499999945],[40.39412640000006,-22.380280399999947],[40.39392840000005,-22.38048219999996],[40.393812300000036,-22.380567499999927],[40.39367160000006,-22.38069409999997],[40.39356540000006,-22.380742899999973],[40.39338690000005,-22.380798599999935],[40.39328070000005,-22.380847399999936],[40.39314010000004,-22.38097399999998],[40.39302410000005,-22.38105939999997],[40.392826300000024,-22.381261499999937],[40.39275020000008,-22.38131949999996],[40.39255420000006,-22.381523199999947],[40.39247810000006,-22.38158119999997],[40.39228040000006,-22.381783299999938],[40.39216440000007,-22.381868699999927],[40.39202370000004,-22.381995399999937],[40.391917600000056,-22.38204419999994],[40.39173910000005,-22.382099799999935],[40.39163290000005,-22.382148599999937],[40.39149230000004,-22.382275299999947],[40.39137630000005,-22.382360699999936],[40.39117850000008,-22.38256279999996],[40.39110240000008,-22.382620799999927],[40.39090650000003,-22.382824599999935],[40.39083040000003,-22.38288259999996],[40.39063290000007,-22.38308489999997],[40.39051720000003,-22.38317059999997],[40.390377200000046,-22.38329779999998],[40.39027150000004,-22.383346999999958],[40.39009390000007,-22.38340359999995],[40.38998840000005,-22.383452999999975],[40.38984830000004,-22.383580199999983],[40.389692000000025,-22.38369249999994],[40.38958720000005,-22.38378819999997],[40.38949220000006,-22.383841699999948],[40.38928990000005,-22.38388649999996],[40.38907180000007,-22.38391699999994],[40.38893850000005,-22.38394829999993],[40.38883890000005,-22.383997699999952],[40.388721700000076,-22.384081999999978],[40.38849760000005,-22.38416879999994],[40.38834730000008,-22.384250299999962],[40.388286900000026,-22.384340899999927],[40.38822490000007,-22.384502899999973],[40.38817320000004,-22.384601499999974],[40.38790030000007,-22.38486249999994],[40.38779480000005,-22.384911899999963],[40.38761640000007,-22.384967699999947],[40.38751000000008,-22.38501629999996],[40.387369000000035,-22.385142499999972],[40.387252500000045,-22.38522759999995],[40.38705370000008,-22.385428599999955],[40.38697700000006,-22.385486199999946],[40.38684790000008,-22.385623299999963],[40.38663520000006,-22.385811799999942],[40.38654580000008,-22.385921399999972],[40.38641240000004,-22.38605469999993],[40.38636200000008,-22.386154499999975],[40.38630570000004,-22.38632169999994],[40.38625540000004,-22.386421499999983],[40.38612230000007,-22.38655499999993],[40.38603320000004,-22.386664999999937],[40.385821100000044,-22.38685399999997],[40.38569110000003,-22.386990399999945],[40.38557510000004,-22.38707569999997],[40.38543460000005,-22.387202499999944],[40.385328300000026,-22.387251299999946],[40.38514850000007,-22.387305699999956],[40.385039300000074,-22.387351799999976],[40.38488330000007,-22.387464399999942],[40.38477410000007,-22.387510499999962],[40.384594400000026,-22.387564999999938],[40.384488300000044,-22.387613899999963],[40.38434810000007,-22.38774099999995],[40.38423240000003,-22.38782669999995],[40.38403470000003,-22.388028799999972],[40.38395840000004,-22.38808659999995],[40.383829700000035,-22.388224199999968],[40.383615700000064,-22.38841149999996],[40.38355500000006,-22.388483599999972],[40.38334180000004,-22.38867149999993],[40.38325210000005,-22.388780899999972],[40.38311820000007,-22.388913699999932],[40.38306740000007,-22.389013099999943],[40.38301030000008,-22.389179599999977],[40.38295950000003,-22.38927899999993],[40.38282600000008,-22.38941219999998],[40.38270790000007,-22.38955949999996],[40.38257420000008,-22.389692499999967],[40.38252310000007,-22.389791599999967],[40.38246550000008,-22.389957599999946],[40.38241440000007,-22.390056699999946],[40.38228070000008,-22.39018969999995],[40.38216250000005,-22.390336899999966],[40.38202890000008,-22.390469999999937],[40.38197800000006,-22.39056919999996],[40.38192060000006,-22.39073549999995],[40.38186950000005,-22.39083459999995],[40.381734900000026,-22.390966799999944],[40.38164450000005,-22.391075599999965],[40.381430900000055,-22.39126319999997],[40.38134030000003,-22.391371799999945],[40.381205400000056,-22.391503599999965],[40.38115440000007,-22.39160279999993],[40.38109840000004,-22.391770299999962],[40.38105030000003,-22.391872199999966],[40.380931400000065,-22.392018699999937],[40.38088360000006,-22.39212079999993],[40.38082940000004,-22.392289999999946],[40.380781600000034,-22.392392099999938],[40.38066270000007,-22.392538599999966],[40.38061470000008,-22.392640599999936],[40.380558800000074,-22.392808199999934],[40.380507900000055,-22.39290749999998],[40.38037330000003,-22.393039699999974],[40.380283200000065,-22.393148699999983],[40.380071100000066,-22.39333769999996],[40.37998180000005,-22.393447399999957],[40.37984800000004,-22.393580399999962],[40.37973130000006,-22.393838199999948],[40.37966700000004,-22.393925199999956],[40.37955940000006,-22.393980099999965],[40.37921010000008,-22.39404369999994],[40.379078900000025,-22.39407699999998],[40.37898310000003,-22.39412989999994],[40.37887710000007,-22.394224399999928],[40.378719200000035,-22.394335299999966],[40.37857850000006,-22.394461899999953],[40.37847400000004,-22.394512299999974],[40.37830280000003,-22.39457459999994],[40.37820790000006,-22.39463369999993],[40.378147100000035,-22.39472399999994],[40.37803780000007,-22.394988499999954],[40.37791990000005,-22.39513599999998],[40.377811300000076,-22.395401299999946],[40.37775090000008,-22.395491899999968],[40.37760030000004,-22.395572999999956],[40.37737600000003,-22.395659799999976],[40.377259200000026,-22.395744399999955],[40.377160100000026,-22.395794199999955],[40.377027500000054,-22.39582619999993],[40.37673860000007,-22.39586859999997],[40.37654880000008,-22.395924799999932],[40.376386000000025,-22.396031299999947],[40.376256900000044,-22.396072799999956],[40.376104800000064,-22.396093399999927],[40.375519600000075,-22.39611709999997],[40.375361300000066,-22.396131899999943],[40.375221400000044,-22.39616369999993],[40.37512350000003,-22.39621779999993],[40.375019500000064,-22.396314099999927],[40.37486480000007,-22.396427899999935],[40.37472600000007,-22.39655639999995],[40.37462100000005,-22.39660619999995],[40.374442600000066,-22.39666189999997],[40.374334100000056,-22.396708699999976],[40.37417890000006,-22.39682199999993],[40.374070000000074,-22.39686839999996],[40.37389060000004,-22.396923199999947],[40.37378460000008,-22.396972199999936],[40.37364470000006,-22.397099499999968],[40.373529200000064,-22.397185399999955],[40.37333220000005,-22.397388199999966],[40.37318870000007,-22.397512199999937],[40.37306150000006,-22.397651199999927],[40.37298590000006,-22.39770969999995],[40.37279010000003,-22.39791359999998],[40.37267450000007,-22.397999399999946],[40.37257030000006,-22.398095599999976],[40.372473100000036,-22.398148999999933],[40.37233580000003,-22.398180699999955],[40.37178630000005,-22.39822829999997],[40.371587300000044,-22.39828209999996],[40.37142370000004,-22.398387899999932],[40.37122510000006,-22.398441999999932],[40.37067630000007,-22.398490299999935],[40.370537600000034,-22.398520599999927],[40.37043650000004,-22.39857059999997],[40.37031970000004,-22.398655299999973],[40.37021110000006,-22.398701899999935],[40.37003150000004,-22.398756599999956],[40.36992350000003,-22.398803699999974],[40.36976990000005,-22.39891849999998],[40.36966220000005,-22.39896589999995],[40.36948460000008,-22.39902239999998],[40.36941550000006,-22.399055499999974],[40.36937980000005,-22.399072599999954],[40.369241500000044,-22.39920139999998],[40.369087000000036,-22.399315399999978],[40.36898320000006,-22.39941189999996],[40.368885300000045,-22.399466099999927],[40.36866820000006,-22.39950699999997],[40.36808480000008,-22.399532199999953],[40.36792650000007,-22.39954709999995],[40.367725000000064,-22.399602399999935],[40.36756370000006,-22.399710099999936],[40.36743430000007,-22.39975359999994],[40.36711660000003,-22.39978659999997],[40.36668300000008,-22.39979459999995],[40.36580340000006,-22.39979919999996],[40.364048000000025,-22.399814499999934],[40.363167900000064,-22.399825299999975],[40.36282440000008,-22.399821499999973],[40.362663600000076,-22.399809199999936],[40.36252010000004,-22.39978059999993],[40.36241700000005,-22.399730999999974],[40.36229970000005,-22.39964729999997],[40.36219100000005,-22.39960169999995],[40.36201170000004,-22.399548899999957],[40.36190360000006,-22.399502799999937],[40.36174900000003,-22.39938939999996],[40.36164080000003,-22.399343399999964],[40.361461200000065,-22.39929079999996],[40.36135210000003,-22.399245599999972],[40.36123420000007,-22.399162399999966],[40.36113140000003,-22.39911369999993],[40.360911300000055,-22.399078499999973],[40.36032770000003,-22.399062899999933],[40.36023320000004,-22.399055499999974],[40.36016930000005,-22.39905049999993],[40.35996670000003,-22.39899879999996],[40.35980280000007,-22.398894199999972],[40.359672500000045,-22.39885359999994],[40.359353500000054,-22.39882749999998],[40.35883370000005,-22.39882739999996],[40.358502900000076,-22.398812499999963],[40.35835920000005,-22.398784499999977],[40.358255900000074,-22.398735399999964],[40.35813820000004,-22.39865199999997],[40.358029300000055,-22.398606599999937],[40.357849800000054,-22.398553899999968],[40.357741600000054,-22.39850789999997],[40.357587100000046,-22.398394499999938],[40.35747890000005,-22.398348399999975],[40.357299400000045,-22.39829579999997],[40.35719050000006,-22.398250399999938],[40.357072800000026,-22.398167099999966],[40.356969400000025,-22.398117999999954],[40.35682550000007,-22.398090099999933],[40.356494300000065,-22.39807559999997],[40.35605880000003,-22.398077799999953],[40.355727400000035,-22.398063399999955],[40.35558350000008,-22.39803569999998],[40.355479900000034,-22.397986699999933],[40.355361800000026,-22.397903699999972],[40.35525260000003,-22.397858699999972],[40.35507210000003,-22.397806899999978],[40.35496320000004,-22.397761599999967],[40.35480680000006,-22.397649899999976],[40.354697600000065,-22.397604899999976],[40.35451770000003,-22.397552599999983],[40.35441100000003,-22.397505099999933],[40.35426890000008,-22.397379899999976],[40.35415180000007,-22.397295999999983],[40.35395050000005,-22.39709689999995],[40.35387330000003,-22.397040199999935],[40.353742400000044,-22.39690429999996],[40.35352620000003,-22.396719299999972],[40.353395300000045,-22.396583499999963],[40.353317900000036,-22.39652689999997],[40.35311600000006,-22.39632839999996],[40.35299840000005,-22.396244999999965],[40.352855300000044,-22.396120699999983],[40.35274830000003,-22.396073599999966],[40.35256890000005,-22.396020799999974],[40.35246200000006,-22.395973599999934],[40.352319400000056,-22.395848899999976],[40.352202100000056,-22.39576509999995],[40.35199950000003,-22.39556719999996],[40.351882200000034,-22.395483399999932],[40.35173960000003,-22.395358699999974],[40.35163270000004,-22.395311499999934],[40.35145330000006,-22.395258799999965],[40.35134620000008,-22.395211699999948],[40.351203000000055,-22.39508749999993],[40.35108520000006,-22.39500419999996],[40.350882600000034,-22.394806399999936],[40.350735100000065,-22.394686299999933],[40.350673200000074,-22.39461499999993],[40.350456800000075,-22.39443019999993],[40.35036530000008,-22.394322099999954],[40.35022920000006,-22.394191199999966],[40.35017680000004,-22.394092299999954],[40.350117100000034,-22.393926299999976],[40.350064700000075,-22.39382749999993],[40.34992850000003,-22.39369659999994],[40.34983680000005,-22.39358859999993],[40.34961980000003,-22.39340439999995],[40.349557600000026,-22.393333499999983],[40.34940930000005,-22.393214099999966],[40.349206700000025,-22.393016299999942],[40.34905840000005,-22.392896899999982],[40.348996200000045,-22.392825899999934],[40.348779500000035,-22.392641499999968],[40.34868800000004,-22.392533199999946],[40.348552400000074,-22.39240189999998],[40.348500200000046,-22.392302899999947],[40.34844060000006,-22.39213669999998],[40.34838780000007,-22.392038299999967],[40.348107500000026,-22.39178419999996],[40.34800020000006,-22.39173729999993],[40.34781970000006,-22.391685499999937],[40.347712400000034,-22.39163869999993],[40.34743160000005,-22.391384999999957],[40.347379000000046,-22.391286399999956],[40.347321100000045,-22.39111859999997],[40.347272100000055,-22.391016599999944],[40.347151300000064,-22.390871199999935],[40.34703550000006,-22.39060969999997],[40.34697230000006,-22.390521099999944],[40.34687560000003,-22.39046419999994],[40.34670220000004,-22.39040579999994],[40.346596100000056,-22.390357799999947],[40.34645270000004,-22.390233799999976],[40.34633420000006,-22.390151199999934],[40.34613070000006,-22.389954199999977],[40.34605280000005,-22.389898099999982],[40.345920800000044,-22.389763399999936],[40.34570420000006,-22.38957879999998],[40.34561260000004,-22.389470699999947],[40.345476500000075,-22.38933979999996],[40.34542410000006,-22.38924099999997],[40.34536430000003,-22.389074999999934],[40.34531180000005,-22.388976299999968],[40.34517540000007,-22.388845599999968],[40.34508340000008,-22.388737899999967],[40.34486560000005,-22.38855449999994],[40.34480300000007,-22.38848379999996],[40.34458500000005,-22.388300699999945],[40.34449280000007,-22.388193199999932],[40.34435620000005,-22.388062699999978],[40.34430400000008,-22.387963699999943],[40.34424580000007,-22.387796099999946],[40.34419660000003,-22.38769439999993],[40.34407530000004,-22.387549399999955],[40.343959400000074,-22.387287999999955],[40.34389640000006,-22.387199299999963],[40.34379990000008,-22.38714219999997],[40.34362690000006,-22.387083399999938],[40.34352110000003,-22.387035199999957],[40.343377400000065,-22.38691149999994],[40.34321760000006,-22.386802899999964],[40.343073100000026,-22.386679999999956],[40.34296560000007,-22.38663329999997],[40.342786000000046,-22.386580799999933],[40.34267930000004,-22.386533399999962],[40.34240040000003,-22.386277999999947],[40.34234770000006,-22.386179399999946],[40.34228820000004,-22.386013099999957],[40.34223610000004,-22.385913999999957],[40.34210030000003,-22.38578279999996],[40.342008700000065,-22.385674799999947],[40.34179130000007,-22.38549089999998],[40.34172890000008,-22.385420199999942],[40.341511300000036,-22.385236499999962],[40.34141930000004,-22.38512879999996],[40.34128300000003,-22.38499809999996],[40.341230600000074,-22.384899299999972],[40.34117080000004,-22.384733299999937],[40.34111840000003,-22.384634499999947],[40.340982300000064,-22.384503499999937],[40.34089080000007,-22.38439539999996],[40.340674500000034,-22.384210499999938],[40.340612700000065,-22.384139199999936],[40.34046530000006,-22.384018999999967],[40.34026330000006,-22.38382059999998],[40.34014580000007,-22.383737099999962],[40.34000310000005,-22.38361249999997],[40.339895900000045,-22.383565499999975],[40.33971500000007,-22.38351419999998],[40.339604800000075,-22.38346999999993],[40.33944630000008,-22.383360299999936],[40.33933620000005,-22.383316199999967],[40.339155600000026,-22.38326449999994],[40.339049200000034,-22.383216799999957],[40.33877210000003,-22.382959699999958],[40.33871850000003,-22.382861999999932],[40.33865320000007,-22.382701099999963],[40.33859090000004,-22.382611699999927],[40.33849500000008,-22.382554099999936],[40.33821320000004,-22.38244979999996],[40.33805590000003,-22.382338999999945],[40.33794590000008,-22.38229469999993],[40.33776530000006,-22.382243099999982],[40.337658300000044,-22.382195999999965],[40.33751520000004,-22.382071699999983],[40.33735690000003,-22.381961799999942],[40.33721380000003,-22.38183749999996],[40.33710700000006,-22.381790199999955],[40.336927900000035,-22.381737099999953],[40.33682100000004,-22.381689999999935],[40.33667790000004,-22.381565699999953],[40.33656000000008,-22.381482499999947],[40.33642710000004,-22.381348599999967],[40.33621110000007,-22.381163399999934],[40.33611990000003,-22.381054999999947],[40.335984100000076,-22.380923799999948],[40.33593190000005,-22.380824899999936],[40.33587220000004,-22.38065869999997],[40.33581990000005,-22.380559799999958],[40.33568390000005,-22.38042889999997],[40.335592200000065,-22.380320799999936],[40.33537560000008,-22.380136299999947],[40.33531350000004,-22.380065199999933],[40.335095900000056,-22.379881599999976],[40.33496450000007,-22.379746299999965],[40.33488700000004,-22.379689799999937],[40.334685000000036,-22.37949139999995],[40.334567400000026,-22.379407899999933],[40.334424600000034,-22.379283399999963],[40.334317800000065,-22.379236099999957],[40.33413870000004,-22.379182999999955],[40.33403190000007,-22.37913569999995],[40.33388860000008,-22.379011699999978],[40.33373000000006,-22.378901999999982],[40.33358670000007,-22.378777999999954],[40.33347980000008,-22.37873069999995],[40.333300800000075,-22.378677599999946],[40.333193900000026,-22.378630399999963],[40.333051100000034,-22.37850579999997],[40.332933500000024,-22.378422299999954],[40.33273150000008,-22.378223999999932],[40.33265400000005,-22.37816749999996],[40.33245270000003,-22.37796849999995],[40.33230480000003,-22.37784879999998],[40.33224260000003,-22.377777799999933],[40.332025300000055,-22.377593899999965],[40.33193310000007,-22.377486399999952],[40.33179620000004,-22.37735619999995],[40.33174350000007,-22.377257699999973],[40.33168450000005,-22.377090899999928],[40.33163460000003,-22.376989799999933],[40.331512900000064,-22.376845199999934],[40.33146320000003,-22.37674389999995],[40.33140560000004,-22.376575799999955],[40.33135580000004,-22.376474599999938],[40.33123370000004,-22.376330399999972],[40.331183500000066,-22.376229499999965],[40.33112380000006,-22.376063399999964],[40.331070700000055,-22.37596529999996],[40.33093360000004,-22.37583529999995],[40.33081170000003,-22.37569099999996],[40.33067470000003,-22.375560999999948],[40.33062170000005,-22.37546279999998],[40.33056220000003,-22.375296399999968],[40.330512000000056,-22.37519549999996],[40.33038990000006,-22.37505139999996],[40.330339700000025,-22.374950499999954],[40.33027990000005,-22.374784499999976],[40.33022660000006,-22.37468649999994],[40.330089100000066,-22.37455699999998],[40.329967500000066,-22.374412399999983],[40.32986390000008,-22.374315699999954],[40.32980580000003,-22.37422779999997],[40.329756400000065,-22.374040899999954],[40.32972230000007,-22.37383929999993],[40.32966220000003,-22.373662499999966],[40.32954710000007,-22.37351179999996],[40.32948630000004,-22.37333559999996],[40.329439800000046,-22.373067999999932],[40.329379000000074,-22.372891799999934],[40.32926290000006,-22.372741899999937],[40.32920320000005,-22.372558599999934],[40.32916310000007,-22.37211709999997],[40.32914230000006,-22.37197699999996],[40.329098600000066,-22.37185569999997],[40.328997800000025,-22.371708199999944],[40.32893720000004,-22.371581999999933],[40.32890270000007,-22.371439299999963],[40.32889240000003,-22.371274599999936],[40.328858600000046,-22.367745299999967],[40.328841700000055,-22.36634669999995],[40.32884670000004,-22.366025899999954],[40.32886040000005,-22.365875699999947],[40.32891740000008,-22.365683699999977],[40.329030200000034,-22.36553159999994],[40.32908620000006,-22.365347199999974],[40.32913030000003,-22.36483789999994],[40.329161000000056,-22.364708899999982],[40.32921350000004,-22.36461459999998],[40.32930350000004,-22.36450549999995],[40.32935250000003,-22.364404499999978],[40.329409500000054,-22.364237799999955],[40.329458800000054,-22.36413699999997],[40.329549100000065,-22.36402819999995],[40.329602600000044,-22.363932099999943],[40.32964110000006,-22.36372369999998],[40.32964920000006,-22.363406399999974],[40.32964210000006,-22.36291269999998],[40.329650300000026,-22.362595399999975],[40.32968880000004,-22.362387099999978],[40.32974230000008,-22.362290899999948],[40.32983260000003,-22.362182099999927],[40.32988180000007,-22.362081299999943],[40.329938800000036,-22.361914699999943],[40.329987800000026,-22.361813599999948],[40.330077800000026,-22.36170439999995],[40.330130300000064,-22.36161009999995],[40.33016090000007,-22.36148099999997],[40.33020430000005,-22.360971199999938],[40.33025960000003,-22.360786099999928],[40.330371100000036,-22.360632899999928],[40.33041390000005,-22.36051249999997],[40.33043380000004,-22.360371199999975],[40.33045550000003,-22.359753099999978],[40.33049630000005,-22.35955119999994],[40.33055340000004,-22.359459799999968],[40.33065620000008,-22.359362399999952],[40.33077670000006,-22.359217299999955],[40.33087960000006,-22.35911999999996],[40.33093710000003,-22.359028199999955],[40.330969700000026,-22.358896799999968],[40.33098700000005,-22.35859019999998],[40.33098690000003,-22.35810669999995],[40.33101510000006,-22.357810099999938],[40.33105900000004,-22.35768909999996],[40.33117190000007,-22.357537099999945],[40.33122840000004,-22.357346999999947],[40.331246100000044,-22.35704089999996],[40.33124800000007,-22.35655909999997],[40.33127700000006,-22.356263399999932],[40.331321400000036,-22.356142699999964],[40.331435000000056,-22.355991399999937],[40.33149240000006,-22.35580209999995],[40.331506500000046,-22.35565379999997],[40.331512100000054,-22.35533659999993],[40.33149050000003,-22.353865999999982],[40.33149060000005,-22.353462299999933],[40.33149910000003,-22.35330829999998],[40.33153910000004,-22.353101699999968],[40.33159340000003,-22.35300579999995],[40.33168490000003,-22.35289649999993],[40.33173490000007,-22.352795499999957],[40.331791500000065,-22.352629899999954],[40.33183770000005,-22.352532099999962],[40.33191640000007,-22.35243399999996],[40.331948200000056,-22.352366399999937],[40.331946800000026,-22.352292099999943],[40.33183490000005,-22.35212329999996],[40.33179400000006,-22.35201369999993],[40.331775400000026,-22.35188469999997],[40.33177420000004,-22.35174939999996],[40.33179100000007,-22.35161899999997],[40.331832200000065,-22.35150589999995],[40.331942000000026,-22.35135729999996],[40.33197650000005,-22.351255799999933],[40.33198250000004,-22.351144099999942],[40.331940400000065,-22.350988099999938],[40.33182860000005,-22.350841299999956],[40.331782600000054,-22.35072219999995],[40.331758500000035,-22.350581499999976],[40.33171960000004,-22.34996469999993],[40.331695800000034,-22.34982439999993],[40.331649500000026,-22.34970549999997],[40.33153310000006,-22.349555599999974],[40.33147240000005,-22.34936799999997],[40.33145550000006,-22.349220599999967],[40.331443500000034,-22.34890489999998],[40.33143640000003,-22.348172699999964],[40.331426400000055,-22.34751979999993],[40.33142920000006,-22.347201199999972],[40.331442200000026,-22.347052599999927],[40.33147420000006,-22.34692139999993],[40.33153150000004,-22.346829799999966],[40.33177530000006,-22.34660599999995],[40.331882000000064,-22.34655769999995],[40.33206160000003,-22.34650309999995],[40.332168300000035,-22.346454799999947],[40.33230990000004,-22.346329099999934],[40.332466200000056,-22.346216699999957],[40.33260620000004,-22.346089499999948],[40.33271170000006,-22.346040099999982],[40.33289030000003,-22.345984699999974],[40.332999200000074,-22.345938299999943],[40.33311620000006,-22.345853899999952],[40.333215100000075,-22.34580399999993],[40.33334770000005,-22.345771999999954],[40.33363650000007,-22.345729699999936],[40.33376860000004,-22.34569739999995],[40.33386710000008,-22.34564709999995],[40.33398330000006,-22.34556189999995],[40.33409160000008,-22.345515099999943],[40.334270900000035,-22.345460199999934],[40.33437930000008,-22.34541349999995],[40.33449580000007,-22.34532859999996],[40.334596900000065,-22.345278599999972],[40.33473570000007,-22.34524849999997],[40.33528620000004,-22.345202099999938],[40.335425600000065,-22.345172399999967],[40.33552730000008,-22.345122999999944],[40.335644900000034,-22.34503909999995],[40.335754000000065,-22.344993099999954],[40.335933100000034,-22.344937999999956],[40.33603880000004,-22.34488879999998],[40.33617860000004,-22.34476139999998],[40.336362000000065,-22.344609999999932],[40.336451200000056,-22.34450019999997],[40.33658400000007,-22.344366399999956],[40.33663420000005,-22.344266499999947],[40.33669050000003,-22.34409919999996],[40.33674080000003,-22.343999399999973],[40.33687320000007,-22.343865299999948],[40.33699010000004,-22.343716899999947],[40.337123200000065,-22.343583299999977],[40.33717500000006,-22.343484899999964],[40.337238100000036,-22.343323899999973],[40.33729940000006,-22.34323409999996],[40.33739450000007,-22.343175199999962],[40.33767460000007,-22.34306659999993],[40.337829500000055,-22.34295309999993],[40.33793860000003,-22.342906899999946],[40.33811930000007,-22.342853399999967],[40.33822800000007,-22.34280689999997],[40.33838250000008,-22.34269299999994],[40.338490800000045,-22.342646199999933],[40.338670800000045,-22.342591899999945],[40.33877970000003,-22.34254569999996],[40.33889650000003,-22.342460999999957],[40.338995200000056,-22.342410899999948],[40.339127500000075,-22.342378699999983],[40.33941630000004,-22.342336399999965],[40.33954860000006,-22.342304199999944],[40.339647300000024,-22.342254099999934],[40.33976400000006,-22.342169299999966],[40.33987270000006,-22.342122999999958],[40.34005240000005,-22.342068499999982],[40.340160500000025,-22.342021399999965],[40.34031420000008,-22.34190669999998],[40.340422200000035,-22.341859599999964],[40.34060150000005,-22.341804699999955],[40.34070930000007,-22.34175749999997],[40.34086250000007,-22.341642399999955],[40.34097010000005,-22.34159489999996],[40.341148900000064,-22.341539499999953],[40.34125700000004,-22.34149249999996],[40.341373100000055,-22.341407299999958],[40.34147550000006,-22.34135649999996],[40.34161860000006,-22.34132619999997],[40.34194900000006,-22.34130579999993],[40.342468300000064,-22.341296899999975],[40.34278640000008,-22.341265199999953],[40.342915600000026,-22.341222199999947],[40.34307700000005,-22.341114499999946],[40.343206200000054,-22.34107149999994],[40.34352430000007,-22.341039799999976],[40.34404340000003,-22.341030799999942],[40.34437360000004,-22.34101019999997],[40.344516500000054,-22.340979699999934],[40.34461870000007,-22.34092869999995],[40.34473450000007,-22.340843199999938],[40.34484230000004,-22.340795899999932],[40.34502100000003,-22.34074049999998],[40.34512900000004,-22.340693399999964],[40.345244800000046,-22.34060779999993],[40.34534300000007,-22.340557199999978],[40.345474800000034,-22.34052459999998],[40.34576260000006,-22.34048139999993],[40.34589450000004,-22.340448799999933],[40.345992600000045,-22.34039819999998],[40.346108300000026,-22.340312599999947],[40.34621630000004,-22.340265399999964],[40.346394700000076,-22.34020979999997],[40.34650240000008,-22.340162299999974],[40.34661780000005,-22.34007639999993],[40.34671890000004,-22.34002529999998],[40.34685960000007,-22.339994399999966],[40.34701760000007,-22.339979299999982],[40.34744260000008,-22.339969099999962],[40.34831390000005,-22.339967899999976],[40.34874460000003,-22.339962899999932],[40.34906810000007,-22.339939499999957],[40.349267800000064,-22.33988279999994],[40.34942790000008,-22.339773999999977],[40.34955530000008,-22.33973029999993],[40.34986890000005,-22.339696699999934],[40.35029780000008,-22.339688399999943],[40.35290950000007,-22.339673499999947],[40.35333420000006,-22.339661399999954],[40.353492000000074,-22.33964549999996],[40.353692600000045,-22.339588599999956],[40.35385260000004,-22.33947969999997],[40.35405470000006,-22.339422599999978],[40.35421370000006,-22.33940679999995],[40.35464150000007,-22.33939479999998],[40.35604630000006,-22.33938939999996],[40.356481200000076,-22.339383899999973],[40.356808400000034,-22.33936049999994],[40.35701050000006,-22.33930349999997],[40.35717070000004,-22.339194799999973],[40.357367200000056,-22.339138799999944],[40.35752180000003,-22.339123099999938],[40.357939000000044,-22.339111699999933],[40.358452800000066,-22.339110199999936],[40.358788900000036,-22.339103299999977],[40.35909620000007,-22.339070099999958],[40.35922110000007,-22.339027099999953],[40.35938130000005,-22.338918399999955],[40.35958270000003,-22.33886149999995],[40.359741100000065,-22.338845599999956],[40.360167500000045,-22.338833499999964],[40.36165200000005,-22.338824099999954],[40.36322340000004,-22.338808099999937],[40.36356310000008,-22.338813499999958],[40.363721800000064,-22.33882669999997],[40.363924300000065,-22.33888019999995],[40.364086600000064,-22.338986199999965],[40.36428410000008,-22.339038899999935],[40.36443900000006,-22.33905199999998],[40.36485630000004,-22.33905629999998],[40.36545540000003,-22.339048399999967],[40.36578790000004,-22.339053199999967],[40.36594300000007,-22.339066099999968],[40.36614110000005,-22.339118199999973],[40.366304300000024,-22.33922339999998],[40.36643280000004,-22.339263999999957],[40.36658380000006,-22.339283299999977],[40.367245800000035,-22.339305599999932],[40.36739730000005,-22.339324499999975],[40.367526300000065,-22.339364599999953],[40.367690700000026,-22.33946869999994],[40.36788930000006,-22.33952039999997],[40.36843730000004,-22.33956079999996],[40.368636700000025,-22.339611599999955],[40.368801500000075,-22.339715299999966],[40.36899230000006,-22.33976839999997],[40.369209100000035,-22.339796699999965],[40.36941070000006,-22.339839599999948],[40.36950600000006,-22.33989219999995],[40.36961180000003,-22.339986799999963],[40.369769200000064,-22.340097499999956],[40.369910900000036,-22.34022299999998],[40.37001710000004,-22.340270799999928],[40.370196700000065,-22.34032339999993],[40.37030600000003,-22.340368299999966],[40.37046310000005,-22.340479199999947],[40.37057260000006,-22.34052399999996],[40.37075250000004,-22.34057619999993],[40.370859100000075,-22.340623599999958],[40.371001800000045,-22.340748299999973],[40.37115970000008,-22.340858499999968],[40.37130250000007,-22.340982899999972],[40.37140910000005,-22.341030399999966],[40.371587900000065,-22.341083699999956],[40.37169460000007,-22.341131099999927],[40.37183710000005,-22.341255899999965],[40.37195460000004,-22.34133939999998],[40.37215830000008,-22.341536099999928],[40.372276500000055,-22.341618899999958],[40.37241970000008,-22.34174299999995],[40.372697800000026,-22.341850699999952],[40.37279180000007,-22.34191009999995],[40.372851300000036,-22.34200969999995],[40.37288430000007,-22.342134199999975],[40.37292000000008,-22.342334299999948],[40.37297920000003,-22.342511899999977],[40.37309230000005,-22.342664599999978],[40.37315090000004,-22.342842899999937],[40.37318370000003,-22.343045699999948],[40.37323180000004,-22.343233899999973],[40.373289200000045,-22.343322399999977],[40.373392300000035,-22.343419499999982],[40.37348380000003,-22.34352769999998],[40.37370100000004,-22.34371159999995],[40.373834600000066,-22.343844899999965],[40.37395290000006,-22.343927599999972],[40.374096500000064,-22.344051399999955],[40.374203600000044,-22.344098299999928],[40.37438290000006,-22.344151099999976],[40.37448970000003,-22.344198399999982],[40.37463180000003,-22.34432359999994],[40.37474850000007,-22.344407899999965],[40.37494940000005,-22.34460729999995],[40.37506650000006,-22.344691199999943],[40.375172700000064,-22.344785399999978],[40.37527120000004,-22.34483689999996],[40.37540960000007,-22.344865699999957],[40.37596260000004,-22.344901499999935],[40.37610130000007,-22.344929899999954],[40.37620040000007,-22.34498089999994],[40.37630770000004,-22.345074299999965],[40.37642630000005,-22.345156999999972],[40.37662990000007,-22.34535459999995],[40.376778100000024,-22.34547539999994],[40.37687110000007,-22.34558379999993],[40.376976100000036,-22.345681599999978],[40.377035600000056,-22.345773899999983],[40.377071700000045,-22.345905399999936],[40.37708980000008,-22.346054299999935],[40.37709970000003,-22.346370399999955],[40.377075200000036,-22.34667059999998],[40.377031800000054,-22.34679269999998],[40.37699470000007,-22.346839599999953],[40.376887500000066,-22.346896399999935],[40.376751100000035,-22.346926099999962],[40.376531700000044,-22.346956699999964],[40.37639780000006,-22.346987999999953],[40.37630050000007,-22.34703989999997],[40.376088700000025,-22.347230399999944],[40.376030300000025,-22.34732269999995],[40.37598930000007,-22.34753029999996],[40.37598000000003,-22.34784989999997],[40.37598370000006,-22.34818169999994],[40.375999500000034,-22.348588699999937],[40.37601820000003,-22.348739499999965],[40.37605570000005,-22.348872399999948],[40.37611700000008,-22.348964499999965],[40.37622350000004,-22.34906069999994],[40.37634470000006,-22.34920089999997],[40.37643840000004,-22.349286099999972],[40.37647500000003,-22.34934889999994],[40.37647510000005,-22.349419499999954],[40.37643860000003,-22.34948309999993],[40.37634490000005,-22.349570599999936],[40.376225100000056,-22.34971349999995],[40.376122000000066,-22.34980989999997],[40.37606970000007,-22.349892499999953],[40.37604780000004,-22.349999399999945],[40.37607070000007,-22.350161499999956],[40.37612360000003,-22.350243099999943],[40.37622790000006,-22.350337999999965],[40.376354400000025,-22.35048329999995],[40.376462600000025,-22.35058129999993],[40.37652390000005,-22.35067239999995],[40.376572200000055,-22.35087189999996],[40.37658360000006,-22.35117219999995],[40.37657100000007,-22.351317999999935],[40.37653850000004,-22.351447999999948],[40.376480600000036,-22.351540299999954],[40.376271700000075,-22.35173279999998],[40.37618190000006,-22.35177939999994],[40.37606450000004,-22.351797999999974],[40.37594240000004,-22.35179089999997],[40.37583310000008,-22.351758699999948],[40.37564690000005,-22.35165619999998],[40.37556600000005,-22.351656299999945],[40.375494900000035,-22.351689299999975],[40.37529870000003,-22.35186959999993],[40.37524300000007,-22.351958699999955],[40.37520740000008,-22.35214949999994],[40.37520920000003,-22.352286799999945],[40.37525010000007,-22.352476899999942],[40.37530830000003,-22.352566299999978],[40.37541380000005,-22.352664799999957],[40.37553820000005,-22.352810999999974],[40.37567750000005,-22.35294179999994],[40.37573160000005,-22.35304009999993],[40.375793300000055,-22.35320539999998],[40.37584670000007,-22.35330369999997],[40.37598390000005,-22.353433999999936],[40.37607620000006,-22.35354159999997],[40.376293900000064,-22.353725099999963],[40.376427000000035,-22.353858899999977],[40.37657610000008,-22.353977499999928],[40.37663870000006,-22.354047999999977],[40.37685680000004,-22.35423119999996],[40.37694830000004,-22.354339399999958],[40.377051100000074,-22.35443689999994],[40.377108200000066,-22.354525699999954],[40.37714370000003,-22.35464799999994],[40.37718890000008,-22.354917399999977],[40.37722450000007,-22.35503979999993],[40.377281700000026,-22.35512879999993],[40.37747840000003,-22.35533449999997],[40.37767100000008,-22.355480799999953],[40.37781970000003,-22.35560479999998],[40.378104300000075,-22.35571209999995],[40.37819700000006,-22.355769299999963],[40.37825600000008,-22.35590849999994],[40.378248900000074,-22.35601269999995],[40.378202800000054,-22.356102199999953],[40.37805650000007,-22.356184199999973],[40.377827600000046,-22.356273399999964],[40.37770660000007,-22.356358599999965],[40.377604500000075,-22.356406899999968],[40.37739600000003,-22.356438399999945],[40.37724780000008,-22.35643699999997],[40.37710630000004,-22.356419399999936],[40.376985500000046,-22.356380999999942],[40.37679860000003,-22.356276599999944],[40.37671910000006,-22.356276999999977],[40.37664980000005,-22.356310599999972],[40.37645840000005,-22.35649239999998],[40.376402400000075,-22.35658189999998],[40.37635720000003,-22.356773399999952],[40.376328200000046,-22.35697849999997],[40.37627610000004,-22.357154899999955],[40.376172100000076,-22.35732729999995],[40.37617250000005,-22.35740069999997],[40.37627670000006,-22.357584999999972],[40.37627630000003,-22.35765729999997],[40.376165600000036,-22.35782249999994],[40.37611990000005,-22.357920699999966],[40.37606420000003,-22.358086899999932],[40.37601470000004,-22.358188299999938],[40.37592360000008,-22.358298099999956],[40.37587010000004,-22.358393299999932],[40.375830800000074,-22.358596199999965],[40.37582100000003,-22.358904999999936],[40.375842000000034,-22.35987499999993],[40.37583870000003,-22.36018869999998],[40.37582190000006,-22.36033169999996],[40.37578080000003,-22.36045249999995],[40.37574500000005,-22.360498899999982],[40.375639800000044,-22.360555999999974],[40.375505400000065,-22.360586299999966],[40.37528820000006,-22.360617499999933],[40.375154000000066,-22.360647899999947],[40.37505330000005,-22.360696299999972],[40.37493400000005,-22.36077869999997],[40.37482380000006,-22.360823799999935],[40.37464360000007,-22.36087779999997],[40.374537400000065,-22.360926699999936],[40.37439750000004,-22.361053999999967],[40.37428210000007,-22.361139899999955],[40.37408510000006,-22.361342599999944],[40.37400910000008,-22.361400699999933],[40.37381360000006,-22.361604799999952],[40.37373760000003,-22.361662899999942],[40.37354050000005,-22.361865499999965],[40.37342490000003,-22.36195129999993],[40.37328500000007,-22.36207859999996],[40.37317890000003,-22.36212749999993],[40.372999400000026,-22.36218219999995],[40.372890400000074,-22.362228499999958],[40.372734800000046,-22.362341399999934],[40.372626000000025,-22.362387799999965],[40.372446800000034,-22.36244279999994],[40.37234100000006,-22.362491999999975],[40.372200700000064,-22.362618899999973],[40.37204470000006,-22.36273159999996],[40.37190400000003,-22.362858099999983],[40.371798100000035,-22.362907099999973],[40.371619800000076,-22.36296299999998],[40.37151360000007,-22.36301179999998],[40.37137270000005,-22.36313819999998],[40.37118820000006,-22.36328869999994],[40.37109860000004,-22.36339829999997],[40.37096530000008,-22.363531999999964],[40.37091480000004,-22.363631899999973],[40.37085790000003,-22.36379919999996],[40.37080670000006,-22.363898999999947],[40.370671300000026,-22.364031999999952],[40.370579700000064,-22.36414129999997],[40.37036450000005,-22.364328099999966],[40.37018740000008,-22.364520699999957],[40.37015290000005,-22.36458559999994],[40.37015370000006,-22.36465899999996],[40.370268500000066,-22.36482909999995],[40.370311800000025,-22.364939899999968],[40.37033320000006,-22.365070199999934],[40.37033690000004,-22.365206599999965],[40.37030400000003,-22.365395899999953],[40.37024880000007,-22.365484799999933],[40.37004180000008,-22.36568079999995],[40.369895100000065,-22.36575799999997],[40.36971360000007,-22.36581199999995],[40.36960600000003,-22.365860099999963],[40.36936220000007,-22.36608469999993],[40.36930550000005,-22.366173299999957],[40.36927170000007,-22.36629549999998],[40.369241800000054,-22.366497899999956],[40.369196800000054,-22.366686399999935],[40.36914060000004,-22.36677549999996],[40.36903900000004,-22.36687399999994],[40.36892030000007,-22.367020699999955],[40.36881850000003,-22.367119099999968],[40.36876180000007,-22.367210899999975],[40.36872150000005,-22.367413399999975],[40.368704200000025,-22.367956799999945],[40.368690800000024,-22.36810479999997],[40.368634600000064,-22.368294099999957],[40.36851990000008,-22.368446699999936],[40.36847510000007,-22.36856389999997],[40.368453300000056,-22.368701099999953],[40.36844800000006,-22.368997399999955],[40.36846190000006,-22.369141999999954],[40.368493400000034,-22.369272499999965],[40.368547800000044,-22.369367299999965],[40.36864230000003,-22.36947779999997],[40.36867230000007,-22.369542199999955],[40.36871230000003,-22.369709399999977],[40.36873200000008,-22.369894099999954],[40.368737700000054,-22.37017019999996],[40.36862180000003,-22.370199799999966],[40.36853430000008,-22.370262499999967],[40.368295000000046,-22.370465199999956],[40.36820430000006,-22.370611699999927],[40.36814640000006,-22.370784699999945],[40.36809600000004,-22.370888799999932],[40.36800580000005,-22.37099919999997],[40.36795880000005,-22.371086499999933],[40.36794160000005,-22.371245699999974],[40.36796490000006,-22.37133629999994],[40.368017000000066,-22.371384599999942],[40.36808480000008,-22.371388899999943],[40.368149800000026,-22.371356499999933],[40.368242800000075,-22.37126959999995],[40.36839850000007,-22.371156999999982],[40.36850580000004,-22.371058699999935],[40.36860520000005,-22.371003499999972],[40.368744700000036,-22.370970399999976],[40.369301300000075,-22.370922699999937],[40.369440000000054,-22.370891599999936],[40.36953770000008,-22.370837999999935],[40.369744000000026,-22.37064309999994],[40.36979990000003,-22.370553799999982],[40.36984350000006,-22.370363899999973],[40.369871500000045,-22.370159799999954],[40.36990270000007,-22.37003519999996],[40.36995410000003,-22.369941799999935],[40.37004250000007,-22.369831099999942],[40.37009020000005,-22.36972869999994],[40.37014490000007,-22.369559799999934],[40.37019260000005,-22.369457299999965],[40.37028060000006,-22.36934569999994],[40.37033160000004,-22.369249399999944],[40.37036830000005,-22.369045599999936],[40.37038670000004,-22.368744299999946],[40.37040490000004,-22.368601199999944],[40.37044620000006,-22.36847899999998],[40.37048180000005,-22.368431899999962],[40.37058710000008,-22.368374399999936],[40.37072180000007,-22.368349099999932],[40.370867400000066,-22.368345499999975],[40.37107270000007,-22.36837879999996],[40.37117000000006,-22.368431899999962],[40.37138170000003,-22.368630399999972],[40.37143930000008,-22.368723399999965],[40.37147240000007,-22.36885419999993],[40.37151770000003,-22.369374499999935],[40.37155070000006,-22.36950349999995],[40.371608200000026,-22.369594199999938],[40.37181940000005,-22.369784099999947],[40.37191640000003,-22.369835199999955],[40.37204930000007,-22.369865299999958],[40.37226650000008,-22.369893399999967],[40.37240150000008,-22.369921399999953],[40.37250810000006,-22.369976399999928],[40.372570600000074,-22.370073099999956],[40.37260480000003,-22.370196799999974],[40.372641600000065,-22.370396099999937],[40.372677800000076,-22.370517999999947],[40.37273510000006,-22.37060699999995],[40.372837900000036,-22.370705399999963],[40.372959500000036,-22.370851699999946],[40.37309800000003,-22.37098249999997],[40.37315190000004,-22.371080699999936],[40.37325750000008,-22.371344299999976],[40.373335600000075,-22.37144319999993],[40.37336700000003,-22.371511599999963],[40.37336570000008,-22.371586899999954],[40.373257900000056,-22.371755399999927],[40.37322690000008,-22.371852799999942],[40.373225700000035,-22.37195939999998],[40.37325720000007,-22.37205659999995],[40.37333470000004,-22.37212569999997],[40.37345620000008,-22.372163099999966],[40.37380390000004,-22.37222509999998],[40.37391080000003,-22.372281099999952],[40.37394770000003,-22.37232679999994],[40.373992000000044,-22.372445899999946],[40.374013500000046,-22.372586699999943],[40.37404770000006,-22.37295709999995],[40.37408060000007,-22.373087399999974],[40.374137200000064,-22.373180499999933],[40.37423960000007,-22.37328119999995],[40.37433110000006,-22.373391999999967],[40.374611300000026,-22.373622799999964],[40.37468130000008,-22.37365479999994],[40.37475870000003,-22.37365319999998],[40.374827700000026,-22.373617899999942],[40.37503310000005,-22.373442099999977],[40.375230600000066,-22.373231699999963],[40.375346000000036,-22.373142599999937],[40.375447800000074,-22.373045699999977],[40.375535900000045,-22.37299699999994],[40.37565100000006,-22.372975999999937],[40.375771900000075,-22.37298119999997],[40.37588230000006,-22.373013499999956],[40.376044800000045,-22.37311589999996],[40.37616810000003,-22.373153899999977],[40.37631010000007,-22.37316899999996],[40.37645740000005,-22.373166999999967],[40.376597900000036,-22.37314859999998],[40.376716900000076,-22.37310999999994],[40.37689320000004,-22.37301169999995],[40.376963000000046,-22.373020399999973],[40.37701990000005,-22.37307809999993],[40.37705260000007,-22.373190199999954],[40.37709890000008,-22.373705299999983],[40.377132000000074,-22.373837599999945],[40.377188800000056,-22.37393099999997],[40.377383800000075,-22.374116399999934],[40.37745360000008,-22.374150499999928],[40.37753180000004,-22.374150199999974],[40.377602000000024,-22.37411609999998],[40.37788080000007,-22.373878499999933],[40.37797100000006,-22.373766099999955],[40.37807220000008,-22.37366389999994],[40.37812740000004,-22.37357019999996],[40.37815830000005,-22.37343979999997],[40.37819700000006,-22.372922899999935],[40.37822780000005,-22.372793799999954],[40.37828300000007,-22.37270179999996],[40.37838410000006,-22.372602599999937],[40.37847410000006,-22.37249339999994],[40.37868970000005,-22.372307599999942],[40.37875120000007,-22.372236199999975],[40.37896580000006,-22.372049499999946],[40.37905560000007,-22.37194009999996],[40.37918900000005,-22.37180669999998],[40.37923920000003,-22.37170679999997],[40.37929550000007,-22.371539299999938],[40.37934640000003,-22.37143969999994],[40.37962060000007,-22.37117779999994],[40.37972650000006,-22.371127599999966],[40.37990520000005,-22.37106979999993],[40.38001170000007,-22.371019399999966],[40.38015270000005,-22.37089069999996],[40.380305400000054,-22.370780199999956],[40.380398600000035,-22.370694699999945],[40.38046710000003,-22.37066159999995],[40.380543800000055,-22.370662299999935],[40.380612900000074,-22.370696799999962],[40.38070780000004,-22.370784799999967],[40.38086260000006,-22.37089709999998],[40.38096710000008,-22.37099369999993],[40.381056700000045,-22.371042899999964],[40.38123280000008,-22.371063999999933],[40.38134770000005,-22.37104309999995],[40.381435200000055,-22.370993399999975],[40.38167130000005,-22.370757599999934],[40.381723400000055,-22.37065569999993],[40.38178620000008,-22.370491499999957],[40.38184710000007,-22.37040449999995],[40.38199810000003,-22.370347399999957],[40.38216970000008,-22.370362599999964],[40.38225890000007,-22.37041019999998],[40.38236470000004,-22.370506499999976],[40.38252600000004,-22.37062279999998],[40.382631900000035,-22.370721799999956],[40.38272090000004,-22.370773399999962],[40.382834100000025,-22.37079749999998],[40.38299450000005,-22.370782599999927],[40.38305440000005,-22.370736499999964],[40.38306710000006,-22.370672799999966],[40.38303560000003,-22.370598299999983],[40.38294070000006,-22.370446899999934],[40.38286910000005,-22.370222699999943],[40.382845700000075,-22.370035899999948],[40.38286430000005,-22.369981799999948],[40.382936200000074,-22.369911999999943],[40.383066400000075,-22.369845699999928],[40.38328730000006,-22.36975419999993],[40.383385400000066,-22.369689999999935],[40.383572600000036,-22.369505299999958],[40.38360510000007,-22.369441199999983],[40.38360000000006,-22.369369699999936],[40.38355880000006,-22.36930609999996],[40.38345990000005,-22.36921949999993],[40.383335300000056,-22.369076999999947],[40.38322750000003,-22.368979699999954],[40.38316800000007,-22.36889089999994],[40.38312570000005,-22.36870209999995],[40.383122900000046,-22.368565699999976],[40.383155800000054,-22.36837419999995],[40.38320720000007,-22.368280699999957],[40.38329730000004,-22.368169499999965],[40.38334650000007,-22.36806679999995],[40.38340450000004,-22.367898699999955],[40.38345650000008,-22.36779919999998],[40.38359250000008,-22.367666799999938],[40.38368380000003,-22.367558199999962],[40.38387050000006,-22.36740889999993],[40.38401200000004,-22.367282199999977],[40.38428940000006,-22.367168999999933],[40.38438480000008,-22.36710899999997],[40.38444610000005,-22.36701779999993],[40.38450910000006,-22.366854299999943],[40.38456050000008,-22.366754799999967],[40.38478240000006,-22.366536099999962],[40.38485060000005,-22.366500799999983],[40.384928700000046,-22.366498699999966],[40.38500140000008,-22.36652879999997],[40.385108400000036,-22.366603699999928],[40.38521530000003,-22.366647799999953],[40.38539600000007,-22.366701699999965],[40.385506500000076,-22.36674869999996],[40.38562630000007,-22.36683469999997],[40.385727200000076,-22.366885499999967],[40.38586170000008,-22.36691799999994],[40.386155400000064,-22.36696079999996],[40.38635010000007,-22.36701709999994],[40.38647290000006,-22.367097299999955],[40.386567300000024,-22.36714089999998],[40.38673860000006,-22.36715829999997],[40.38683710000004,-22.367137299999968],[40.38690020000007,-22.367057099999954],[40.386889100000076,-22.366990399999963],[40.38678980000003,-22.36686069999996],[40.38669590000006,-22.366652399999964],[40.386605100000054,-22.366509699999938],[40.38650560000008,-22.366451599999948],[40.38632880000006,-22.366392099999928],[40.38622090000007,-22.36634369999996],[40.38607500000006,-22.366219599999965],[40.38588430000004,-22.36607369999996],[40.385790600000064,-22.365966699999944],[40.38565220000004,-22.365836599999966],[40.38559840000005,-22.36573809999993],[40.385537800000066,-22.36557099999993],[40.38548730000008,-22.365469099999927],[40.38539640000005,-22.365359499999954],[40.385344400000065,-22.365266799999972],[40.38531010000003,-22.365075899999965],[40.38531100000006,-22.36493969999998],[40.38532930000008,-22.36480949999998],[40.38536990000006,-22.364698499999975],[40.38548060000005,-22.364527099999975],[40.38547980000004,-22.364453899999944],[40.385444000000064,-22.36438959999998],[40.38526340000004,-22.364199699999972],[40.38504330000006,-22.364017899999965],[40.38490790000003,-22.363884199999973],[40.384757000000036,-22.363765799999953],[40.38469360000005,-22.36369549999995],[40.38447320000006,-22.363513599999976],[40.384380400000055,-22.36340629999995],[40.38427660000008,-22.36330959999998],[40.384218600000054,-22.36321819999995],[40.38417510000005,-22.363015299999972],[40.384147400000074,-22.362470499999972],[40.38413070000007,-22.362322399999982],[40.38406990000004,-22.362133599999936],[40.38395280000003,-22.361982199999943],[40.383908500000075,-22.361869399999932],[40.383888100000036,-22.36173919999993],[40.38388580000003,-22.36160339999998],[40.38391820000004,-22.361412599999937],[40.38396910000006,-22.36131899999998],[40.38405860000006,-22.361207099999945],[40.38410740000006,-22.361103399999934],[40.384165100000075,-22.360932999999932],[40.384217600000056,-22.36083199999996],[40.38445850000005,-22.360601299999928],[40.38454740000003,-22.360551999999927],[40.384663800000055,-22.360530599999947],[40.38484200000005,-22.360549499999934],[40.384933000000046,-22.360596699999974],[40.385231400000066,-22.36084169999998],[40.38532500000008,-22.36095249999994],[40.38542890000008,-22.361052099999938],[40.385485000000074,-22.361142099999938],[40.38552150000004,-22.361332499999946],[40.38552020000003,-22.361469799999952],[40.38550040000007,-22.361602199999936],[40.38545620000008,-22.361717399999975],[40.385341700000026,-22.361870299999964],[40.38530500000007,-22.361974499999974],[40.38529760000006,-22.36208879999998],[40.38531880000005,-22.362197899999956],[40.385370400000056,-22.362281199999927],[40.385577700000056,-22.362472099999934],[40.38566810000003,-22.362519599999928],[40.38584650000007,-22.36253739999995],[40.38596280000007,-22.362514699999963],[40.38605130000008,-22.362463699999978],[40.386288800000045,-22.362225799999976],[40.38634110000004,-22.362123399999973],[40.386405300000035,-22.361957399999937],[40.38646920000008,-22.36186729999997],[40.386576200000036,-22.36181199999993],[40.38671010000007,-22.361787299999946],[40.38685360000005,-22.361783899999978],[40.38705550000003,-22.361817499999972],[40.38715160000004,-22.36187019999994],[40.38725850000003,-22.36196709999996],[40.387418000000025,-22.36208019999998],[40.38752480000005,-22.362176399999953],[40.38762090000006,-22.362229599999978],[40.387823800000035,-22.36227249999996],[40.38804150000004,-22.362300999999945],[40.38817320000004,-22.362332399999957],[40.38826960000006,-22.36238419999995],[40.38837620000004,-22.362478299999964],[40.38849430000005,-22.36256129999998],[40.38869620000003,-22.362759799999935],[40.38884360000003,-22.36287999999996],[40.388905600000044,-22.36295119999994],[40.389122400000076,-22.363135599999964],[40.38921360000006,-22.363244099999974],[40.38931620000005,-22.363341799999944],[40.38937310000006,-22.36343089999997],[40.38942030000004,-22.363620199999957],[40.38945280000007,-22.363823699999955],[40.38948790000006,-22.363946899999974],[40.389544400000034,-22.364036899999974],[40.38980780000003,-22.364312299999938],[40.38992680000007,-22.36439779999995],[40.390035100000034,-22.364493799999934],[40.39013310000007,-22.364545799999973],[40.39033950000004,-22.364579599999956],[40.39048800000006,-22.364578499999936],[40.390694300000064,-22.364541299999928],[40.39079110000006,-22.364487099999963],[40.390998800000034,-22.36429039999996],[40.39104960000003,-22.364206399999944],[40.391069800000025,-22.36409729999997],[40.39104740000005,-22.363929799999937],[40.390998900000056,-22.363841999999977],[40.39091080000003,-22.363730199999964],[40.39084770000005,-22.363551799999982],[40.390811100000064,-22.363348499999972],[40.390760200000045,-22.36315989999997],[40.390701500000034,-22.363071399999967],[40.390597100000036,-22.362974299999962],[40.39050460000004,-22.36286629999995],[40.39028580000007,-22.36268309999997],[40.39022310000007,-22.362612499999955],[40.39007420000007,-22.362493599999937],[40.38987140000006,-22.362295999999958],[40.38972320000005,-22.362176499999975],[40.38966110000007,-22.36210539999996],[40.38944520000007,-22.36192029999995],[40.38935420000007,-22.361811699999976],[40.38921850000003,-22.361680399999955],[40.389165200000036,-22.361582399999975],[40.389099900000076,-22.36142159999997],[40.38903750000003,-22.361332199999936],[40.38888560000004,-22.361253499999975],[40.38865960000004,-22.361170499999957],[40.38854010000006,-22.361088699999982],[40.388436600000034,-22.36104169999993],[40.38829530000004,-22.36101549999995],[40.38773690000005,-22.360982599999943],[40.387596700000074,-22.36095419999998],[40.38749670000004,-22.360902499999952],[40.38728240000006,-22.360710799999936],[40.38722450000006,-22.360622099999944],[40.387185300000056,-22.36043189999998],[40.38718410000007,-22.360294099999976],[40.38721810000004,-22.360100399999965],[40.38726980000007,-22.360005599999965],[40.38736030000007,-22.359893399999976],[40.387505900000065,-22.359582599999953],[40.38759490000007,-22.35951119999993],[40.38772620000003,-22.35947299999998],[40.38787860000008,-22.359454399999947],[40.388276200000064,-22.359423599999957],[40.38847800000008,-22.359371099999976],[40.38864440000003,-22.35926589999997],[40.38883830000003,-22.35921019999995],[40.389059700000075,-22.35917829999994],[40.389265900000055,-22.35913199999993],[40.38936220000005,-22.359077799999966],[40.38955500000003,-22.358898199999942],[40.389586300000076,-22.358805599999982],[40.389554400000065,-22.35874739999997],[40.38945990000008,-22.358704399999965],[40.38911030000003,-22.35865389999998],[40.38897560000004,-22.358622999999966],[40.38887690000007,-22.35857089999996],[40.38862650000004,-22.35834749999998],[40.38857280000008,-22.358248799999956],[40.38851370000003,-22.358081099999936],[40.38846410000008,-22.35797919999993],[40.388342900000055,-22.35783379999998],[40.38829300000003,-22.357732399999975],[40.38823370000006,-22.357565799999975],[40.388180600000055,-22.35746759999995],[40.38804360000006,-22.35733749999997],[40.387922600000024,-22.35719229999995],[40.387819800000045,-22.357094899999936],[40.38776230000008,-22.357006399999932],[40.387726300000054,-22.356884699999966],[40.387680200000034,-22.356616499999973],[40.387644300000034,-22.356494599999962],[40.38758690000003,-22.35640609999996],[40.38748360000005,-22.35630919999994],[40.38739160000006,-22.35620149999994],[40.38717210000004,-22.356019799999956],[40.38710880000008,-22.355949799999962],[40.38688870000004,-22.355768599999976],[40.38679620000005,-22.355661399999974],[40.38669280000005,-22.355564499999957],[40.386635400000046,-22.35547399999996],[40.38660150000004,-22.35534619999993],[40.386551300000065,-22.35483419999997],[40.386519100000044,-22.35470479999998],[40.38646540000008,-22.354610799999932],[40.386374200000034,-22.35450229999998],[40.38632380000007,-22.35440159999996],[40.38626440000007,-22.35423519999995],[40.38621390000003,-22.35413449999993],[40.386122500000056,-22.35402629999993],[40.38606850000008,-22.353932499999928],[40.38603600000005,-22.35380349999997],[40.38598510000003,-22.353291799999965],[40.385952700000075,-22.35316229999995],[40.38589900000005,-22.35306799999995],[40.38580760000008,-22.352959099999964],[40.38575670000006,-22.35285799999997],[40.38569480000007,-22.352692399999967],[40.38563960000005,-22.35259469999994],[40.38549830000005,-22.352465199999983],[40.38537310000004,-22.35232099999996],[40.38526950000005,-22.352225999999973],[40.38521670000006,-22.35214419999994],[40.38519290000005,-22.35198189999994],[40.38521380000003,-22.351875099999972],[40.38526510000003,-22.351792599999953],[40.385367700000074,-22.351696499999946],[40.385461400000054,-22.351587999999936],[40.38568410000005,-22.351400799999965],[40.38577830000003,-22.351291799999956],[40.385883300000046,-22.351193499999965],[40.385939800000074,-22.351104299999975],[40.38597630000004,-22.350915699999973],[40.38597510000005,-22.35077979999994],[40.38593650000007,-22.350589499999955],[40.38588210000006,-22.35049719999995],[40.38578810000007,-22.350387999999953],[40.38573550000007,-22.35028619999997],[40.385672800000066,-22.350117999999952],[40.385619500000075,-22.35001669999997],[40.38549130000007,-22.349871899999982],[40.385438100000044,-22.349770399999954],[40.385329100000035,-22.349504799999977],[40.38525100000004,-22.349408799999935],[40.38522350000005,-22.34934579999998],[40.38523500000008,-22.34928119999995],[40.38529760000006,-22.349228299999936],[40.38541350000003,-22.34919599999995],[40.385690400000044,-22.349155699999983],[40.38580650000006,-22.349123299999974],[40.385869300000024,-22.349070299999937],[40.38588100000004,-22.349005499999976],[40.38585380000006,-22.348942299999976],[40.385776200000066,-22.34884599999998],[40.385666600000036,-22.34858159999993],[40.38561100000004,-22.348482799999942],[40.38546990000003,-22.348351799999932],[40.385344900000064,-22.348207099999968],[40.38520520000003,-22.348077599999954],[40.385150700000054,-22.347980099999972],[40.38508920000004,-22.34781499999997],[40.385038200000054,-22.34771459999996],[40.384946300000024,-22.34760659999995],[40.384891700000026,-22.347511999999938],[40.38485890000004,-22.347380699999974],[40.38483590000004,-22.347077699999943],[40.38483210000004,-22.346756399999947],[40.38483240000005,-22.345781899999963],[40.38482310000006,-22.345465899999965],[40.38480700000008,-22.345318799999973],[40.384772600000076,-22.345188999999948],[40.38471430000004,-22.345098099999973],[40.384610200000054,-22.345001799999977],[40.38451760000004,-22.34489469999994],[40.384299000000055,-22.34471209999998],[40.384166900000025,-22.344577499999957],[40.38408930000003,-22.34452109999995],[40.383888100000036,-22.344322099999943],[40.38377040000006,-22.34423869999995],[40.38366380000008,-22.344144899999947],[40.38356380000005,-22.34409349999993],[40.38334350000008,-22.344058699999948],[40.382753800000046,-22.34404889999996],[40.38259670000008,-22.34403539999994],[40.38246200000003,-22.344000499999936],[40.38237110000006,-22.343931099999963],[40.382222900000045,-22.34362529999993],[40.38213190000005,-22.343515899999943],[40.382078000000035,-22.34341919999997],[40.38204570000005,-22.343284599999947],[40.382030100000065,-22.343133799999976],[40.38202080000008,-22.342731199999946],[40.38202990000008,-22.342410799999982],[40.38204570000005,-22.34226099999995],[40.38210470000007,-22.342070399999955],[40.38219010000006,-22.34195989999995],[40.382236300000045,-22.34187399999996],[40.382254500000045,-22.341710199999966],[40.382210600000064,-22.341554599999938],[40.38209600000005,-22.341407999999944],[40.38203430000004,-22.341224199999942],[40.38201710000004,-22.34108059999994],[40.382017000000076,-22.340783899999963],[40.38205530000005,-22.340583699999968],[40.38210850000007,-22.340489099999957],[40.382199600000035,-22.34037939999996],[40.382249400000035,-22.340277999999955],[40.38230680000004,-22.34011069999997],[40.38235600000007,-22.340009299999963],[40.38244590000005,-22.339899599999967],[40.38249820000004,-22.339804999999956],[40.382528500000035,-22.33967549999994],[40.382569800000056,-22.339163499999927],[40.38259970000007,-22.33903379999998],[40.382651500000065,-22.338938799999937],[40.38274030000008,-22.338828699999965],[40.38278840000004,-22.33872679999996],[40.38284410000006,-22.33855909999994],[40.382893000000024,-22.338457999999946],[40.38301370000005,-22.33831319999996],[40.38306250000005,-22.338211899999976],[40.38311820000007,-22.338044199999956],[40.38316690000005,-22.337942899999973],[40.383287600000074,-22.337797999999964],[40.38333630000005,-22.337696799999947],[40.38339170000006,-22.33752869999995],[40.383439500000065,-22.337426599999958],[40.38352770000006,-22.337315899999965],[40.383578800000066,-22.337220299999956],[40.38360770000003,-22.337089599999956],[40.38364380000007,-22.336572899999965],[40.383673900000076,-22.336443199999962],[40.38372900000007,-22.336350899999957],[40.38393350000007,-22.336153499999966],[40.38403230000006,-22.336098299999946],[40.384254500000054,-22.336056999999983],[40.384422200000074,-22.336046799999963],[40.384860400000036,-22.33604109999993],[40.385034000000076,-22.33604379999997],[40.38520100000005,-22.336052499999937],[40.38542240000004,-22.33609189999993],[40.38552200000004,-22.336145899999963],[40.385627000000056,-22.336242399999946],[40.38574300000005,-22.33632799999998],[40.38594200000006,-22.33652989999996],[40.38605850000005,-22.33661449999994],[40.38616390000004,-22.33670959999995],[40.38625970000004,-22.336761699999954],[40.386462900000026,-22.33680309999994],[40.38668190000004,-22.336829399999942],[40.38681610000003,-22.336858099999972],[40.38691710000006,-22.336905299999955],[40.38708930000007,-22.337011299999972],[40.38732120000003,-22.33708839999997],[40.38741820000007,-22.337144999999964],[40.38748160000006,-22.33723329999998],[40.38757060000006,-22.337445999999943],[40.38768860000005,-22.337603199999933],[40.38774170000005,-22.337699099999952],[40.38778140000005,-22.337904999999978],[40.38780970000005,-22.33852769999993],[40.387849800000026,-22.338733299999944],[40.38790320000004,-22.338828899999953],[40.38799420000004,-22.33893749999993],[40.38808890000007,-22.339144699999963],[40.38817720000003,-22.339283699999953],[40.38827500000008,-22.339339499999937],[40.38844960000006,-22.339396699999952],[40.38855590000003,-22.339444499999956],[40.388837600000045,-22.339697199999932],[40.38889130000007,-22.339794799999936],[40.38895230000003,-22.33995969999995],[40.389005300000065,-22.340057899999977],[40.38914180000006,-22.34018839999993],[40.38926250000003,-22.34033379999994],[40.38936540000003,-22.340431199999955],[40.389423100000045,-22.34051939999995],[40.389471900000046,-22.340706999999952],[40.389505400000075,-22.340909099999976],[40.38953970000006,-22.34103239999996],[40.38959340000008,-22.341124499999978],[40.38968420000003,-22.341233299999942],[40.38973390000007,-22.341334699999948],[40.38979230000007,-22.341501999999934],[40.389842800000054,-22.34160259999993],[40.38996600000007,-22.341745699999933],[40.39001660000008,-22.341846199999964],[40.390075600000046,-22.342013099999974],[40.39012630000008,-22.342113499999982],[40.39024980000005,-22.34225619999995],[40.39030070000007,-22.342356499999937],[40.39035970000003,-22.34252319999996],[40.390409900000066,-22.342624199999932],[40.39050090000006,-22.342732799999965],[40.39055470000005,-22.342826699999932],[40.39058720000003,-22.34295579999997],[40.390638300000035,-22.343466899999953],[40.39069610000007,-22.34365209999993],[40.39081010000007,-22.343803899999955],[40.39087020000005,-22.343980699999975],[40.390904300000045,-22.344182299999943],[40.390953800000034,-22.34436919999996],[40.391012000000046,-22.344456899999955],[40.39111650000007,-22.344552799999974],[40.39120950000006,-22.344659599999943],[40.39142860000004,-22.34484169999996],[40.39152160000003,-22.344948599999952],[40.39162600000003,-22.345044599999937],[40.39168420000004,-22.345132399999954],[40.39173370000003,-22.34531979999997],[40.391767800000025,-22.345521799999972],[40.391828400000065,-22.345699199999956],[40.391944300000034,-22.345850999999982],[40.39199050000008,-22.345964399999957],[40.39205320000008,-22.34629599999994],[40.39211050000006,-22.346468399999935],[40.39221850000007,-22.346637199999975],[40.39221820000006,-22.34671149999997],[40.392113100000074,-22.346877499999948],[40.39208140000005,-22.346975499999928],[40.392076100000054,-22.347085999999933],[40.39211760000006,-22.347242199999982],[40.392228000000046,-22.34738999999996],[40.392286900000045,-22.347574599999973],[40.392342100000064,-22.348085999999967],[40.39237550000007,-22.34821489999996],[40.39243000000005,-22.34830859999994],[40.39252220000003,-22.348416499999928],[40.39257320000007,-22.348516899999936],[40.39263340000008,-22.348682699999927],[40.39268450000003,-22.34878279999998],[40.392776800000036,-22.348890299999937],[40.39283180000007,-22.34898529999998],[40.392864700000075,-22.349118199999964],[40.39288680000004,-22.349425399999973],[40.39289320000006,-22.349829599999964],[40.39291540000005,-22.350136799999973],[40.39297440000007,-22.35032709999996],[40.39308980000004,-22.350477499999954],[40.393151200000034,-22.350653199999954],[40.393198400000074,-22.350920199999962],[40.39323370000005,-22.351042699999937],[40.39328820000003,-22.351133999999945],[40.39337980000005,-22.351241999999957],[40.393430100000046,-22.35134279999994],[40.39348920000003,-22.351509499999963],[40.393540200000075,-22.351609699999983],[40.393664200000046,-22.351751999999976],[40.39371530000005,-22.351852099999974],[40.39377460000003,-22.35201859999995],[40.39382480000006,-22.352119399999935],[40.39391610000007,-22.35222779999998],[40.393970000000024,-22.352321699999948],[40.394002700000044,-22.35245059999994],[40.39405510000006,-22.352960499999938],[40.39411370000005,-22.35314489999996],[40.394228000000055,-22.353296399999977],[40.394286700000066,-22.353480599999955],[40.394339900000034,-22.353989799999965],[40.39439850000008,-22.354174099999966],[40.39451340000005,-22.354325099999983],[40.39457440000007,-22.354501099999936],[40.39462140000006,-22.354768399999955],[40.39465670000004,-22.354890799999964],[40.39471130000004,-22.354981899999927],[40.394803300000035,-22.35508959999993],[40.394853900000044,-22.35519019999998],[40.39491310000005,-22.35535679999998],[40.39496340000005,-22.355457599999966],[40.39505460000004,-22.355566099999976],[40.39510830000006,-22.355660099999966],[40.39514070000007,-22.35578929999997],[40.39519260000003,-22.356299699999965],[40.39522740000007,-22.35642669999993],[40.39528550000006,-22.35651649999994],[40.395389400000056,-22.35661289999996],[40.39551140000003,-22.356757199999947],[40.395615200000066,-22.356853599999965],[40.395673300000055,-22.356943399999977],[40.39570800000007,-22.357070499999963],[40.39575970000004,-22.357581099999948],[40.39579200000003,-22.35771049999994],[40.395845500000064,-22.35780459999995],[40.39593640000004,-22.35791329999995],[40.39598660000007,-22.35801429999998],[40.396045800000024,-22.35818089999998],[40.396096800000066,-22.358280999999977],[40.396221000000025,-22.358423199999947],[40.39627210000003,-22.35852319999998],[40.396331400000065,-22.358689699999957],[40.39638160000004,-22.358790599999963],[40.396472800000026,-22.358899099999974],[40.39652650000005,-22.358993099999964],[40.396559000000025,-22.359122299999967],[40.396610200000055,-22.359633299999928],[40.39664300000004,-22.359762199999977],[40.396697000000074,-22.359855899999957],[40.39678870000006,-22.35996389999997],[40.396839500000056,-22.360064199999954],[40.39689930000003,-22.360230199999933],[40.39695020000005,-22.360330499999975],[40.397042200000044,-22.360438199999976],[40.39709680000004,-22.360532699999965],[40.39713880000005,-22.36073639999995],[40.397166500000026,-22.361278599999935],[40.397182600000065,-22.361425699999927],[40.39724160000003,-22.36161329999993],[40.39735660000008,-22.361764199999982],[40.397402200000045,-22.361883399999954],[40.39742520000004,-22.362023999999963],[40.397459500000025,-22.362641099999962],[40.397501600000055,-22.362844799999948],[40.39755610000003,-22.362939299999937],[40.397648100000026,-22.363046999999938],[40.397699000000046,-22.363147199999958],[40.397759000000065,-22.36331309999997],[40.39780980000006,-22.363413399999956],[40.39790160000007,-22.363521299999945],[40.397955800000034,-22.363614799999937],[40.397988800000064,-22.36374349999994],[40.39804110000006,-22.36425349999996],[40.39809960000008,-22.36443799999995],[40.39821480000006,-22.364588599999934],[40.39827640000004,-22.364764199999968]]],[[[40.38621570000004,-22.359215499999948],[40.38606240000007,-22.359198299999946],[40.38593270000007,-22.359158799999932],[40.38588210000006,-22.35912559999997],[40.385818200000074,-22.359037599999965],[40.38574730000005,-22.35888209999996],[40.38568330000004,-22.358794299999943],[40.385586500000045,-22.35873749999996],[40.38541390000006,-22.358678399999974],[40.38530860000003,-22.358629699999938],[40.38516610000005,-22.358504899999957],[40.385047600000064,-22.358422299999972],[40.38491330000005,-22.358289699999943],[40.38469420000007,-22.358107599999983],[40.38460160000005,-22.35800039999998],[40.38449760000003,-22.357904099999928],[40.384439600000064,-22.357813499999963],[40.38440540000005,-22.357684699999936],[40.384389300000066,-22.35753859999994],[40.384380100000044,-22.357224799999983],[40.38438020000007,-22.356498899999963],[40.384372100000064,-22.35610289999994],[40.384335700000065,-22.35581389999993],[40.384288800000036,-22.355696199999954],[40.38417070000003,-22.355545999999947],[40.384122500000046,-22.35542529999998],[40.38409690000003,-22.355282399999965],[40.38407590000003,-22.354965499999935],[40.38407390000003,-22.354555999999945],[40.38408500000003,-22.35439999999994],[40.384113900000045,-22.354259799999966],[40.38417730000003,-22.354151599999966],[40.38428430000005,-22.35409409999994],[40.38441990000007,-22.354069599999946],[40.384564100000034,-22.35406839999996],[40.384699900000044,-22.35409059999995],[40.38480740000006,-22.354146299999968],[40.38484530000005,-22.35419449999995],[40.38489000000004,-22.35432069999996],[40.38491740000006,-22.354630399999962],[40.384921500000075,-22.35504179999998],[40.38494160000005,-22.35535249999998],[40.384973700000046,-22.35548669999997],[40.38502790000007,-22.35558249999997],[40.38511920000008,-22.355691099999945],[40.38516960000004,-22.35579199999995],[40.38522880000005,-22.35595859999995],[40.38527970000007,-22.356058899999937],[40.38540300000005,-22.356201899999974],[40.385453400000074,-22.356302599999935],[40.385511500000064,-22.356470299999955],[40.38556140000003,-22.356571499999973],[40.38568290000006,-22.356716199999937],[40.38573260000004,-22.356817499999977],[40.38579150000004,-22.356984499999953],[40.38584460000004,-22.357082599999956],[40.386125400000026,-22.357336199999963],[40.38623250000006,-22.35738319999996],[40.38641280000007,-22.357435099999975],[40.386520500000074,-22.35748159999997],[40.386664600000074,-22.357605099999944],[40.38678310000006,-22.357687899999974],[40.386987100000056,-22.357885499999952],[40.387136300000066,-22.358005599999956],[40.38719930000008,-22.358076899999958],[40.387421000000074,-22.358261599999935],[40.38751520000005,-22.35836969999997],[40.387620800000036,-22.35846399999997],[40.38767590000003,-22.358544999999935],[40.38770210000007,-22.35870639999996],[40.38765010000003,-22.35885539999998],[40.387539100000026,-22.358931299999938],[40.387323500000036,-22.359030099999927],[40.38721480000004,-22.359101299999963],[40.38717290000005,-22.35920159999995],[40.38661570000005,-22.359217599999965],[40.38621570000004,-22.359215499999948]]]]}}]}
