{"type":"FeatureCollection","features":[{"type":"Feature","properties":{"place":"ghajar","region":"area/ghajar","donors":"LB area/shebaa-farms area/golan-heights","rank":3,"whose_line":"OSM mappers (Ghajar local council, from Israel's Ministry of Interior) cut by the US State Department's Israel-Lebanon line","publisher":"OpenStreetMap contributors","source_url":"https://www.openstreetmap.org/relation/1377972","version_or_date":"snapshot 2026-10-04T06:57:51Z (Overpass attic query); relation 1377972 v35","feature_id":"relation 1377972","licence":"ODbL 1.0; US government work","notes":"The part of the village north of the State Department's Israel-Lebanon line (taken as the Lebanese side), which Israel holds and Lebanon claims; the Blue Line itself is not published as data, and Lebanon's COD-AB puts the whole village in Lebanon. GADM puts the village in its 'Chebaa Farms' unit.","input_sha256":"7f7544b823127e19cf6ff6cdf7883afab17dd2502ddefc3cba79c162c78d9883","operation":"assembled from the OSM element's member ways (outer minus inner); intersected with dos-worldpolygons-11.4 DoS_WP_11_4 fid 170","crs":"WGS84 longitude/latitude, as in the source (no reprojection)","source_features":[{"id":"relation 1377972 v35","osm":"relation/1377972","version":35,"timestamp":"2025-10-28T19:51:05Z","name":"ע'ג'ר","name:en":"Ghajar","boundary":"administrative","admin_level":"8","source":"Israel Ministry of Interior"},{"id":"DoS_WP_11_4 fid 170","WP_Name":"Lebanon","GENC_3":"LBN"}]},"geometry":{"type":"MultiPolygon","coordinates":[[[[35.62586032512604,33.2739854779732],[35.621921962187386,33.27249919707941],[35.621938,33.2725334],[35.622388,33.272704],[35.6226485,33.2728027],[35.622636,33.2730114],[35.6226053,33.2731465],[35.6225424,33.2732857],[35.6224731,33.2734197],[35.6223777,33.2735835],[35.6222971,33.2737108],[35.6222032,33.2738258],[35.6221106,33.2739199],[35.621871,33.2741155],[35.6215206,33.2744176],[35.6213042,33.2746233],[35.6210779,33.2747292],[35.620849,33.2748295],[35.6206261,33.2749187],[35.6205051,33.2749667],[35.6204384,33.2750177],[35.6203869,33.2751066],[35.6203649,33.2751847],[35.6203812,33.2752734],[35.6204045,33.2753481],[35.6205611,33.2755781],[35.6208359,33.2759822],[35.6210426,33.2764829],[35.6212531,33.2769058],[35.6212866,33.2770005],[35.621307,33.2771047],[35.6212902,33.2772935],[35.6212409,33.2775575],[35.6211899,33.2779185],[35.6211226,33.2781311],[35.6211171,33.2781661],[35.6211179,33.2782016],[35.6211317,33.2782362],[35.6211513,33.2782612],[35.621273,33.2783546],[35.6214514,33.278601],[35.6218927,33.2783812],[35.6222461,33.2783741],[35.6226314,33.278355],[35.6229288,33.2783235],[35.6232209,33.2782902],[35.6235968,33.2782464],[35.6238727,33.2782066],[35.6240761,33.2781655],[35.6242683,33.2781266],[35.6242928,33.2780183],[35.6243175,33.2779096],[35.6243486,33.2777721],[35.6243867,33.2776404],[35.6244187,33.2775297],[35.624491,33.2773855],[35.6245766,33.2772648],[35.6247008,33.2771116],[35.6248478,33.2769615],[35.6249744,33.2768391],[35.62514,33.2766821],[35.6253124,33.2764993],[35.6254735,33.2763142],[35.6255858,33.276152],[35.6256792,33.2759612],[35.6257602,33.275769],[35.6258086,33.2755756],[35.6258142,33.275365],[35.6257904,33.2750934],[35.6255552,33.2741468],[35.6257591,33.2740375],[35.62586032512604,33.2739854779732]]],[[[35.6201212,33.2700388],[35.6200341,33.2702449],[35.6200155,33.2704225],[35.6200601,33.2705965],[35.6201887,33.2708068],[35.6203914,33.2710373],[35.6206744,33.2712991],[35.6209866,33.2715169],[35.6212513,33.2716724],[35.6215121,33.2718502],[35.6216426,33.2719816],[35.62172452233818,33.27209189402482],[35.621718000000044,33.27205100000003],[35.621571000000074,33.27179000000007],[35.62078200000008,33.27136400000006],[35.62002600000005,33.27040100000005],[35.62015304650451,33.269972895428154],[35.6201212,33.2700388]]]]}}]}
