{"type":"FeatureCollection","features":[{"type":"Feature","properties":{"place":"glorioso-islands","region":"TF","donors":"","rank":2,"whose_line":"the coastline (uncontested), as drawn by the US Department of State","publisher":"US Department of State, Office of the Geographer and Global Issues (World Polygons, high-resolution layer DoS_WP_11_4)","source_url":"https://data.geodata.state.gov/WorldPolygons.zip","version_or_date":"World Polygons 11.4 BETA, 2025-02-24; read 2026-10-04","feature_id":"DoS_WP_11_4 fid 113","licence":"US government work, not subject to US copyright (17 U.S.C. § 105)","notes":"Natural Earth's polygon does not overlap DoS's.","input_sha256":"55fab422ef09e35eb48d68141b9ece0ace86d4276dfe332a04dfd401c0bfc80c","operation":"none (the source feature's geometry as published)","crs":"WGS84 longitude/latitude, as in the source (no reprojection)","source_features":[{"id":"DoS_WP_11_4 fid 113","WP_Name":"Glorioso Islands","WP_ID":"8299bbc4-5766-4de8-8e24-4437a4fdc696","Map_Label":null,"NOTES":"The French Southern and Antarctic Lands includes Île Amsterdam, Île Saint-Paul, Îles Crozet, and Îles Kerguelen in the southern Indian Ocean; the “Iles Eparses” (Bassas da India, Europa Island, Glorioso Islands, Juan de Nova Island and Trom","US_Recog":"Dependency or Area of Special Sovereignty","Show_Disp":null,"GENC_3":"XGL"}]},"geometry":{"type":"MultiPolygon","coordinates":[[[[47.29792240000006,-11.593140699999935],[47.29779000000008,-11.59305009999997],[47.29774560000004,-11.59290459999994],[47.29775110000003,-11.592739499999936],[47.29779080000003,-11.592646099999968],[47.29789470000003,-11.592617699999948],[47.297946600000046,-11.592637299999978],[47.29808010000005,-11.592803999999944],[47.29821430000004,-11.592892799999959],[47.29826030000004,-11.593020599999932],[47.29827170000004,-11.593136399999935],[47.29827220000004,-11.593363499999953],[47.29818240000003,-11.593356599999936],[47.298047000000054,-11.593276999999944],[47.29792240000006,-11.593140699999935]]],[[[47.29899540000008,-11.590107199999977],[47.298897700000055,-11.590059099999962],[47.29868830000004,-11.590025499999967],[47.29805940000006,-11.590006499999959],[47.29785190000007,-11.589970999999935],[47.297755100000074,-11.589921999999945],[47.297643900000025,-11.58983859999995],[47.297540800000036,-11.589793499999928],[47.29737090000003,-11.589741199999935],[47.297268400000064,-11.58969559999997],[47.29712150000006,-11.58958309999997],[47.29701860000006,-11.58953779999996],[47.296847900000046,-11.589486299999976],[47.29674470000003,-11.589441299999976],[47.296596900000054,-11.589329799999973],[47.29649400000005,-11.589284599999928],[47.29632460000005,-11.58923169999997],[47.29622440000003,-11.589183799999944],[47.29609060000007,-11.589058199999954],[47.295942600000046,-11.588946799999974],[47.29580900000008,-11.588820999999939],[47.29570890000008,-11.58877289999998],[47.29553960000004,-11.588719999999967],[47.29543620000004,-11.588675299999977],[47.29532440000003,-11.58859259999997],[47.295230100000026,-11.588544199999944],[47.295104500000036,-11.588514299999929],[47.29483110000007,-11.588476599999979],[47.294705700000065,-11.588446499999975],[47.29461190000006,-11.588397799999939],[47.29450050000003,-11.588314599999933],[47.29439720000005,-11.588269699999955],[47.29422670000008,-11.588217999999927],[47.294123400000046,-11.588173199999972],[47.294012000000066,-11.588089999999966],[47.29391810000004,-11.58804129999993],[47.29379270000004,-11.588011199999926],[47.29351920000005,-11.587973599999941],[47.293393500000036,-11.587943799999948],[47.29329910000007,-11.587895499999945],[47.29318710000007,-11.587813099999948],[47.29308340000006,-11.587768599999947],[47.292913800000065,-11.587715999999944],[47.29281350000008,-11.587668099999973],[47.29268030000003,-11.587541899999962],[47.29257060000003,-11.587457099999938],[47.29238110000006,-11.58725759999993],[47.29227110000005,-11.58717299999995],[47.29213740000006,-11.587047299999938],[47.29203670000004,-11.586999799999944],[47.29186660000005,-11.58694769999994],[47.29176320000005,-11.58690299999995],[47.29161450000004,-11.586792299999956],[47.29151110000004,-11.586747499999944],[47.291341300000056,-11.586695099999929],[47.291240800000026,-11.58664749999997],[47.291106600000035,-11.586522199999933],[47.29095830000006,-11.58641119999993],[47.290824100000066,-11.586285999999973],[47.29072350000007,-11.586238399999957],[47.29055310000007,-11.586186599999962],[47.29044860000005,-11.58614289999997],[47.29033510000005,-11.58606199999997],[47.290239400000075,-11.586014999999975],[47.290112400000055,-11.585986499999933],[47.28990730000004,-11.585958399999981],[47.28978020000005,-11.58592989999994],[47.289680400000066,-11.585874099999955],[47.28964550000006,-11.58582709999996],[47.28960500000005,-11.585703699999954],[47.289581600000076,-11.585399199999927],[47.28957970000005,-11.584991099999968],[47.289561700000036,-11.584681099999955],[47.289532000000065,-11.584546899999964],[47.28948120000007,-11.584450899999979],[47.28939550000007,-11.584342099999958],[47.28934810000004,-11.584241199999951],[47.28929130000006,-11.584075599999949],[47.28924070000005,-11.58397789999998],[47.28911110000007,-11.583848099999955],[47.28899650000005,-11.583703299999968],[47.28886810000006,-11.583572299999958],[47.288818400000025,-11.583473699999956],[47.288761700000066,-11.583307999999931],[47.28871150000003,-11.583209899999929],[47.288447000000076,-11.582955699999957],[47.28834590000008,-11.58290859999994],[47.288176100000044,-11.582856099999958],[47.28807530000006,-11.582808799999952],[47.28781120000008,-11.582554099999982],[47.28776000000005,-11.582457099999942],[47.28769740000007,-11.582297299999937],[47.28763790000005,-11.582208499999979],[47.287547000000075,-11.582151199999942],[47.287384100000054,-11.582091899999966],[47.28728490000003,-11.582042899999976],[47.28702090000007,-11.581788199999949],[47.286969200000044,-11.581691599999942],[47.28690610000007,-11.581532299999935],[47.28684670000007,-11.581443399999955],[47.28675690000006,-11.581384999999955],[47.286599600000045,-11.58132009999997],[47.286509600000045,-11.581261899999959],[47.28645010000008,-11.581173099999944],[47.286339000000055,-11.580913499999951],[47.28622310000003,-11.580769999999973],[47.286176100000034,-11.580668799999955],[47.28612190000007,-11.580500499999971],[47.28607550000004,-11.580398599999967],[47.28599030000004,-11.580289299999947],[47.28593990000007,-11.580196999999941],[47.28590770000005,-11.580073499999969],[47.285876200000075,-11.57987129999998],[47.285830100000055,-11.579683799999941],[47.285775400000034,-11.579595799999936],[47.285677700000065,-11.579498999999942],[47.285562500000026,-11.579354699999953],[47.28543190000005,-11.579225999999949],[47.28538080000004,-11.579128799999978],[47.28532330000007,-11.578963899999962],[47.28527550000007,-11.578863399999932],[47.28518920000005,-11.578755099999967],[47.28513790000005,-11.578659499999958],[47.28510740000007,-11.578525999999954],[47.28508700000003,-11.578217999999936],[47.28507760000008,-11.577733799999976],[47.28504430000004,-11.577436699999964],[47.28499980000004,-11.577315899999974],[47.28488960000004,-11.577165799999932],[47.28484830000008,-11.577053899999953],[47.284829900000034,-11.576924799999972],[47.28482870000005,-11.57679029999997],[47.28484480000003,-11.576660899999979],[47.284884000000034,-11.576548199999934],[47.28499140000008,-11.576395999999932],[47.28504540000006,-11.576206899999931],[47.28505880000006,-11.576059099999952],[47.28507680000007,-11.57551529999995],[47.28511300000008,-11.575310499999944],[47.28516270000006,-11.575214899999935],[47.28524730000004,-11.575105299999962],[47.285293300000035,-11.575003899999956],[47.28534630000007,-11.574836199999936],[47.28539200000006,-11.574734599999942],[47.28547630000003,-11.574624799999981],[47.28552560000003,-11.574531999999977],[47.28555600000004,-11.574408199999937],[47.28558400000003,-11.574205399999926],[47.28562640000007,-11.574016699999959],[47.28567920000006,-11.57392729999998],[47.28577510000008,-11.573828699999979],[47.285859800000026,-11.573719299999937],[47.286062300000026,-11.573532499999942],[47.28612000000004,-11.573460699999941],[47.286257800000044,-11.573338999999976],[47.28644470000006,-11.573136999999974],[47.28651690000004,-11.573079399999926],[47.28670430000005,-11.57287789999998],[47.28681400000005,-11.57279269999998],[47.28694680000007,-11.572666099999935],[47.28704700000003,-11.572617399999956],[47.287215400000036,-11.572561699999937],[47.28731540000007,-11.57251279999997],[47.28744780000005,-11.57238579999995],[47.28755710000007,-11.57230009999995],[47.287744700000076,-11.572098899999958],[47.28785390000007,-11.57201329999998],[47.28798630000006,-11.571886199999938],[47.288086400000054,-11.57183729999997],[47.28825470000004,-11.571781599999952],[47.288354800000036,-11.57173279999995],[47.28848750000003,-11.57160609999994],[47.28859700000004,-11.571520699999951],[47.288783600000045,-11.571318499999961],[47.288919400000054,-11.571194699999978],[47.28903960000008,-11.571055899999976],[47.28911110000007,-11.570997499999976],[47.28929620000008,-11.570793899999956],[47.28940550000004,-11.570708299999978],[47.289504100000045,-11.570612299999937],[47.28959620000006,-11.570559199999934],[47.28972610000005,-11.570527999999968],[47.290246600000046,-11.57048279999998],[47.290378400000066,-11.570453399999963],[47.29047440000005,-11.57040399999994],[47.290585100000044,-11.570319799999936],[47.29068750000005,-11.570273199999974],[47.29085520000007,-11.570216899999934],[47.290953900000034,-11.570166699999959],[47.291084400000045,-11.570037799999966],[47.291230400000074,-11.569923999999958],[47.29132880000003,-11.569827799999928],[47.29142040000005,-11.569774199999927],[47.291549700000076,-11.569742399999939],[47.29206860000005,-11.569695599999932],[47.29219990000007,-11.569665799999939],[47.292295600000045,-11.569616199999928],[47.29240610000005,-11.56953169999997],[47.292508600000076,-11.569485199999974],[47.29267770000007,-11.569430299999965],[47.29277940000003,-11.569382899999937],[47.29292380000004,-11.569267599999932],[47.29302540000003,-11.569220099999939],[47.29319440000006,-11.56916519999993],[47.29329690000003,-11.569118599999968],[47.29340720000005,-11.569033999999931],[47.29350270000003,-11.568984099999966],[47.29363390000003,-11.568954099999928],[47.29415350000005,-11.568907699999954],[47.29428490000004,-11.568877799999939],[47.29438070000003,-11.56882799999994],[47.29449130000006,-11.568743199999972],[47.29459380000003,-11.568695999999932],[47.29476180000006,-11.568638699999951],[47.29486090000006,-11.568587499999978],[47.294992000000036,-11.568456599999934],[47.29513790000004,-11.56834079999993],[47.29523380000006,-11.568244999999933],[47.29531650000007,-11.568196299999954],[47.29542440000006,-11.568174799999952],[47.29553740000006,-11.568179699999973],[47.295678000000066,-11.568236299999967],[47.295787000000075,-11.568319899999949],[47.29588970000003,-11.568366599999933],[47.29605980000008,-11.568421599999965],[47.296163000000035,-11.568468499999938],[47.29627450000004,-11.568553399999928],[47.29637160000004,-11.568603099999962],[47.296579500000064,-11.568639399999938],[47.29720700000007,-11.56866089999994],[47.297350100000074,-11.568679799999927],[47.29747210000005,-11.568719899999962],[47.29762720000008,-11.568824199999938],[47.29781450000007,-11.568876199999977],[47.29833080000003,-11.568918099999962],[47.29851850000006,-11.568969699999968],[47.29867390000004,-11.569073599999967],[47.29886200000004,-11.56912479999994],[47.299380900000074,-11.569164099999966],[47.29951260000007,-11.569191899999964],[47.29960920000008,-11.569239899999957],[47.299721300000044,-11.569322299999953],[47.29982490000003,-11.569366899999977],[47.29999440000006,-11.56941949999998],[47.30009480000007,-11.569467299999928],[47.30022850000006,-11.56959299999994],[47.30033890000004,-11.569677099999979],[47.30046330000005,-11.569812199999944],[47.30066570000008,-11.56999879999995],[47.300751200000036,-11.57010779999996],[47.30087940000004,-11.570238999999958],[47.30099250000006,-11.570496599999956],[47.30105210000005,-11.570585299999948],[47.30114310000005,-11.57064239999994],[47.30140680000005,-11.570749099999944],[47.30154230000005,-11.57087299999995],[47.30172010000007,-11.571019299999932],[47.30180720000004,-11.571126899999967],[47.30193550000007,-11.571257899999978],[47.30198450000006,-11.571357199999966],[47.302039000000036,-11.57152519999994],[47.302085300000044,-11.571627099999944],[47.30219950000003,-11.571772299999964],[47.30230900000004,-11.572033499999975],[47.302368700000045,-11.572121999999979],[47.302460100000076,-11.57217879999996],[47.30262410000006,-11.572237099999938],[47.30272450000007,-11.572284899999943],[47.30286010000003,-11.57240859999996],[47.30303790000005,-11.572554999999966],[47.30312470000007,-11.572662699999967],[47.303252900000075,-11.57279399999993],[47.30330200000003,-11.57289309999993],[47.30335790000004,-11.573059599999965],[47.30340710000007,-11.573158699999965],[47.303534900000045,-11.57329029999994],[47.303620900000055,-11.57339879999995],[47.30382460000004,-11.57358419999997],[47.30395000000004,-11.573718199999973],[47.30406140000008,-11.573801299999957],[47.304196700000034,-11.57392539999995],[47.30429790000005,-11.573972399999946],[47.30446740000008,-11.57402499999995],[47.30456850000007,-11.574072099999967],[47.30470350000007,-11.574196499999971],[47.304814400000055,-11.57427999999993],[47.305004600000075,-11.574478899999974],[47.30507750000004,-11.574535799999978],[47.305266000000074,-11.57473639999995],[47.30533880000007,-11.574793199999931],[47.305529000000035,-11.574992099999974],[47.305639900000074,-11.575075599999934],[47.305774900000074,-11.575200099999961],[47.30587600000007,-11.575247099999956],[47.30604550000004,-11.575299799999982],[47.306146600000034,-11.575346799999977],[47.30628180000008,-11.575470999999936],[47.30639310000004,-11.575554299999965],[47.30651810000006,-11.575688699999944],[47.30672080000005,-11.57587499999994],[47.30680620000004,-11.575984099999971],[47.30693390000005,-11.576115899999934],[47.30698400000006,-11.576213999999936],[47.30704550000007,-11.576374899999962],[47.30710440000007,-11.576464299999941],[47.30724810000004,-11.576542899999936],[47.30746160000007,-11.576625699999965],[47.30757390000008,-11.576707799999951],[47.30766900000003,-11.576755399999968],[47.30779570000004,-11.576784199999963],[47.30800270000003,-11.576810499999965],[47.308195100000034,-11.57685129999993],[47.30828630000008,-11.57690279999997],[47.30838710000006,-11.57699649999995],[47.308498900000075,-11.577079199999957],[47.308624500000064,-11.577212999999972],[47.308829100000025,-11.577397499999961],[47.30891520000006,-11.577505899999949],[47.30901200000005,-11.57760369999994],[47.309065600000054,-11.577694699999938],[47.30909710000003,-11.577822899999944],[47.309142800000075,-11.578336499999978],[47.30917260000007,-11.578466399999968],[47.30922270000008,-11.57856099999998],[47.30930820000003,-11.578670099999954],[47.30935560000006,-11.57877099999996],[47.30941290000004,-11.57893619999993],[47.30946410000007,-11.579033399999958],[47.309595700000045,-11.579161499999941],[47.30971240000008,-11.579304799999932],[47.30981140000006,-11.57940119999995],[47.309867600000075,-11.57949259999998],[47.309911000000056,-11.579696999999953],[47.30992690000005,-11.580011699999943],[47.309924600000045,-11.580415499999958],[47.30989450000004,-11.580712999999946],[47.30985210000006,-11.58083449999998],[47.30974470000007,-11.580987199999981],[47.30969120000003,-11.581171899999958],[47.309649000000036,-11.581681799999956],[47.309597100000076,-11.58186749999993],[47.30949190000007,-11.582020899999975],[47.30943810000008,-11.58219859999997],[47.30940940000005,-11.58240079999996],[47.309366100000034,-11.582588699999974],[47.30931280000004,-11.582677499999932],[47.30921610000007,-11.58277529999998],[47.30913060000006,-11.582883999999979],[47.30892780000005,-11.583070499999963],[47.30884180000004,-11.583178699999962],[47.308714200000054,-11.58331039999996],[47.30866610000004,-11.583409699999947],[47.308613500000035,-11.583577599999956],[47.308568500000035,-11.583679999999958],[47.308457100000055,-11.583827299999939],[47.30841230000004,-11.583929799999964],[47.30836000000005,-11.584098099999949],[47.30831170000005,-11.584197299999971],[47.30805060000006,-11.584454899999969],[47.30795000000006,-11.584503299999938],[47.307780500000035,-11.584557899999936],[47.30768000000006,-11.584606399999927],[47.30741940000007,-11.58486449999998],[47.30737090000008,-11.584963399999936],[47.307317100000034,-11.58513019999998],[47.30726930000003,-11.585229899999945],[47.30714380000006,-11.585363599999937],[47.30703290000008,-11.585511499999939],[47.306907300000034,-11.585645099999965],[47.30685950000003,-11.585744699999964],[47.30680590000003,-11.58591169999994],[47.30675820000005,-11.586011399999961],[47.30663220000008,-11.586144699999977],[47.30648250000007,-11.586318799999958],[47.306372700000054,-11.586403899999937],[47.30623900000006,-11.586529599999949],[47.30613820000008,-11.58657779999993],[47.30596890000004,-11.586632599999973],[47.305868100000055,-11.586680799999954],[47.30555990000005,-11.586956699999973],[47.30547530000007,-11.587066199999981],[47.30534990000007,-11.587199999999939],[47.30530260000006,-11.587300099999936],[47.30524980000007,-11.587467899999979],[47.305202500000064,-11.587567999999976],[47.30507710000006,-11.587701799999934],[47.30499260000005,-11.587811399999964],[47.304684800000075,-11.58808769999996],[47.30458420000008,-11.588136099999929],[47.30441530000007,-11.588191199999926],[47.30431480000004,-11.58823979999994],[47.30418180000004,-11.588366199999939],[47.304072200000064,-11.588451499999962],[47.303885500000035,-11.58865359999993],[47.303749700000026,-11.588777299999947],[47.303629400000034,-11.588916099999949],[47.303558000000066,-11.588974599999972],[47.303372900000056,-11.589178199999935],[47.30326360000004,-11.58926379999997],[47.30316510000006,-11.589359799999954],[47.30307310000006,-11.589412999999979],[47.30294330000004,-11.589444399999934],[47.30242350000003,-11.589490399999931],[47.30229220000007,-11.589520299999947],[47.30219680000005,-11.589570099999946],[47.30208690000006,-11.589655199999982],[47.30198500000006,-11.589702199999977],[47.301816400000064,-11.58975769999995],[47.30171470000005,-11.589805099999978],[47.30160630000006,-11.589891499999965],[47.30151110000003,-11.589943699999935],[47.30130370000006,-11.589984499999957],[47.301148100000034,-11.589994899999965],[47.30065640000004,-11.59000199999997],[47.30047760000008,-11.59001429999995],[47.30029600000006,-11.590050799999972],[47.30015260000005,-11.590113499999973],[47.30010650000003,-11.590153799999939],[47.30007530000006,-11.590258499999948],[47.29957070000006,-11.590264099999956],[47.29929110000006,-11.590246399999955],[47.29910720000004,-11.590189899999928],[47.29899540000008,-11.590107199999977]]],[[[47.33105610000007,-11.571407299999976],[47.331042800000034,-11.571319599999981],[47.33107220000005,-11.571266399999956],[47.33118600000006,-11.571215699999982],[47.33142120000008,-11.57115269999997],[47.331488000000036,-11.57110709999995],[47.33155930000004,-11.571027399999934],[47.33167590000005,-11.570986999999946],[47.331730900000025,-11.571010299999955],[47.331767600000035,-11.571073699999943],[47.331782100000055,-11.571257899999978],[47.331761200000074,-11.571351299999947],[47.331706600000075,-11.57143659999997],[47.33159990000007,-11.571546599999976],[47.33153530000004,-11.571658299999967],[47.331519600000036,-11.57172369999995],[47.331385400000045,-11.571686199999931],[47.331199800000036,-11.571522199999947],[47.33105610000007,-11.571407299999976]]],[[[47.377363700000046,-11.524667499999964],[47.37741070000004,-11.524524699999972],[47.37754240000004,-11.524431099999958],[47.37767430000008,-11.524260399999946],[47.37778160000005,-11.52423639999995],[47.37785040000006,-11.524283099999934],[47.377887300000054,-11.524438299999929],[47.37789330000004,-11.524674199999936],[47.37788950000004,-11.524986599999977],[47.37765370000005,-11.524992699999927],[47.37753420000007,-11.524983599999928],[47.37743850000004,-11.524957299999926],[47.37738890000003,-11.524906499999929],[47.37736730000006,-11.524833999999942],[47.377363700000046,-11.524667499999964]]],[[[47.37955400000004,-11.515122799999972],[47.37936180000003,-11.515345599999932],[47.37915250000003,-11.515534999999943],[47.37906350000003,-11.515644599999973],[47.378932700000064,-11.515776999999957],[47.37888300000003,-11.515876299999945],[47.37882860000008,-11.516043899999943],[47.37878310000008,-11.51614619999998],[47.37869970000003,-11.51625729999995],[47.378651200000036,-11.516352999999981],[47.378623600000026,-11.516483599999958],[47.378586100000064,-11.516997599999968],[47.378556400000036,-11.517125999999962],[47.37850380000003,-11.517217399999936],[47.37840780000005,-11.517315899999971],[47.37832240000006,-11.517424699999935],[47.378119800000036,-11.517611199999976],[47.37803400000007,-11.517719599999964],[47.377906600000074,-11.51785149999995],[47.37785850000006,-11.517950699999972],[47.377804800000035,-11.518117599999925],[47.377757200000076,-11.518217399999969],[47.377631000000065,-11.518350399999974],[47.37754660000007,-11.51846009999997],[47.377344900000026,-11.518647499999929],[47.37722290000005,-11.51878469999997],[47.37711390000004,-11.518873299999939],[47.37696880000004,-11.519056499999976],[47.37685440000007,-11.519183899999973],[47.37679730000008,-11.519329699999957],[47.37668960000008,-11.519334199999946],[47.37655140000004,-11.51931849999994],[47.37641640000004,-11.519264799999974],[47.37632060000004,-11.51914759999994],[47.37628470000004,-11.518999699999938],[47.37626910000006,-11.51852839999998],[47.37625950000006,-11.518375699999979],[47.37622040000008,-11.518171399999972],[47.37616940000004,-11.51807649999995],[47.37608400000005,-11.517967399999975],[47.376037600000075,-11.51786549999997],[47.37598230000003,-11.517698399999972],[47.37593220000008,-11.517600199999947],[47.375701700000036,-11.517376899999931],[47.37561160000007,-11.51732439999995],[47.37542030000003,-11.517282499999965],[47.37521470000007,-11.517254799999932],[47.37503430000004,-11.517201899999975],[47.374878900000056,-11.517097699999965],[47.374690100000066,-11.517046899999968],[47.374542500000075,-11.517034699999954],[47.37414450000006,-11.517031999999972],[47.373651100000075,-11.517040899999927],[47.373250100000064,-11.517038599999978],[47.37310740000004,-11.517025699999976],[47.37299290000004,-11.516995599999973],[47.37292460000003,-11.516911199999981],[47.37295610000007,-11.516817299999957],[47.37317500000006,-11.51660359999994],[47.37327760000005,-11.516553599999952],[47.373451500000044,-11.516497399999935],[47.37355670000005,-11.516450299999974],[47.37370670000007,-11.516336399999943],[47.373810700000035,-11.516289899999947],[47.37398250000007,-11.51623619999998],[47.37408570000008,-11.51618979999995],[47.37423250000006,-11.516076099999964],[47.37433500000003,-11.51602939999998],[47.37450370000005,-11.515973899999949],[47.37460320000008,-11.51592439999996],[47.374735000000044,-11.515796699999953],[47.37488110000004,-11.515682999999967],[47.375012500000025,-11.51555499999995],[47.37511170000005,-11.515505299999973],[47.375279900000066,-11.515449499999932],[47.37538250000006,-11.515402999999935],[47.37549270000005,-11.515318399999956],[47.37558590000003,-11.515268299999946],[47.37571070000007,-11.515236099999981],[47.375982900000054,-11.515193499999953],[47.376162100000045,-11.515137299999935],[47.376314800000046,-11.515029699999957],[47.37649340000007,-11.514972499999942],[47.376828800000055,-11.514912999999979],[47.376942900000074,-11.514869199999964],[47.37709580000006,-11.514759999999967],[47.37728270000008,-11.514704499999937],[47.37742790000004,-11.514690299999927],[47.377653800000076,-11.514688999999976],[47.37779920000003,-11.514701599999967],[47.37798680000003,-11.51475499999998],[47.37814250000008,-11.514861799999949],[47.378266600000075,-11.514903499999946],[47.378412800000035,-11.514923199999942],[47.378571100000045,-11.51493069999998],[47.37906970000006,-11.514930499999934],[47.37937800000003,-11.514945299999965],[47.37949630000003,-11.514974699999982],[47.37956530000008,-11.515058499999952],[47.37955400000004,-11.515122799999972]]]]}}]}
