{"type":"FeatureCollection","features":[{"type":"Feature","properties":{"place":"halaib-triangle","region":"EG","donors":"SD","rank":2,"whose_line":"the political boundary, which Egypt asserts, and the administrative boundary, which Sudan asserts, as drawn by the US Department of State (LSIB 'International Boundary' and 'Administrative Boundary')","publisher":"US Department of State, Office of the Geographer and Global Issues (World Polygons, high-resolution layer DoS_WP_11_4)","source_url":"https://data.geodata.state.gov/WorldPolygons.zip","version_or_date":"World Polygons 11.4 BETA, 2025-02-24; read 2026-10-04","feature_id":"DoS_WP_11_4 fid 125","licence":"US government work, not subject to US copyright (17 U.S.C. § 105)","notes":"Rank 2 read as for Bir Tawil. HDX COD-AB Egypt (CAPMAS) has a markaz 'Halayib' (7,544 km²), not the triangle. OSM relation 4081614 agrees closely.","input_sha256":"55fab422ef09e35eb48d68141b9ece0ace86d4276dfe332a04dfd401c0bfc80c","operation":"none (the source feature's geometry as published)","crs":"WGS84 longitude/latitude, as in the source (no reprojection)","source_features":[{"id":"DoS_WP_11_4 fid 125","WP_Name":"Hala'ib Triangle","WP_ID":"5e5abf17-541f-465d-869e-4db3d1dc0f21","Map_Label":"Hala'ib Triangle","NOTES":null,"US_Recog":null,"Show_Disp":null,"GENC_3":"SDN"}]},"geometry":{"type":"MultiPolygon","coordinates":[[[[35.62393380000003,23.143018700000027],[35.62587550000006,23.141481400000032],[35.62527280000006,23.13794900000005],[35.62570380000005,23.13626670000008],[35.62568470000008,23.135171900000046],[35.62570380000005,23.134000800000024],[35.62626080000007,23.132383300000072],[35.62624550000004,23.131593700000053],[35.62655070000005,23.129484200000036],[35.626527800000076,23.128225300000054],[35.62686350000007,23.125932700000078],[35.627737000000025,23.122903800000074],[35.628755600000034,23.121564900000067],[35.629324000000054,23.120695100000034],[35.63007550000003,23.119974100000036],[35.63153650000004,23.119619400000033],[35.633363700000075,23.119150200000036],[35.63527490000007,23.117700600000035],[35.63569450000006,23.11683460000006],[35.63599970000007,23.11624340000003],[35.63704110000003,23.115243900000053],[35.63847160000006,23.113199200000054],[35.63747220000005,23.112241700000027],[35.63595770000006,23.11174580000005],[35.63486670000003,23.11211970000005],[35.634000800000024,23.11239050000006],[35.632967000000065,23.11131860000006],[35.632368100000065,23.109739300000058],[35.633199700000034,23.108511000000078],[35.633470500000044,23.10794640000006],[35.63433270000007,23.106813400000078],[35.63485910000003,23.10572620000005],[35.63674740000005,23.103387800000064],[35.63841820000005,23.10257910000007],[35.638761500000044,23.101518600000077],[35.64207650000003,23.09991260000004],[35.64319420000004,23.098501200000044],[35.64401440000006,23.097715400000027],[35.644304300000044,23.097112700000025],[35.64489560000004,23.09624290000005],[35.64541440000005,23.09517100000005],[35.64571190000004,23.09459880000003],[35.64568520000006,23.093229300000075],[35.64570050000003,23.092363400000067],[35.64843940000003,23.089731200000074],[35.64926340000005,23.087190600000042],[35.64959140000008,23.086561200000062],[35.64927860000006,23.08595470000006],[35.64932440000007,23.08370400000007],[35.64988140000003,23.082071300000052],[35.64985470000005,23.080720900000074],[35.65118600000005,23.079439200000024],[35.65185740000004,23.076025000000072],[35.65292550000004,23.074621200000024],[35.653192500000046,23.073225000000036],[35.65347860000003,23.072118800000055],[35.653821900000025,23.07001690000004],[35.65662960000003,23.067316100000028],[35.657083500000056,23.066824000000054],[35.65596960000005,23.06628610000007],[35.65542410000006,23.065851200000054],[35.65625570000003,23.064619100000073],[35.65711780000004,23.063303000000076],[35.658201200000065,23.062952000000053],[35.65819360000006,23.062669800000037],[35.65868190000003,23.06171990000007],[35.66208080000007,23.06215480000003],[35.66237830000006,23.060937900000056],[35.66235160000008,23.059618000000057],[35.66237830000006,23.058366800000044],[35.662359200000026,23.057661100000075],[35.66038320000007,23.057020200000068],[35.660436600000025,23.054369000000065],[35.66013910000004,23.053785300000072],[35.660432800000024,23.05321310000005],[35.661283500000025,23.053232200000025],[35.66208460000007,23.054067600000053],[35.662359200000026,23.053628900000035],[35.66144370000006,23.052274700000055],[35.66204260000006,23.051118900000063],[35.661527600000056,23.04961970000005],[35.66094020000003,23.047811500000023],[35.66098210000007,23.04572870000004],[35.66096310000006,23.04475590000004],[35.66098210000007,23.043790800000068],[35.66082570000003,23.04350850000003],[35.660173400000076,23.044855100000063],[35.65973850000006,23.048860500000046],[35.66014670000004,23.050451300000077],[35.65986060000006,23.051279100000045],[35.65958980000005,23.052118300000075],[35.65892220000006,23.053102500000023],[35.657365800000036,23.054601700000035],[35.656812700000046,23.058229400000073],[35.65640070000006,23.059839200000056],[35.65532490000004,23.059286100000065],[35.65486720000007,23.057363500000065],[35.65542410000006,23.056287800000064],[35.655729300000075,23.05191990000003],[35.65653800000007,23.05072210000003],[35.65651890000004,23.049692200000038],[35.656843200000026,23.047136300000034],[35.65729710000005,23.04656410000007],[35.65775110000004,23.048410400000023],[35.65820880000007,23.047929800000077],[35.658166900000026,23.045801200000028],[35.658765800000026,23.043466600000045],[35.65874670000005,23.04253200000005],[35.658765800000026,23.04158970000003],[35.65846820000007,23.040716200000077],[35.658514000000025,23.038290000000075],[35.65931130000007,23.037118900000053],[35.65958210000008,23.036001200000044],[35.65986820000006,23.035173400000076],[35.65985680000006,23.034616500000027],[35.659902600000066,23.03229330000005],[35.66042520000008,23.031286200000068],[35.66069220000003,23.029611600000067],[35.66097830000007,23.029066100000023],[35.661329300000034,23.028333700000076],[35.66208080000007,23.022947300000055],[35.66318700000005,23.022222500000055],[35.66346930000003,23.019586600000025],[35.66291240000004,23.018499400000053],[35.66293140000005,23.017412200000024],[35.66263770000006,23.01684380000006],[35.662324900000044,23.016191500000048],[35.66238590000006,23.01323130000003],[35.66110800000007,23.012815500000045],[35.659833900000024,23.010671600000023],[35.65987210000003,23.00878330000006],[35.65985680000006,23.007951700000035],[35.65986820000006,23.00725360000007],[35.65984540000005,23.006227500000023],[35.65900990000006,23.004602400000067],[35.65905950000007,23.002199200000064],[35.65999030000006,23.000829700000054],[35.661535300000025,23.000452000000053],[35.66239360000003,22.999002500000074],[35.66291620000004,22.997392700000034],[35.66320230000008,22.996564900000067],[35.66374780000007,22.994611700000064],[35.66403390000005,22.994062400000075],[35.66489980000006,22.992021600000044],[35.66556360000004,22.990732200000025],[35.66597180000008,22.989889100000028],[35.66639520000007,22.989065200000027],[35.667211500000064,22.987382900000057],[35.66819190000007,22.985483200000033],[35.66847800000005,22.984304400000042],[35.669035000000065,22.983232500000042],[35.66957660000003,22.98210720000003],[35.670167900000024,22.980966600000045],[35.67070200000006,22.980451600000038],[35.67208290000008,22.978223800000023],[35.67292210000005,22.977121400000044],[35.673193000000026,22.976278300000047],[35.673761400000046,22.97573660000006],[35.673193000000026,22.97489740000003],[35.673227300000065,22.973264700000072],[35.67257500000005,22.972303400000044],[35.67299460000004,22.971078900000066],[35.67347150000006,22.968984600000056],[35.67288780000007,22.96795460000004],[35.67181210000007,22.968507800000054],[35.671182600000066,22.968812900000046],[35.66897770000003,22.96876720000006],[35.66787910000005,22.96820260000004],[35.66695590000006,22.96724130000007],[35.666536300000075,22.96844290000007],[35.66792490000006,22.968778600000064],[35.66928670000004,22.969705600000054],[35.66958050000005,22.97212030000003],[35.66987800000004,22.97268870000005],[35.66984370000006,22.974378600000023],[35.667573900000036,22.975477200000057],[35.665418600000066,22.975435300000072],[35.66444590000003,22.975454300000024],[35.66382790000006,22.975442900000075],[35.66228680000006,22.974275600000055],[35.66153910000003,22.973497400000042],[35.66071130000006,22.972700100000054],[35.65983010000008,22.97121620000007],[35.65987970000003,22.96864510000006],[35.659833900000024,22.966421100000048],[35.65991780000007,22.962587400000075],[35.66140560000008,22.961153000000024],[35.66216090000006,22.960367200000064],[35.66206930000004,22.955877300000054],[35.66376690000004,22.95337490000003],[35.66586110000003,22.951711700000033],[35.66518210000004,22.951059300000054],[35.66669650000006,22.95068930000008],[35.66853900000007,22.94957160000007],[35.670381500000076,22.948679000000027],[35.67069440000006,22.947389600000065],[35.67101100000008,22.946775400000035],[35.671953200000075,22.945871400000044],[35.672613100000035,22.94518850000003],[35.67398640000005,22.944284400000072],[35.67740820000006,22.944353100000058],[35.67826650000006,22.945249600000068],[35.67817880000007,22.94953730000003],[35.67666440000005,22.95002560000006],[35.67616460000005,22.951566700000058],[35.67541690000007,22.952669100000037],[35.67498210000008,22.95356940000005],[35.67435260000008,22.95614050000006],[35.672910700000045,22.958040200000028],[35.67292210000005,22.95854380000003],[35.67529110000004,22.958494200000075],[35.67569160000005,22.959375400000056],[35.673475300000064,22.959329600000046],[35.672910700000045,22.959341100000074],[35.67293360000008,22.960351900000035],[35.67107580000004,22.962797200000068],[35.67070200000006,22.964342100000067],[35.670137400000044,22.965169900000035],[35.66975210000004,22.965967200000023],[35.67014890000007,22.96713070000004],[35.67154880000004,22.967104000000063],[35.67210200000005,22.965963400000078],[35.67292210000005,22.965173700000037],[35.67392540000003,22.964128500000072],[35.67441750000006,22.963785200000075],[35.676267600000074,22.96490670000003],[35.67624090000004,22.966142700000034],[35.676271400000076,22.967577000000063],[35.67739300000005,22.966814000000056],[35.67854500000004,22.965059300000064],[35.67970090000006,22.965654400000062],[35.68013570000005,22.966562300000078],[35.680719400000044,22.966836900000033],[35.680692700000066,22.965684900000042],[35.68013570000005,22.96406360000003],[35.67974280000004,22.962842900000055],[35.680551500000036,22.961652800000024],[35.68013570000005,22.960451100000057],[35.679777100000024,22.959333400000048],[35.67898750000006,22.958166100000028],[35.678472500000055,22.957674000000054],[35.678201700000045,22.957368900000063],[35.679796200000055,22.955015200000048],[35.68088720000003,22.954618500000038],[35.68124960000006,22.955732300000022],[35.681642500000066,22.955720900000074],[35.68358420000004,22.95425220000004],[35.684583700000076,22.951559100000054],[35.68515590000004,22.951280600000075],[35.685136800000066,22.95044900000005],[35.685464900000056,22.947908400000074],[35.687330200000076,22.94668390000004],[35.68766210000007,22.945646300000078],[35.68819240000005,22.94239230000005],[35.688680600000055,22.940031100000056],[35.68903540000008,22.939340600000037],[35.689577100000065,22.938219100000026],[35.69082830000008,22.936376600000074],[35.69211390000004,22.935533500000076],[35.693750400000056,22.93322560000007],[35.69542500000006,22.931284000000062],[35.695970500000044,22.930444700000066],[35.69652750000006,22.92991070000005],[35.69680600000004,22.929056200000048],[35.69820210000006,22.927396800000054],[35.698469200000034,22.926000600000066],[35.69958310000004,22.925462700000026],[35.699998900000026,22.924612000000025],[35.70070460000005,22.923234900000068],[35.701532400000076,22.92152980000003],[35.703798300000074,22.92043110000003],[35.70512960000008,22.91904640000007],[35.70709040000003,22.918092700000045],[35.70836450000007,22.91743660000003],[35.70930290000007,22.91600230000006],[35.71070290000006,22.91406440000003],[35.710969900000066,22.913225200000056],[35.71125600000005,22.912672000000043],[35.711248400000045,22.912290600000063],[35.709848400000055,22.911836600000072],[35.708761200000026,22.910707500000058],[35.707880000000046,22.91218760000004],[35.70820050000003,22.91406820000003],[35.70746800000006,22.914053000000024],[35.70686150000006,22.910932500000058],[35.70514490000005,22.911287300000026],[35.703687700000046,22.91155820000006],[35.703203200000075,22.910940200000027],[35.70489310000005,22.90931130000007],[35.70625880000006,22.90934180000005],[35.706834800000024,22.909044300000062],[35.706796600000075,22.907133100000067],[35.707105600000034,22.906530400000065],[35.70821570000004,22.906007800000054],[35.709005400000024,22.906827900000053],[35.709520300000065,22.907114000000036],[35.70985980000006,22.905721700000072],[35.711278900000025,22.906206100000077],[35.71124460000004,22.90461540000007],[35.71127130000008,22.903272600000037],[35.71090890000005,22.902216000000067],[35.711565000000064,22.900941800000055],[35.712636900000064,22.898222000000032],[35.71360210000006,22.896955500000047],[35.71487240000005,22.89573480000007],[35.71604350000007,22.894514100000038],[35.71694370000006,22.892664000000025],[35.71750830000008,22.891565300000025],[35.71818730000007,22.890161500000033],[35.719183000000044,22.889211700000033],[35.719862000000035,22.88850210000004],[35.72075840000008,22.887914700000067],[35.722024900000065,22.88659480000007],[35.722921400000075,22.88795280000005],[35.72374920000004,22.887388200000032],[35.725927400000046,22.88703730000003],[35.72625920000007,22.884008400000027],[35.72764780000006,22.88267330000008],[35.728193300000044,22.881834000000026],[35.72865100000007,22.881399200000033],[35.72902870000007,22.881948500000078],[35.72710230000007,22.88448520000003],[35.72680470000006,22.886327700000038],[35.726182900000026,22.888135900000066],[35.72448540000005,22.88895990000003],[35.723878900000045,22.890214900000046],[35.72418790000006,22.891279200000042],[35.72557260000008,22.890340800000047],[35.72680470000006,22.889055300000052],[35.72793770000004,22.887968100000023],[35.72902870000007,22.88683510000004],[35.729314800000054,22.886564300000032],[35.730215100000066,22.88503840000004],[35.73010830000004,22.879632900000047],[35.730814000000066,22.878953900000056],[35.73267560000005,22.87850000000003],[35.73374750000005,22.87794690000004],[35.73525810000007,22.877576800000043],[35.73826410000004,22.874223700000073],[35.738748600000065,22.87322430000006],[35.73963740000005,22.87205700000004],[35.74051860000003,22.868024800000057],[35.74271580000004,22.866285300000072],[35.744592700000055,22.865175200000067],[35.74512670000007,22.864618300000075],[35.74628260000003,22.864332200000035],[35.74787330000004,22.86268430000007],[35.749265700000024,22.862005200000056],[35.749883700000055,22.85981940000005],[35.750719100000026,22.858190500000035],[35.75124930000004,22.856557800000076],[35.751825300000064,22.85570720000004],[35.75237850000008,22.85400960000004],[35.75354190000007,22.85289190000003],[35.755147900000054,22.851839100000063],[35.756010100000026,22.85125540000007],[35.756803500000046,22.84961130000005],[35.75789830000008,22.848001500000066],[35.75821110000004,22.847356800000057],[35.760328300000026,22.847398800000065],[35.76069450000006,22.84950070000008],[35.75985910000003,22.851556800000026],[35.75959210000008,22.852396000000056],[35.75930600000004,22.853223800000023],[35.75931740000004,22.853780700000073],[35.75930210000007,22.85465810000005],[35.758741400000076,22.855745300000024],[35.75875660000003,22.85669900000005],[35.75872610000005,22.85833930000007],[35.75819210000003,22.859888100000035],[35.757890700000075,22.86082650000003],[35.75630760000007,22.86473660000007],[35.75469020000003,22.86552240000003],[35.751985500000046,22.867704400000036],[35.75093270000008,22.86912730000006],[35.750391000000036,22.870241200000066],[35.750425300000074,22.871942500000046],[35.751600300000064,22.872713100000055],[35.75404170000007,22.872663500000044],[35.75509830000004,22.873765900000024],[35.75570110000007,22.87405590000003],[35.756528900000035,22.874620400000026],[35.757368100000065,22.87489130000006],[35.75819210000003,22.875314700000047],[35.759038900000064,22.87572670000003],[35.75902750000006,22.876337100000057],[35.75781060000003,22.876833000000033],[35.755979500000024,22.875722900000028],[35.75513650000005,22.875452000000053],[35.75325970000006,22.873872800000072],[35.75193980000006,22.873506500000076],[35.75238230000008,22.874368700000048],[35.75233270000007,22.87679860000003],[35.752924000000064,22.87766840000006],[35.75348470000006,22.878824200000054],[35.75346570000005,22.87961770000004],[35.75434300000006,22.879900000000077],[35.75516700000003,22.880758300000025],[35.75513270000005,22.882303200000024],[35.75402260000004,22.881551700000045],[35.753480900000056,22.88323020000007],[35.75214960000005,22.88675120000005],[35.75451470000007,22.890787100000068],[35.75402640000004,22.892667800000027],[35.75348470000006,22.89601330000005],[35.75291630000004,22.897111900000027],[35.752107600000045,22.898775100000023],[35.751100500000064,22.899744000000055],[35.75001720000006,22.900877000000037],[35.749006300000076,22.90184590000007],[35.74631690000007,22.901792500000056],[35.745145800000046,22.902395200000058],[35.74420740000005,22.90284920000005],[35.74152570000007,22.903223000000025],[35.73991970000003,22.90405080000005],[35.73836330000006,22.904356000000064],[35.73731800000007,22.90595440000004],[35.73597150000006,22.906835600000022],[35.73514750000004,22.907396300000073],[35.73309900000004,22.90779690000005],[35.73141670000007,22.906660100000067],[35.73018460000003,22.907945600000062],[35.72813220000006,22.908281300000056],[35.72711750000008,22.909334200000046],[35.72549630000003,22.909612700000025],[35.72450450000008,22.908090600000037],[35.72278400000005,22.909254100000055],[35.719862000000035,22.909612700000025],[35.718980800000054,22.90991400000007],[35.71730230000003,22.911050800000055],[35.715707800000075,22.914346700000067],[35.714521400000024,22.916097600000057],[35.71500590000005,22.91752820000005],[35.715498000000025,22.919035000000065],[35.717645600000026,22.919336300000055],[35.71791650000006,22.92072870000004],[35.71842770000006,22.92172050000005],[35.72018620000006,22.921266600000024],[35.72291760000007,22.922674200000074],[35.72350880000005,22.922945000000027],[35.723470700000064,22.92094990000004],[35.72160910000008,22.919160800000043],[35.72216220000007,22.918088900000043],[35.72517200000004,22.91767310000006],[35.72628210000005,22.918245300000024],[35.72812460000006,22.91820720000004],[35.72984120000007,22.918561900000043],[35.730150200000026,22.92137340000005],[35.73013110000005,22.922376600000064],[35.73072240000005,22.923528700000077],[35.732118600000035,22.923502000000042],[35.73347280000007,22.922803900000076],[35.73431210000007,22.92239570000004],[35.73541450000005,22.921556500000065],[35.73964500000005,22.92128180000003],[35.743253700000025,22.920045900000048],[35.746248200000025,22.918500900000026],[35.74820140000003,22.91767310000006],[35.74902530000003,22.91724970000007],[35.749868400000025,22.916841500000032],[35.751527800000076,22.915445300000044],[35.75264550000003,22.914617500000077],[35.753747900000064,22.913778300000047],[35.75509450000004,22.912782700000037],[35.756803500000046,22.911001200000044],[35.757574100000056,22.910265000000038],[35.75874900000008,22.908781100000056],[35.75905800000004,22.908483500000045],[35.760137600000064,22.906835600000022],[35.76181600000007,22.904623000000072],[35.76294900000005,22.902895000000058],[35.76291080000004,22.900995300000034],[35.76347920000006,22.90100670000004],[35.76402850000005,22.900434500000074],[35.76486780000005,22.90045360000005],[35.76569560000007,22.89988900000003],[35.766534800000045,22.89933970000004],[35.76684000000006,22.899023100000022],[35.76735880000007,22.897947300000055],[35.768178900000066,22.897962600000028],[35.76901440000006,22.89753150000007],[35.77041440000005,22.89516640000005],[35.77098660000007,22.894624700000065],[35.772028000000034,22.893541300000038],[35.77344700000003,22.892610500000046],[35.773748400000045,22.89072230000005],[35.77459140000008,22.88850590000004],[35.77486230000005,22.887388200000032],[35.77609060000003,22.884645500000033],[35.77653690000005,22.88378720000003],[35.77702900000003,22.88275720000007],[35.77820400000007,22.880731600000047],[35.778471000000025,22.87988850000005],[35.779546700000026,22.877805700000067],[35.77985950000004,22.876833000000033],[35.780286800000056,22.875593200000026],[35.78069500000004,22.874334300000044],[35.78180500000008,22.87160300000005],[35.782636600000046,22.86766620000003],[35.78347970000004,22.865728400000023],[35.78375050000005,22.864889100000028],[35.784036600000036,22.864061400000026],[35.784303700000066,22.86294360000005],[35.78486820000006,22.861562700000036],[35.78541760000007,22.86016660000007],[35.785703700000056,22.85961720000006],[35.785970700000064,22.857389400000045],[35.786272000000054,22.856218300000023],[35.78706550000004,22.854681000000028],[35.786527600000056,22.851007500000037],[35.786554300000034,22.849905000000035],[35.78583340000006,22.848508800000047],[35.78542520000008,22.847665800000073],[35.78513910000004,22.84712030000003],[35.78486820000006,22.84627720000003],[35.78442570000004,22.844987900000035],[35.783433900000034,22.844034200000067],[35.78197290000003,22.844064700000047],[35.779909100000054,22.845632600000044],[35.779592500000035,22.848238000000038],[35.78125950000003,22.848779700000023],[35.78152660000006,22.849348100000043],[35.77987480000007,22.84931370000004],[35.779039400000045,22.85017970000007],[35.77724650000005,22.850141500000063],[35.77681540000003,22.85021020000005],[35.77860450000003,22.852853800000048],[35.77790640000006,22.85350230000006],[35.77736850000008,22.852388400000052],[35.77596470000003,22.85071750000003],[35.77541540000004,22.850729000000058],[35.775148400000035,22.849889800000028],[35.77418330000006,22.849577000000068],[35.77348140000004,22.848501200000044],[35.772916800000075,22.847673400000076],[35.772646000000066,22.846834200000046],[35.77235980000006,22.84656330000007],[35.77075000000008,22.844102900000053],[35.77041440000005,22.843786200000068],[35.76986890000006,22.843183500000066],[35.770425800000055,22.841562300000078],[35.77073860000007,22.839963900000043],[35.77162740000006,22.83865170000007],[35.77292440000008,22.83822820000006],[35.773595800000066,22.83788110000006],[35.774271000000056,22.83581350000003],[35.774900400000035,22.83426090000006],[35.777021400000024,22.833425500000033],[35.77847860000003,22.832952500000033],[35.77942470000005,22.832628300000067],[35.77985950000004,22.831277800000066],[35.782411600000046,22.82817270000004],[35.78565790000005,22.828237500000057],[35.786806100000035,22.82794380000007],[35.78848080000006,22.82767300000006],[35.79096410000005,22.827035900000055],[35.79243280000003,22.827413600000057],[35.79379840000007,22.828828800000053],[35.79374500000006,22.83119010000007],[35.79180340000005,22.83350180000008],[35.79125790000006,22.83434100000005],[35.79039960000006,22.835607500000037],[35.78958320000004,22.836000400000046],[35.78902240000008,22.836290400000053],[35.787595700000054,22.83625980000005],[35.786760300000026,22.835393900000042],[35.78681370000004,22.83294490000003],[35.786527600000056,22.832117100000062],[35.786253000000045,22.830717100000072],[35.785574000000054,22.832124700000065],[35.78486060000006,22.83350180000008],[35.78458980000005,22.83434100000005],[35.78290750000008,22.836290400000053],[35.78293420000006,22.837656000000038],[35.782362000000035,22.838499100000035],[35.78209110000006,22.839239100000043],[35.784036600000036,22.841554600000052],[35.78515050000004,22.84353070000003],[35.785974500000066,22.84432030000005],[35.78629110000003,22.84561350000007],[35.78809170000005,22.848581300000035],[35.789026300000046,22.84794430000005],[35.78975490000005,22.847593300000028],[35.79097180000008,22.845445600000062],[35.79210090000004,22.84404950000004],[35.79208180000006,22.843145400000026],[35.79435160000003,22.838739400000065],[35.79598430000004,22.837949800000047],[35.795942300000036,22.835771600000044],[35.796537400000034,22.834898000000067],[35.79680440000004,22.834333400000048],[35.79886440000007,22.831995000000063],[35.79966550000006,22.829958000000033],[35.801656700000024,22.82609750000006],[35.802084000000036,22.824323700000036],[35.800668700000074,22.823637000000076],[35.80070690000008,22.82192420000007],[35.802084000000036,22.82239720000007],[35.802381500000024,22.822389600000065],[35.803926500000046,22.820779800000025],[35.80346870000005,22.819883300000072],[35.80348010000006,22.819170000000042],[35.80694010000008,22.818689300000074],[35.80735970000006,22.81738850000005],[35.807645800000046,22.816560700000025],[35.807016400000066,22.815004300000055],[35.80792810000003,22.813234300000033],[35.80848880000008,22.811513900000023],[35.809034300000064,22.81045340000003],[35.810041400000046,22.808073000000036],[35.81125830000008,22.806284000000062],[35.81152920000005,22.80516620000003],[35.81320380000005,22.803228400000023],[35.813814200000024,22.80229380000003],[35.81468010000003,22.800512300000037],[35.819028900000035,22.796335200000044],[35.81991000000005,22.79451940000007],[35.820421200000055,22.792936300000065],[35.82184790000008,22.792242100000067],[35.82179830000007,22.78960230000007],[35.82290460000007,22.788538000000074],[35.823473000000035,22.78766820000004],[35.82418250000006,22.786619200000075],[35.826562900000056,22.78459360000005],[35.82847020000003,22.783975600000076],[35.83208270000006,22.779890100000046],[35.832925800000055,22.779340700000034],[35.833494200000075,22.778471000000025],[35.83403590000006,22.777952200000072],[35.83473780000003,22.776872600000047],[35.83605380000006,22.77644920000006],[35.837667500000066,22.775144600000033],[35.83831210000005,22.77381710000003],[35.839590100000066,22.773508100000072],[35.840467500000045,22.77320670000006],[35.84139060000007,22.772249200000033],[35.84209630000004,22.77156640000004],[35.842042900000024,22.76906400000007],[35.84267230000006,22.767950100000064],[35.84361460000008,22.768930400000045],[35.84521680000006,22.767263400000047],[35.84569360000006,22.766279200000042],[35.846536600000036,22.76517300000006],[35.84780690000008,22.763025300000038],[35.849035300000025,22.762117400000022],[35.84972190000008,22.761068300000034],[35.85152240000008,22.760194800000022],[35.85208320000004,22.75961110000003],[35.85591320000003,22.75614740000003],[35.856248900000026,22.755445500000064],[35.856554000000074,22.75486180000007],[35.85838510000008,22.75397300000003],[35.86153600000006,22.752950700000042],[35.862360000000024,22.752389900000026],[35.86294360000005,22.752107600000045],[35.86448480000007,22.750505400000065],[35.86610600000006,22.749540300000035],[35.86708260000006,22.748220400000037],[35.867986700000074,22.747930500000052],[35.86956210000005,22.746290200000033],[35.87062260000005,22.745729400000073],[35.872083700000076,22.74683950000008],[35.87269020000008,22.747110400000054],[35.874307600000066,22.746278800000027],[35.875425300000074,22.746007900000052],[35.87650490000004,22.745447200000058],[35.87849240000003,22.745172500000024],[35.87902640000004,22.744611700000064],[35.879846600000064,22.743825900000047],[35.880319600000064,22.74284940000007],[35.881296200000065,22.742376300000046],[35.88335990000007,22.740232500000047],[35.88562200000007,22.73986240000005],[35.885973000000035,22.738779100000045],[35.88626670000008,22.738206900000023],[35.887689600000044,22.73751640000006],[35.890455200000076,22.737066300000038],[35.89135170000003,22.73522380000003],[35.892538100000024,22.734838500000023],[35.89291570000006,22.734045000000037],[35.89151190000007,22.734071700000072],[35.89153860000005,22.732809100000054],[35.89152720000004,22.732290300000045],[35.89013860000006,22.731840100000056],[35.88919260000006,22.731515900000034],[35.88874630000004,22.730135000000075],[35.888761500000044,22.72933770000003],[35.88872340000006,22.72746470000004],[35.89042470000004,22.727048900000057],[35.892179500000054,22.72571750000003],[35.89320180000004,22.725740400000063],[35.89404110000004,22.724866900000052],[35.89542200000005,22.72489360000003],[35.89571570000004,22.724889800000028],[35.896780000000035,22.723783500000025],[35.89795490000006,22.72321130000006],[35.898778900000025,22.723230400000034],[35.89875220000005,22.724752400000057],[35.898794200000054,22.726972600000067],[35.89846230000006,22.72826580000003],[35.89743230000005,22.72925760000004],[35.89708520000005,22.731031400000063],[35.89639090000003,22.73238180000004],[35.89981650000004,22.731084800000076],[35.90048410000003,22.730070100000034],[35.90126610000004,22.728452700000048],[35.902639400000055,22.72713280000005],[35.903036100000065,22.72592350000008],[35.90545080000004,22.72292900000008],[35.906454100000076,22.720857600000045],[35.90811730000007,22.71976660000007],[35.91014670000004,22.718782400000066],[35.91069600000003,22.71850010000003],[35.91181370000004,22.718229300000075],[35.91263770000006,22.717943200000036],[35.91348080000006,22.71767230000006],[35.91421320000006,22.717294700000025],[35.917219200000034,22.716447800000026],[35.92236900000006,22.71572690000005],[35.924028400000054,22.71530340000004],[35.92573360000006,22.714887600000054],[35.92695050000003,22.714262000000076],[35.92764470000003,22.714616800000044],[35.92849160000003,22.71432690000006],[35.92931180000005,22.71434590000007],[35.93041040000003,22.714323000000036],[35.93180660000007,22.715452200000072],[35.932924300000025,22.716184600000076],[35.932912800000054,22.716779700000075],[35.932962400000065,22.717390100000046],[35.93463330000003,22.716817900000024],[35.93571280000003,22.716840700000034],[35.93625070000007,22.71795080000004],[35.93684200000007,22.71850010000003],[35.937639200000035,22.717664700000057],[35.93848230000003,22.71711920000007],[35.938863800000036,22.715940500000045],[35.93987080000005,22.715452200000072],[35.94128610000007,22.71437650000007],[35.94191170000005,22.715662000000066],[35.94295310000007,22.714574800000037],[35.94348340000005,22.713483800000063],[35.94459340000003,22.71350670000004],[35.945669200000054,22.712949800000047],[35.94709210000008,22.712671300000068],[35.947641400000066,22.71238900000003],[35.94820210000006,22.712118100000055],[35.94875150000007,22.711832000000072],[35.94940760000003,22.711519200000055],[35.95181850000006,22.710733400000038],[35.954053900000076,22.709966700000052],[35.957647300000076,22.70961570000003],[35.960649500000045,22.70918080000007],[35.96098520000004,22.708478900000046],[35.96162990000005,22.70786090000007],[35.968183500000066,22.707326900000055],[35.97154430000006,22.706178700000066],[35.97152520000003,22.70519070000006],[35.97181890000007,22.703764000000035],[35.97348590000007,22.702955200000076],[35.974527400000056,22.70187190000007],[35.975427600000046,22.701284400000077],[35.97571750000003,22.70097540000006],[35.976388900000074,22.698915500000055],[35.97708320000004,22.698244100000068],[35.97747610000005,22.69705010000007],[35.97848320000003,22.69656180000004],[35.97970010000006,22.694410300000072],[35.98013880000008,22.693498600000055],[35.98069950000007,22.69296460000004],[35.98097420000005,22.691919300000052],[35.979536100000075,22.692411400000026],[35.979036300000075,22.692373300000042],[35.97984500000007,22.69159890000003],[35.982763300000045,22.69119070000005],[35.98579600000005,22.690412500000036],[35.98767660000004,22.690450700000042],[35.98908810000006,22.691179300000044],[35.990610100000026,22.690656700000034],[35.99285320000007,22.691812500000026],[35.999906500000066,22.692110100000036],[36.001527800000076,22.691556900000023],[36.00264930000003,22.69128230000007],[36.003572500000075,22.69096570000005],[36.00458340000006,22.690443000000073],[36.005147900000054,22.690172200000063],[36.00613980000003,22.68914220000005],[36.009038900000064,22.688505200000066],[36.01064870000005,22.687955900000077],[36.012094500000046,22.68767360000004],[36.013196900000025,22.687387500000057],[36.016817100000026,22.686838100000045],[36.01986120000004,22.68627740000005],[36.021814300000074,22.686006500000076],[36.02347370000007,22.685720400000037],[36.025148400000035,22.685449600000027],[36.026636100000076,22.68514440000007],[36.02819630000005,22.684610400000054],[36.03042790000006,22.68433950000008],[36.031530400000065,22.68405340000004],[36.03431890000007,22.683374400000048],[36.03747370000008,22.68293570000003],[36.038618100000065,22.682958600000063],[36.04284860000007,22.68287090000007],[36.044664400000045,22.683244700000046],[36.048749900000075,22.682943300000034],[36.06040000000007,22.682600000000036],[36.06152920000005,22.68183330000005],[36.06237220000003,22.681562400000075],[36.06479840000003,22.679426200000023],[36.06820490000007,22.67850690000006],[36.069028900000035,22.678220700000054],[36.070150400000045,22.677949900000044],[36.07236290000003,22.67711070000007],[36.074037600000054,22.67683980000004],[36.07514000000003,22.676553700000056],[36.078481700000054,22.676282900000047],[36.08086590000005,22.675878500000067],[36.08383750000007,22.674753200000055],[36.085977600000035,22.673299800000052],[36.08848380000006,22.67294880000003],[36.089918100000034,22.67236520000006],[36.09095570000005,22.671289400000035],[36.09227560000005,22.67064860000005],[36.09297370000007,22.66919900000005],[36.09422870000003,22.668378800000028],[36.096262000000024,22.667394600000023],[36.09680750000007,22.667112400000065],[36.09862330000004,22.66675760000004],[36.10320090000005,22.666849100000036],[36.10449790000007,22.666822400000058],[36.10736270000007,22.667116200000066],[36.11057850000003,22.66740230000005],[36.12192340000007,22.667169600000022],[36.12598230000003,22.667863800000077],[36.12738230000008,22.667383200000074],[36.129530000000045,22.667429000000027],[36.13014030000005,22.667112400000065],[36.13142590000007,22.666486700000064],[36.13486670000003,22.66683770000003],[36.13575170000007,22.666822400000058],[36.136812200000065,22.66627690000007],[36.13764000000003,22.666563000000053],[36.138761500000044,22.66683390000003],[36.14143560000008,22.668211000000042],[36.14316370000006,22.66952320000007],[36.14549450000004,22.668180500000062],[36.14728360000004,22.66631890000008],[36.147928200000024,22.66600610000006],[36.14871030000006,22.665601700000025],[36.14904210000003,22.664579400000036],[36.15040780000004,22.66326710000004],[36.15096090000003,22.662126500000056],[36.15129660000008,22.661806100000035],[36.153760900000066,22.661005000000046],[36.15468030000005,22.660688400000026],[36.15678980000007,22.660734200000036],[36.15830040000003,22.660421400000075],[36.164819700000066,22.660554900000022],[36.16540720000006,22.65934180000005],[36.165761900000064,22.65906330000007],[36.16880610000004,22.659681300000045],[36.169309600000076,22.660726500000067],[36.17023660000007,22.661947300000065],[36.17313960000007,22.661523800000055],[36.17376900000005,22.661848100000043],[36.17430690000003,22.663507500000037],[36.17545510000008,22.663778300000047],[36.17658810000006,22.663194700000076],[36.17930030000008,22.663538000000074],[36.18212700000004,22.66348080000006],[36.182642000000044,22.662942900000075],[36.184595100000024,22.66239360000003],[36.18597600000004,22.66183280000007],[36.18765070000006,22.661424600000032],[36.18969150000004,22.65987590000003],[36.19042020000006,22.65655330000004],[36.19101910000006,22.655080800000064],[36.191530200000045,22.65349770000006],[36.19181630000003,22.652673700000037],[36.19215200000008,22.64784050000003],[36.191682800000024,22.646467200000075],[36.19343760000004,22.645612700000072],[36.197267500000066,22.64486500000004],[36.19653130000006,22.643781700000034],[36.19682880000005,22.64319800000004],[36.19848060000004,22.643232300000022],[36.19917490000006,22.643220900000074],[36.199590700000044,22.643228500000077],[36.20010950000005,22.643217100000072],[36.200696900000025,22.64219860000003],[36.19958690000004,22.64184000000006],[36.199037600000054,22.64151570000007],[36.19967840000004,22.639654200000052],[36.20320700000008,22.639337500000067],[36.203752500000064,22.639055300000052],[36.205705600000044,22.638227500000028],[36.20638470000006,22.637880300000063],[36.21028330000007,22.637956600000052],[36.21124460000004,22.637937500000078],[36.212369900000056,22.638322800000026],[36.214586300000065,22.637945200000047],[36.21628380000004,22.637666700000068],[36.217958500000066,22.636804600000062],[36.219030400000065,22.635164300000042],[36.220449400000064,22.634115200000053],[36.22262000000006,22.63358880000004],[36.22356220000006,22.63502690000007],[36.22458460000007,22.634332700000073],[36.225194900000076,22.634038900000064],[36.23018070000006,22.634401300000036],[36.23225590000004,22.63387110000008],[36.23359870000007,22.632852600000035],[36.234327300000075,22.63209340000003],[36.23571210000006,22.632123900000067],[36.23541830000005,22.631280900000036],[36.23542980000008,22.63086510000005],[36.235410700000045,22.629880900000046],[36.23636440000007,22.629903800000022],[36.23542980000008,22.627161000000058],[36.23515130000004,22.62552450000004],[36.236261400000046,22.624059700000032],[36.236532200000056,22.623220400000037],[36.23682590000004,22.62264820000007],[36.237928400000044,22.622118000000057],[36.23847390000003,22.621831900000075],[36.23914910000008,22.62150760000003],[36.242151300000046,22.618112600000075],[36.243852600000025,22.61676600000004],[36.24485590000006,22.615720700000054],[36.245416600000055,22.615732200000025],[36.246469500000046,22.61519050000004],[36.25015070000006,22.613782900000047],[36.25156210000006,22.612928400000044],[36.252912500000036,22.61295510000008],[36.25403400000005,22.612569800000074],[36.25515560000008,22.61295510000008],[36.25514030000005,22.613641700000073],[36.255151700000056,22.61407280000003],[36.25598340000005,22.614053700000056],[36.257051500000046,22.61441990000003],[36.25748250000004,22.61353870000005],[36.25894740000007,22.613180200000045],[36.25930980000004,22.612234100000023],[36.25825310000005,22.610677700000053],[36.25773050000004,22.608511000000078],[36.25887490000008,22.605165500000055],[36.25818440000006,22.603464100000053],[36.25820730000004,22.602346400000044],[36.25890160000006,22.600313200000073],[36.25931740000004,22.599039100000027],[36.260137600000064,22.59824560000004],[36.26041980000008,22.597665800000073],[36.26098440000004,22.596838000000048],[36.26125140000005,22.59627720000003],[36.26167110000006,22.59547230000004],[36.26340680000004,22.595132800000044],[36.26375390000004,22.59405330000004],[36.26504710000006,22.59214970000005],[36.26688960000007,22.591253300000062],[36.26967430000008,22.590711600000077],[36.27071190000004,22.590734500000053],[36.27125360000008,22.590166100000033],[36.27343560000003,22.589304000000027],[36.27500720000006,22.58811380000003],[36.27550320000006,22.58559230000003],[36.277109100000075,22.584047300000066],[36.27764320000006,22.58294490000003],[36.27818490000004,22.582422300000076],[36.27875330000006,22.581552500000043],[36.28042790000006,22.579561200000057],[36.282114000000036,22.576509500000043],[36.283762000000024,22.574338900000043],[36.28458600000005,22.572942700000056],[36.28551290000007,22.571580900000072],[36.284978900000056,22.567934000000037],[36.28684430000004,22.565630000000056],[36.28736310000005,22.56294440000005],[36.28792000000004,22.56131940000006],[36.288225200000056,22.559160200000065],[36.28786660000003,22.55708500000003],[36.288206100000025,22.555448500000068],[36.288476900000035,22.55377770000007],[36.288946200000055,22.55286600000005],[36.28931620000003,22.550958600000058],[36.29043010000004,22.549894300000062],[36.290697100000045,22.549608200000023],[36.291547800000046,22.54905130000003],[36.29153250000007,22.548223500000063],[36.29182620000006,22.54765130000004],[36.29181100000005,22.546697600000073],[36.291818600000056,22.546224600000073],[36.29268070000006,22.542852400000072],[36.29236410000004,22.54100610000006],[36.292097100000035,22.537893300000064],[36.292696000000035,22.535554900000022],[36.29403880000007,22.533781100000056],[36.29347040000005,22.533231700000044],[36.29403880000007,22.53239250000007],[36.29472540000006,22.529260600000043],[36.295740100000046,22.527765300000056],[36.29569820000006,22.52558330000005],[36.295709600000066,22.52488900000003],[36.29569440000006,22.524065000000064],[36.29607960000004,22.52331730000003],[36.29554940000003,22.521246000000076],[36.29657170000007,22.519559900000047],[36.296495400000026,22.515810000000045],[36.29739570000004,22.513181700000075],[36.29792980000008,22.51267050000007],[36.29881100000006,22.51175120000005],[36.299310700000035,22.510721200000035],[36.29987530000005,22.509893400000067],[36.30018430000007,22.508920700000033],[36.30126380000007,22.506837800000028],[36.30167200000005,22.505994800000053],[36.30216410000003,22.505037300000026],[36.30455970000003,22.50425910000007],[36.305440900000065,22.502912500000036],[36.30598640000005,22.502393700000027],[36.306322100000045,22.500642800000037],[36.30715370000007,22.49984930000005],[36.30865670000003,22.499116900000047],[36.308198900000036,22.498228100000063],[36.30763050000007,22.49704930000007],[36.307661100000075,22.495554000000027],[36.308485000000076,22.494337100000052],[36.309171700000036,22.493288000000064],[36.30987360000006,22.492948500000068],[36.31082340000006,22.492456400000037],[36.311533000000054,22.490999200000033],[36.31237220000003,22.489893000000052],[36.313093200000026,22.48879050000005],[36.31645770000006,22.485555600000055],[36.31808660000007,22.485029200000042],[36.31926160000006,22.483804700000064],[36.321943300000044,22.482282600000076],[36.322641400000066,22.481554000000074],[36.323774300000025,22.480466800000045],[36.32582660000003,22.47833060000005],[36.32681080000003,22.476831400000037],[36.32723430000004,22.47642330000008],[36.32760870000004,22.47603280000004],[36.32830240000004,22.47530940000007],[36.32959560000006,22.47489360000003],[36.33014110000005,22.474607500000047],[36.33174320000006,22.47429850000003],[36.334009200000025,22.472761200000036],[36.33444790000004,22.471410800000058],[36.33632090000003,22.470804200000032],[36.33903310000005,22.467618900000048],[36.341089200000056,22.46591760000007],[36.34206960000006,22.464899100000025],[36.34265330000005,22.464616800000044],[36.34347720000005,22.464189500000032],[36.34433560000008,22.463769900000045],[36.345274000000074,22.462797200000068],[36.345983500000045,22.462114300000053],[36.346506100000056,22.461572600000068],[36.34737210000003,22.46100430000007],[36.348142600000074,22.460203200000024],[36.349130600000024,22.459550900000067],[36.35173990000004,22.45757480000003],[36.355291400000056,22.45642280000004],[36.35998730000006,22.453420600000072],[36.36376380000007,22.451280600000075],[36.36650660000004,22.449701300000072],[36.36848640000005,22.449060400000064],[36.36944770000008,22.44840430000005],[36.37237360000006,22.44711490000003],[36.37576870000004,22.44536400000004],[36.37684820000004,22.443716100000074],[36.37779050000006,22.44281200000006],[36.37845420000008,22.44212150000004],[36.38343620000006,22.439493200000072],[36.387250900000026,22.438959100000034],[36.39014240000006,22.43766590000007],[36.39154240000005,22.437116600000024],[36.39259910000004,22.436567300000036],[36.39348410000008,22.436281200000053],[36.39501000000007,22.43566320000008],[36.39581490000006,22.43443110000004],[36.39848140000004,22.43277930000005],[36.40191080000005,22.431810400000074],[36.40323070000005,22.431837100000052],[36.40486720000007,22.432947200000058],[36.40576360000006,22.43353840000003],[36.40801810000005,22.435876800000074],[36.41014290000004,22.435442000000023],[36.41223720000005,22.435033800000042],[36.414545100000055,22.434244200000023],[36.42272000000003,22.42648120000007],[36.424154300000055,22.423528700000077],[36.42323490000007,22.42084310000007],[36.42376520000005,22.418779400000062],[36.42375370000008,22.41843220000004],[36.423151000000075,22.415494900000056],[36.42181210000007,22.414613700000075],[36.42094610000004,22.414026300000046],[36.42001920000007,22.40886880000005],[36.42043110000003,22.40767100000005],[36.42069820000006,22.405996300000027],[36.42133140000004,22.404157600000076],[36.420438800000056,22.402837800000043],[36.42117120000006,22.399244300000078],[36.42209820000005,22.39711570000003],[36.42239190000004,22.395906400000058],[36.42349820000004,22.393755000000056],[36.42428780000006,22.390512500000057],[36.42496300000005,22.388544100000047],[36.42624470000004,22.386045500000023],[36.42667200000005,22.384744600000033],[36.42710690000007,22.383470500000044],[36.427084000000036,22.382398600000045],[36.42902570000007,22.378858600000058],[36.42931180000005,22.377386100000024],[36.429887800000074,22.37596700000006],[36.43042950000006,22.37544820000005],[36.43072700000005,22.375139200000035],[36.432375000000036,22.374059700000032],[36.433839800000044,22.373064000000056],[36.435697600000026,22.370443300000034],[36.436166800000024,22.369989400000065],[36.436533000000054,22.368497800000057],[36.43709750000005,22.36656000000005],[36.43741040000003,22.365263000000027],[36.43715860000003,22.364614500000073],[36.43665500000003,22.366678200000024],[36.43570900000003,22.36651040000004],[36.43667030000006,22.36464120000005],[36.43876840000007,22.36204340000006],[36.43874930000004,22.36126900000005],[36.43931770000006,22.361280400000055],[36.43989370000003,22.36098670000007],[36.439855600000044,22.359468500000048],[36.440786400000036,22.35901830000006],[36.442495300000076,22.357240700000034],[36.44349100000005,22.356287000000066],[36.44417000000004,22.355577500000038],[36.44487950000007,22.354898500000047],[36.44566540000005,22.354078300000026],[36.44775200000004,22.352598200000045],[36.45042230000007,22.350442900000075],[36.451265300000045,22.34989360000003],[36.45281790000007,22.348836900000038],[36.454874000000075,22.348505000000046],[36.45717430000008,22.348112100000037],[36.458478900000046,22.34766200000007],[36.46086690000004,22.34688760000006],[36.46292310000007,22.345163300000024],[36.46582600000005,22.343141600000024],[36.46807290000004,22.342054400000052],[36.46959880000003,22.341558500000076],[36.47286800000006,22.33967400000006],[36.474702800000045,22.339315400000032],[36.47620200000006,22.33934590000007],[36.48022270000007,22.338659300000074],[36.48213770000007,22.337205900000072],[36.48424720000003,22.336797700000034],[36.48612790000004,22.335519800000043],[36.48715020000003,22.333963400000073],[36.488298400000076,22.33285710000007],[36.49070930000005,22.331834800000024],[36.49157520000006,22.33124730000003],[36.49265100000008,22.330724700000076],[36.49347880000005,22.33030130000003],[36.49491690000008,22.329599400000063],[36.49638560000005,22.328073500000073],[36.49753380000004,22.326971100000037],[36.50009730000005,22.327493700000048],[36.50300790000006,22.326997800000072],[36.504312500000026,22.326551400000028],[36.50550270000008,22.326261500000044],[36.50708960000003,22.32571980000006],[36.510141400000066,22.32542230000007],[36.51412010000007,22.323915500000055],[36.51514240000006,22.323217400000033],[36.51709560000006,22.32211490000003],[36.51896480000005,22.320695900000032],[36.52348520000004,22.318502400000057],[36.52403450000003,22.318220100000076],[36.525136900000064,22.31768610000006],[36.52586560000003,22.316927000000078],[36.52737620000005,22.316556900000023],[36.52865030000004,22.316228900000056],[36.530145600000026,22.31571770000005],[36.53154180000007,22.31526370000006],[36.53292270000003,22.314329100000066],[36.53348730000005,22.314058300000056],[36.53462030000003,22.31319620000005],[36.53570750000006,22.312669800000037],[36.53653140000006,22.312109000000078],[36.537096000000076,22.311838100000045],[36.537645300000065,22.311552000000063],[36.54010200000005,22.310510600000043],[36.54073140000003,22.30985450000003],[36.54237560000007,22.30905720000004],[36.54413030000006,22.307992900000045],[36.54626270000006,22.307390200000043],[36.547090500000024,22.307107900000062],[36.54848670000007,22.306837100000052],[36.54986760000003,22.306272500000034],[36.55166440000005,22.30598260000005],[36.55320550000005,22.30601310000003],[36.554052400000046,22.305997800000057],[36.55402570000007,22.304624600000068],[36.554891600000076,22.303342800000053],[36.556070300000044,22.30277060000003],[36.557924300000025,22.301275300000043],[36.55867200000006,22.30091290000007],[36.55914880000006,22.299924900000065],[36.56182290000004,22.297712300000057],[36.565786400000036,22.297357600000055],[36.56709100000006,22.29669000000007],[36.56846050000007,22.296022400000027],[36.570573800000034,22.29424860000006],[36.571542700000066,22.293779400000062],[36.57264520000007,22.292940100000067],[36.574266400000056,22.291978800000038],[36.57570840000005,22.291280700000073],[36.576860400000044,22.29040720000006],[36.57870290000005,22.287920000000042],[36.579034800000045,22.286550500000033],[36.579980900000066,22.285306900000023],[36.581331300000045,22.284868200000062],[36.582376500000066,22.28489110000004],[36.583524700000055,22.284597400000052],[36.585146000000066,22.28349490000005],[36.587099100000046,22.28239250000007],[36.58792310000007,22.281827900000053],[36.59027670000006,22.28037070000005],[36.59186360000007,22.27960010000004],[36.59421350000008,22.27715870000003],[36.59581950000006,22.27637670000007],[36.59489630000007,22.275495500000034],[36.59401890000004,22.274015400000053],[36.59404560000007,22.272646000000066],[36.59570880000007,22.271558800000037],[36.596376400000054,22.27086070000007],[36.597654300000045,22.27044870000003],[36.59819980000003,22.27016260000005],[36.59904290000003,22.269891700000073],[36.600423800000044,22.268774000000064],[36.60230830000006,22.26728250000008],[36.60487560000007,22.266557700000078],[36.60642810000007,22.265379000000053],[36.60793110000003,22.264890700000024],[36.60903360000003,22.264051400000028],[36.61015510000004,22.263780600000075],[36.61066630000005,22.263242700000035],[36.61404230000005,22.264219300000036],[36.61402700000008,22.26336100000003],[36.614061400000026,22.261838900000043],[36.61291310000007,22.26128200000005],[36.612932200000046,22.260389300000043],[36.61435510000007,22.259023700000057],[36.61543080000007,22.258501100000046],[36.61719320000003,22.257078200000024],[36.61847880000005,22.255346300000042],[36.620100000000036,22.254282000000046],[36.62040900000005,22.25294690000004],[36.61923410000003,22.254167600000073],[36.617895100000055,22.253480900000056],[36.61793330000006,22.25181390000006],[36.618650400000035,22.25112340000004],[36.619875000000036,22.25072670000003],[36.62074850000005,22.250425300000074],[36.62316700000008,22.25047490000003],[36.624033000000054,22.249883700000055],[36.625078200000075,22.249380100000053],[36.623754500000075,22.249059700000032],[36.62264060000007,22.24877360000005],[36.62265210000004,22.248189900000057],[36.623308200000054,22.24691960000007],[36.62516590000007,22.247396500000036],[36.625814400000024,22.248735400000044],[36.62681010000006,22.248216600000035],[36.627954500000044,22.247942000000023],[36.62986560000007,22.246641200000056],[36.631799700000045,22.246015500000055],[36.632646600000044,22.245424300000025],[36.63208960000003,22.244890200000043],[36.631628000000035,22.24440960000004],[36.63216210000007,22.243375800000024],[36.633485800000074,22.242948500000068],[36.634569200000044,22.242387800000074],[36.63628580000005,22.24210930000004],[36.63820080000005,22.24112130000003],[36.64147000000003,22.24196050000006],[36.641817100000026,22.24267770000006],[36.642179500000054,22.24008370000007],[36.64459800000003,22.239614500000073],[36.645143500000074,22.238775300000043],[36.64576910000005,22.237852100000055],[36.64542200000005,22.23683740000007],[36.644922300000076,22.235300100000075],[36.64455600000008,22.232637400000044],[36.64488410000007,22.23037910000005],[36.64486890000006,22.229467400000033],[36.64573100000007,22.22733880000004],[36.64668080000007,22.226419400000054],[36.64723010000006,22.22585490000006],[36.64808080000006,22.22503850000004],[36.64889720000008,22.22418790000006],[36.649835600000074,22.223283800000047],[36.65042310000007,22.222383500000035],[36.650987600000065,22.22155950000007],[36.65125470000004,22.22099490000005],[36.651838300000065,22.22014050000007],[36.65473750000007,22.21919820000005],[36.656812700000046,22.217939400000034],[36.65737720000004,22.21766850000006],[36.65847970000004,22.21682930000003],[36.65987590000003,22.21628000000004],[36.66069980000003,22.215719200000024],[36.661634400000025,22.215105100000073],[36.66375540000007,22.213495300000034],[36.66491510000003,22.212934500000074],[36.66824150000008,22.210413000000074],[36.66931340000008,22.208772700000054],[36.671114000000046,22.206274000000064],[36.67269330000005,22.20524020000005],[36.67376520000005,22.204889300000048],[36.674799000000064,22.204359100000033],[36.676786400000026,22.20357320000005],[36.678201700000045,22.20279880000004],[36.67647740000007,22.20237540000005],[36.675081300000045,22.200918200000046],[36.67549320000006,22.199712800000043],[36.67820930000005,22.19933510000004],[36.67911340000006,22.199026100000026],[36.68097880000005,22.199064300000032],[36.681810400000074,22.19849590000007],[36.682375000000036,22.198225000000036],[36.683244700000046,22.19763370000004],[36.68572430000006,22.19682880000005],[36.686708500000066,22.19580650000006],[36.69163320000007,22.19657330000007],[36.69296070000007,22.196546600000033],[36.69291880000003,22.194341700000052],[36.69314000000003,22.193780900000036],[36.69347950000008,22.195169400000054],[36.69381140000007,22.195718800000066],[36.69541740000005,22.194044100000042],[36.69640160000006,22.193101900000045],[36.69938470000005,22.18977170000005],[36.70097920000006,22.188238100000035],[36.70125770000004,22.187368400000025],[36.70056340000008,22.186697000000038],[36.699708900000076,22.185812000000055],[36.69931980000007,22.183664300000032],[36.70079990000005,22.181711200000052],[36.70469860000003,22.18085670000005],[36.70659450000005,22.179418600000076],[36.70709040000003,22.177385300000026],[36.707376500000066,22.176836000000037],[36.707647300000076,22.17543980000005],[36.70821950000004,22.174036000000058],[36.709653900000035,22.173337900000035],[36.711267500000076,22.172945000000027],[36.71181300000006,22.172662700000046],[36.71316340000004,22.17222400000003],[36.71570010000005,22.170297600000026],[36.717184100000054,22.169576600000028],[36.719282200000066,22.167394600000023],[36.72019770000003,22.167097100000035],[36.72125820000008,22.166551600000048],[36.72188760000006,22.166246400000034],[36.72348210000007,22.166280700000073],[36.725877800000035,22.166231200000027],[36.72625540000007,22.165430100000037],[36.724386200000026,22.16452220000008],[36.72376440000005,22.16516690000003],[36.72234150000003,22.165994600000033],[36.72107120000004,22.165342300000077],[36.721548100000064,22.163473100000033],[36.722230900000056,22.162820800000077],[36.724592200000075,22.163778300000047],[36.72586250000006,22.164049100000057],[36.72709080000004,22.16321750000003],[36.72765540000006,22.162946700000077],[36.728479400000026,22.16251950000003],[36.72973820000004,22.16190910000006],[36.73154260000007,22.16155820000006],[36.73242000000005,22.161256800000046],[36.73333930000007,22.160299300000077],[36.73538400000007,22.15833470000007],[36.73748210000008,22.157926600000053],[36.738622700000064,22.157949400000064],[36.74028970000006,22.157915100000025],[36.74195670000006,22.157949400000064],[36.74417690000007,22.157903700000077],[36.74675180000003,22.157957100000033],[36.748281500000076,22.159116700000027],[36.75070000000005,22.15849490000005],[36.75209620000004,22.158525500000053],[36.75403790000007,22.158483500000045],[36.75523190000007,22.158510200000023],[36.75852390000006,22.159635500000036],[36.75903510000006,22.160169600000074],[36.75961490000003,22.160451900000055],[36.76080890000003,22.161691700000063],[36.762090700000044,22.160718900000063],[36.76392560000005,22.160448100000053],[36.76606940000005,22.16131400000006],[36.76762960000008,22.162939100000074],[36.76903340000007,22.165643700000032],[36.767751700000076,22.167337400000065],[36.76621060000008,22.166811000000052],[36.76457410000006,22.165700900000047],[36.76286890000006,22.16573520000003],[36.76237680000003,22.166940700000055],[36.76460080000004,22.167661700000053],[36.76597790000005,22.168222400000047],[36.76682090000003,22.168497100000025],[36.76737020000007,22.169336300000055],[36.76793100000003,22.170164100000022],[36.76740840000008,22.171186400000067],[36.77071950000004,22.171827300000075],[36.77151300000003,22.170190800000057],[36.772378900000035,22.169057800000076],[36.77292440000008,22.167661700000053],[36.77404210000003,22.166280700000073],[36.77536580000003,22.164045300000055],[36.778806700000075,22.160966900000062],[36.779878600000075,22.160448100000053],[36.78153420000007,22.159051900000065],[36.78265570000008,22.15822410000004],[36.78481100000005,22.156587600000023],[36.78698540000005,22.15529440000006],[36.787897100000066,22.15434840000006],[36.78876690000004,22.15378000000004],[36.78959080000004,22.153219200000024],[36.79106710000008,22.15225410000005],[36.79321100000004,22.151556000000028],[36.79466820000005,22.150671000000045],[36.79514500000005,22.14821820000003],[36.79544260000006,22.147646000000066],[36.79542350000003,22.146833400000048],[36.79545400000006,22.14548300000007],[36.794870400000036,22.143777800000066],[36.79432110000005,22.141492800000037],[36.795671500000026,22.137540800000068],[36.79598050000004,22.136274300000025],[36.796270400000026,22.135137600000064],[36.79736520000006,22.134088500000075],[36.79764750000004,22.133218800000066],[36.79848670000007,22.132112500000062],[36.79903600000006,22.130968100000075],[36.798479100000066,22.12988850000005],[36.79848670000007,22.12960620000007],[36.79832650000003,22.129056900000023],[36.79709820000005,22.12989230000005],[36.79665950000003,22.130163200000027],[36.79541210000008,22.129312500000026],[36.79543110000003,22.128179600000067],[36.79681210000007,22.126852000000042],[36.797109600000056,22.12594800000005],[36.79821210000006,22.12489130000006],[36.79873850000007,22.124338200000068],[36.79932210000004,22.12405590000003],[36.800703000000055,22.12293820000008],[36.80219080000006,22.121763200000032],[36.802923200000066,22.120996500000047],[36.80583380000007,22.119348500000058],[36.80823330000004,22.11905480000007],[36.80931280000004,22.118494000000055],[36.810434300000054,22.118223200000045],[36.81097980000004,22.117940900000065],[36.81376460000007,22.117670100000055],[36.81492810000003,22.11706730000003],[36.81588940000006,22.116067900000075],[36.818403200000034,22.114076600000033],[36.81932260000008,22.113779100000045],[36.82042500000006,22.11293980000005],[36.82265660000007,22.111558900000034],[36.823175400000025,22.111013400000047],[36.825433700000076,22.109613400000057],[36.82635310000006,22.108987800000023],[36.827112200000045,22.10819440000006],[36.827646300000026,22.106550200000072],[36.827932400000066,22.106000900000026],[36.828481700000054,22.10460470000004],[36.82911870000004,22.103040700000065],[36.830987900000025,22.100725200000056],[36.83186910000006,22.099531200000058],[36.83368870000004,22.097784000000047],[36.834444000000076,22.09663580000006],[36.83542440000008,22.094606400000032],[36.836267500000076,22.09350010000003],[36.83744240000004,22.09170720000003],[36.840333900000076,22.088926300000026],[36.84104350000007,22.087842900000055],[36.84153560000004,22.08682820000007],[36.84184840000006,22.08622550000007],[36.84459880000003,22.084890400000063],[36.84542660000005,22.08446310000005],[36.848501200000044,22.083963400000073],[36.849969900000076,22.08346370000004],[36.85150720000007,22.082670200000052],[36.853624300000035,22.082155200000045],[36.85557750000004,22.08066750000006],[36.85898780000008,22.08074000000005],[36.861074400000064,22.080137300000047],[36.862928400000044,22.08017160000003],[36.86446190000004,22.08014110000005],[36.86731910000003,22.078409200000067],[36.868001900000024,22.076292000000024],[36.86878010000004,22.075143800000035],[36.87060360000004,22.074258800000052],[36.87292670000005,22.07238200000006],[36.87376590000008,22.071832700000073],[36.875425300000074,22.07044030000003],[36.87626840000007,22.06989100000004],[36.877187700000036,22.069265400000063],[36.87845420000008,22.067941700000063],[36.879598600000065,22.06738850000005],[36.88278010000005,22.065458300000046],[36.885442700000056,22.06508830000007],[36.88934900000004,22.06516840000006],[36.89042470000004,22.065721500000052],[36.89204980000005,22.06599620000003],[36.89292340000003,22.063772200000074],[36.89354130000004,22.062578200000075],[36.89343450000007,22.05718040000005],[36.89423180000006,22.056001700000024],[36.89459040000003,22.052618000000052],[36.89375880000006,22.051000600000066],[36.893487900000025,22.049604400000078],[36.89320180000004,22.048780400000055],[36.892934800000035,22.047662700000046],[36.89224430000007,22.04664420000006],[36.89315220000003,22.04399680000006],[36.89179800000005,22.040868800000055],[36.89182090000003,22.039468800000066],[36.89180950000008,22.03876690000004],[36.89237790000004,22.03711130000005],[36.89266010000006,22.03566550000005],[36.893262900000025,22.033903100000032],[36.89292340000003,22.031278600000064],[36.892622000000074,22.028463400000078],[36.892972900000075,22.025354400000026],[36.891649200000074,22.023401300000046],[36.89126780000004,22.021825800000045],[36.890951200000075,22.020902600000056],[36.89042470000004,22.01988790000007],[36.89015770000003,22.01904870000004],[36.88931470000006,22.01711080000007],[36.889043800000024,22.01599310000006],[36.88875770000004,22.01544380000007],[36.888490700000034,22.014883000000054],[36.88792610000007,22.014055300000052],[36.88765530000006,22.013494500000036],[36.88659100000007,22.011743500000023],[36.883752800000025,22.00823020000007],[36.88262370000007,22.00650600000006],[36.88210110000006,22.004884700000048],[36.88041700000008,22.000000000000057],[36.87879700000008,22.000000000000057],[34.08062190000004,22.000008000000037],[34.08062140000004,22.000008000000037],[34.08325350000007,22.007792900000027],[34.086130000000026,22.01629980000007],[34.08900690000007,22.02480680000008],[34.09188420000004,22.033313600000042],[34.09476180000007,22.041820400000063],[34.09763970000006,22.05032710000006],[34.10051800000008,22.05883380000006],[34.10339660000005,22.067340400000035],[34.10627550000004,22.075847000000067],[34.10915490000008,22.084353500000077],[34.11203450000005,22.092859900000064],[34.114914500000054,22.101366300000052],[34.11779480000007,22.109872600000074],[34.12067550000006,22.11837890000004],[34.12355660000003,22.126885100000038],[34.12643790000004,22.135391200000072],[34.12931970000005,22.14389730000005],[34.13220170000005,22.15240330000006],[34.13508420000005,22.16090930000007],[34.13796690000004,22.16941520000006],[34.14085000000006,22.17792110000005],[34.14373350000005,22.18642680000005],[34.14661730000006,22.194932600000072],[34.14950150000004,22.20343820000005],[34.15894170000007,22.20512590000004],[34.16838210000003,22.206813100000034],[34.17782280000006,22.20849970000006],[34.187263700000074,22.210185700000068],[34.19670490000004,22.211871200000076],[34.206146200000035,22.213556200000028],[34.21558780000004,22.215240600000072],[34.22502960000003,22.21692450000006],[34.23447160000006,22.21860780000003],[34.24391390000005,22.220290500000033],[34.25335640000003,22.22197280000006],[34.26279910000005,22.223654400000044],[34.27224200000006,22.22533560000005],[34.28168520000003,22.22701610000007],[34.291128600000036,22.22869620000006],[34.30057220000003,22.23037560000006],[34.310016000000076,22.232054600000026],[34.31946010000007,22.233732900000064],[34.32890430000003,22.235410800000068],[34.33834890000003,22.23708800000003],[34.347793600000045,22.23876480000007],[34.35723850000005,22.240441000000033],[34.36668370000007,22.24211660000003],[34.37612910000007,22.24379170000003],[34.38557480000003,22.245466200000067],[34.395020600000066,22.247140200000047],[34.40446670000006,22.248813600000062],[34.413913000000036,22.250486500000022],[34.42335950000006,22.25215890000004],[34.43280630000004,22.253830700000037],[34.44225330000006,22.25550190000007],[34.45170050000007,22.257172600000047],[34.46114790000007,22.25884270000006],[34.47059550000006,22.260512300000073],[34.480043400000056,22.26218140000003],[34.48949150000004,22.263849900000025],[34.49893980000007,22.265517800000055],[34.50838840000006,22.26718520000003],[34.51783720000003,22.268852000000038],[34.527286100000026,22.27051830000005],[34.536735400000055,22.27218410000006],[34.54618480000005,22.27384930000005],[34.55563450000005,22.275513900000078],[34.565084400000046,22.27717800000005],[34.57453450000003,22.278841500000055],[34.58398480000005,22.280504500000063],[34.59343540000003,22.282167000000072],[34.602886100000035,22.28382890000006],[34.61233710000005,22.285490200000027],[34.62178840000007,22.28715100000005],[34.63123980000006,22.288811200000055],[34.64069150000006,22.29047090000006],[34.65014340000005,22.292130100000065],[34.65959550000008,22.29378870000005],[34.669047900000066,22.29544670000007],[34.678500400000075,22.297104200000035],[34.68795320000004,22.298761100000036],[34.69175770000004,22.306984600000078],[34.69556260000007,22.31520800000004],[34.69936790000003,22.323431200000073],[34.703173700000036,22.331654400000048],[34.70697990000008,22.339877500000057],[34.71078660000006,22.348100500000044],[34.71459370000008,22.356323400000065],[34.71840120000007,22.36454610000004],[34.72220930000003,22.372768800000074],[34.72601770000006,22.380991400000028],[34.729826600000024,22.389213900000072],[34.73363600000005,22.397436300000038],[34.737445800000046,22.405658600000038],[34.74125600000008,22.413880800000072],[34.74506670000005,22.422102900000027],[34.748877900000025,22.430324900000073],[34.75268950000003,22.43854680000004],[34.75650150000007,22.44676860000004],[34.76031400000005,22.454990300000077],[34.76412700000003,22.463211900000033],[34.76794040000004,22.471433400000024],[34.77175420000003,22.47965480000005],[34.77556850000008,22.487876200000073],[34.77938330000006,22.496097400000053],[34.783198500000026,22.504318500000068],[34.78701410000008,22.51253950000006],[34.79083020000007,22.52076040000003],[34.794646800000066,22.528981200000032],[34.798463800000036,22.537202000000036],[34.80228120000004,22.54542260000005],[34.80609910000004,22.553643100000045],[34.80991750000004,22.561863500000072],[34.81373630000007,22.570083800000077],[34.81755560000005,22.578304100000025],[34.82137530000006,22.586524200000042],[34.82519540000004,22.594744200000036],[34.82901610000005,22.602964100000065],[34.83283710000006,22.611184000000037],[34.836658700000044,22.619403700000078],[34.84048070000006,22.62762330000004],[34.84430310000005,22.635842900000057],[34.848126000000036,22.64406230000003],[34.851949400000024,22.652281600000038],[34.855773200000044,22.660500800000023],[34.85959740000004,22.668720000000064],[34.86342210000004,22.67693900000006],[34.86724730000003,22.685157900000036],[34.87107290000006,22.693376800000067],[34.87489900000003,22.701595500000053],[34.87872560000005,22.709814100000074],[34.882552600000054,22.718032700000037],[34.88638000000003,22.72625110000007],[34.890207900000064,22.734469400000023],[34.89403630000004,22.742687700000033],[34.89786510000005,22.750905800000055],[34.90169440000005,22.759123800000054],[34.90552420000006,22.76734170000003],[34.90935440000004,22.775559600000065],[34.913185000000055,22.783777300000054],[34.917016200000035,22.791994900000077],[34.92084780000005,22.800212500000043],[34.924679800000035,22.80842990000008],[34.92851230000008,22.816647200000034],[34.93234520000004,22.824864400000024],[34.93617870000003,22.83308160000007],[34.94001250000008,22.841298600000073],[34.94384690000004,22.849515500000052],[34.94768170000003,22.857732300000066],[34.95670530000007,22.855215600000065],[34.965728600000034,22.852698400000065],[34.97475160000005,22.850180700000067],[34.98377430000005,22.84766250000007],[34.99279660000008,22.84514370000005],[35.00181850000007,22.842624500000056],[35.010840200000075,22.84010470000004],[35.01986150000005,22.837584400000026],[35.028882500000066,22.83506360000007],[35.03790310000005,22.832542300000057],[35.046923400000026,22.830020500000046],[35.05594340000005,22.82749810000007],[35.06496310000006,22.824975300000062],[35.073982400000034,22.822451900000033],[35.08300140000006,22.819928100000027],[35.09202000000005,22.817403700000057],[35.10103830000003,22.81487880000003],[35.11005630000005,22.812353400000063],[35.11907400000007,22.80982750000004],[35.12809130000005,22.807301100000075],[35.13710830000008,22.804774200000054],[35.14612500000004,22.80224670000007],[35.155141300000025,22.79971880000005],[35.164157300000056,22.797190300000068],[35.173172900000054,22.79466130000003],[35.182188300000064,22.79213180000005],[35.19120330000004,22.78960180000007],[35.20021790000004,22.787071300000036],[35.20923230000005,22.78454030000006],[35.216201400000045,22.790716300000042],[35.22317110000006,22.79689190000005],[35.23014150000006,22.803067200000044],[35.23711250000008,22.80924230000005],[35.24408420000003,22.815417000000025],[35.25105640000004,22.821591400000045],[35.25802930000003,22.827765500000055],[35.26500290000007,22.833939300000054],[35.27197700000005,22.840112700000077],[35.27895180000007,22.846285900000055],[35.28592720000006,22.852458700000057],[35.29290320000007,22.85863130000007],[35.299879900000064,22.86480350000005],[35.306857200000024,22.870975400000077],[35.31383520000003,22.877147000000036],[35.32081370000003,22.88331830000004],[35.32779290000008,22.889489300000037],[35.33477270000003,22.895660000000078],[35.34175320000003,22.90183040000005],[35.34873430000005,22.90800040000005],[35.35571600000003,22.914170200000058],[35.362698400000056,22.920339600000034],[35.369681300000025,22.926508700000056],[35.37666500000006,22.932677500000068],[35.383649200000036,22.93884600000007],[35.39063410000006,22.94501420000006],[35.39761960000004,22.95118210000004],[35.40460580000007,22.957349600000043],[35.41159250000004,22.96351690000006],[35.41858000000008,22.96968380000004],[35.425568000000055,22.97585040000007],[35.43255670000008,22.98201670000003],[35.439546000000064,22.98818270000004],[35.44653600000004,22.994348400000035],[35.45352660000003,23.00051380000008],[35.46051780000005,23.00667880000003],[35.46750960000003,23.012843600000053],[35.47450210000005,23.019008000000042],[35.48149530000006,23.025172100000077],[35.48848900000007,23.031335900000045],[35.49548340000007,23.03749940000006],[35.50247850000005,23.04366260000006],[35.509474100000034,23.04982540000003],[35.516470500000025,23.05598800000007],[35.52346740000007,23.062150200000076],[35.53046500000005,23.06831210000007],[35.53746320000005,23.074473700000055],[35.54446210000003,23.08063500000003],[35.55146160000004,23.08679600000005],[35.558461700000066,23.092956600000036],[35.565462500000024,23.099117000000035],[35.57246390000006,23.105277000000058],[35.57946590000006,23.11143670000007],[35.586468600000046,23.11759610000007],[35.59347200000008,23.123755200000062],[35.60047590000005,23.129913900000076],[35.607480500000065,23.136072400000046],[35.61448580000007,23.14223050000004],[35.61912819100007,23.146310906000053],[35.61958890000005,23.146009400000025],[35.620744700000046,23.145227400000067],[35.62214850000004,23.14488410000007],[35.62393380000003,23.143018700000027]]],[[[36.188395900000046,22.674342700000068],[36.18876480000006,22.674605300000053],[36.18950700000005,22.67543870000003],[36.19023180000005,22.675143500000047],[36.188877700000035,22.673933600000055],[36.18861720000007,22.673640700000078],[36.18712850000003,22.674100800000076],[36.185700600000075,22.675097900000026],[36.18277950000004,22.676438000000076],[36.181542500000035,22.67739830000005],[36.180691800000034,22.677938700000027],[36.178977400000065,22.67926790000007],[36.177636300000074,22.67988310000004],[36.176347200000066,22.68058300000007],[36.174220400000024,22.681077800000025],[36.17267090000007,22.68178850000004],[36.172610200000065,22.68280740000006],[36.17265360000005,22.683501900000067],[36.172592800000075,22.684479500000066],[36.173135400000035,22.685653600000023],[36.17459800000006,22.68599430000006],[36.17623000000003,22.686580200000037],[36.17904250000004,22.68628730000006],[36.18192450000004,22.685775100000058],[36.183157100000074,22.685701300000062],[36.18374740000007,22.686227600000052],[36.18237590000007,22.687999500000046],[36.18303990000004,22.688286000000062],[36.18376480000006,22.687953900000025],[36.18430300000006,22.68766100000005],[36.18796620000006,22.687170500000036],[36.18791410000006,22.686273200000073],[36.188356800000065,22.68545830000005],[36.18737590000006,22.683772100000056],[36.184880200000066,22.682184600000028],[36.18475870000003,22.680152200000066],[36.18518840000007,22.67921690000003],[36.18639500000006,22.677486200000033],[36.18725010000003,22.675627500000076],[36.188395900000046,22.674342700000068]]],[[[36.10935880000005,22.701603100000057],[36.10861660000006,22.70219670000006],[36.10813050000007,22.70302570000007],[36.110148700000025,22.703601900000024],[36.110682600000075,22.702931300000046],[36.11205410000008,22.70183430000003],[36.113377900000046,22.699658700000043],[36.114901400000065,22.698586600000056],[36.11457150000007,22.69685050000004],[36.11445000000003,22.696696400000064],[36.11379890000006,22.696883100000036],[36.11221470000004,22.69755040000007],[36.111272900000074,22.698239400000034],[36.11020950000005,22.698687500000062],[36.11007500000005,22.699752000000046],[36.11017910000004,22.700578800000073],[36.10935880000005,22.701603100000057]]],[[[36.158615000000054,22.78292600000003],[36.15833800000007,22.782921000000044],[36.15834300000006,22.78266300000007],[36.157234000000074,22.78264400000006],[36.15722800000003,22.782901000000038],[36.15860900000007,22.783183000000065],[36.158615000000054,22.78292600000003]]],[[[36.18371900000005,22.789802000000066],[36.18344100000007,22.78979700000008],[36.18344700000006,22.789540000000045],[36.18206800000007,22.78912900000006],[36.18125700000007,22.788086000000078],[36.17933700000003,22.787023000000033],[36.17823000000004,22.786875000000066],[36.17849200000006,22.78765100000004],[36.17876600000005,22.787785000000042],[36.17932100000007,22.787794000000076],[36.18041400000004,22.788586000000066],[36.18123600000007,22.789115000000038],[36.18261200000006,22.789653000000044],[36.18288400000006,22.789915000000065],[36.183714000000066,22.790059000000042],[36.18371900000005,22.789802000000066]]],[[[35.79680900000005,22.838249000000076],[35.796798000000024,22.837735000000066],[35.79624300000006,22.83774500000004],[35.79625400000003,22.83825900000005],[35.79680900000005,22.838249000000076]]],[[[35.71523670000005,22.904653800000062],[35.71600500000005,22.90342880000003],[35.719212500000026,22.90210170000006],[35.72061000000008,22.898718400000064],[35.72179490000008,22.89881390000005],[35.72189910000003,22.897502100000054],[35.721378300000026,22.89318890000004],[35.722077100000035,22.89238160000008],[35.72318820000004,22.891424500000028],[35.722906100000046,22.890648700000042],[35.72082270000004,22.89081580000004],[35.720406000000025,22.890455600000053],[35.720557900000074,22.88975350000004],[35.71943810000005,22.890399100000025],[35.71884350000005,22.891733800000054],[35.71818810000008,22.89265940000007],[35.717927700000075,22.894347700000026],[35.71735480000007,22.895159400000068],[35.71681660000007,22.89601440000007],[35.71505010000004,22.898149900000078],[35.71459440000007,22.902125600000034],[35.71426020000007,22.903041400000063],[35.71440770000004,22.904895800000077],[35.71307090000005,22.906757800000037],[35.711703700000044,22.90761610000004],[35.71055350000006,22.90923390000006],[35.710983200000044,22.909603900000036],[35.71237210000004,22.911213100000055],[35.71352230000008,22.91039600000005],[35.71455960000003,22.91047960000003],[35.715562300000045,22.909919700000046],[35.71669940000004,22.909577900000045],[35.71626100000003,22.907659500000022],[35.71596160000007,22.90712240000005],[35.71604400000007,22.906101300000046],[35.71523670000005,22.904653800000062]]],[[[35.67516260000008,22.970211000000063],[35.67560100000003,22.970701400000053],[35.676273700000024,22.969638100000054],[35.67639090000006,22.968365300000073],[35.67550120000004,22.96850960000006],[35.67516260000008,22.970211000000063]]],[[[35.66250190000005,23.035865800000067],[35.662163400000054,23.035961300000054],[35.662406400000066,23.036204300000065],[35.66250190000005,23.035865800000067]]],[[[35.66192900000004,23.03665680000006],[35.66132570000008,23.03932290000006],[35.662441200000046,23.038175900000056],[35.66222410000006,23.03642140000005],[35.66192900000004,23.03665680000006]]],[[[36.66129900000004,22.244552000000056],[36.66102300000006,22.244548000000066],[36.66101400000008,22.245063000000073],[36.66119400000008,22.245153000000073],[36.66128200000003,22.245581000000072],[36.66155800000007,22.245585000000062],[36.66156700000005,22.245071000000053],[36.66138600000005,22.244979000000058],[36.66129900000004,22.244552000000056]]],[[[36.64364260000008,22.274983000000077],[36.64491000000004,22.27409760000006],[36.647366600000055,22.273338000000024],[36.64821290000003,22.27295060000006],[36.64943260000007,22.27228660000003],[36.65224510000007,22.272454700000026],[36.65346470000003,22.271677800000077],[36.65350810000007,22.27099860000004],[36.65346040000003,22.270248800000047],[36.65546990000007,22.267479700000024],[36.65680680000003,22.26654650000006],[36.657379700000035,22.266283900000076],[36.658187000000055,22.26584440000005],[36.66178510000003,22.265422400000034],[36.663369300000056,22.264695300000028],[36.66427640000006,22.263884800000028],[36.664662700000065,22.262444900000048],[36.66514020000005,22.25987980000008],[36.66547870000005,22.258615700000064],[36.66502730000008,22.257353700000067],[36.665296400000045,22.252845200000024],[36.66467140000003,22.252145300000052],[36.66365580000007,22.25150190000005],[36.66181110000008,22.249307900000076],[36.66154640000008,22.25183930000003],[36.66125120000004,22.252379700000063],[36.66093010000003,22.255142300000045],[36.660027300000024,22.25615250000004],[36.65907670000007,22.257001100000025],[36.65863840000003,22.257958100000053],[36.65637710000004,22.25882720000004],[36.65382930000004,22.260210700000073],[36.652926500000035,22.26015650000005],[36.65240570000003,22.260187900000062],[36.650213800000074,22.259402300000033],[36.64775720000006,22.258830500000045],[36.645100900000045,22.256649500000037],[36.64126840000006,22.255229100000065],[36.639432500000055,22.25588890000006],[36.63534830000003,22.255126000000075],[36.63238820000004,22.251305500000058],[36.631858600000044,22.248840200000075],[36.63223190000008,22.247803900000065],[36.630990600000075,22.248036100000036],[36.631264000000044,22.252904900000033],[36.63244890000004,22.25559050000004],[36.633751000000075,22.260262800000078],[36.63343850000007,22.26115260000006],[36.63142030000006,22.26232770000007],[36.63037430000003,22.26470080000007],[36.631051300000024,22.266172100000063],[36.63336910000004,22.26671250000004],[36.63527880000004,22.269037800000035],[36.636528800000065,22.271006200000045],[36.637379500000065,22.272223600000075],[36.63800450000008,22.273960800000054],[36.63765730000006,22.275450600000056],[36.63711040000004,22.276975200000038],[36.637054000000035,22.277884500000027],[36.637900400000035,22.27883170000007],[36.640287500000056,22.278468200000077],[36.64177630000006,22.279151800000022],[36.64322160000006,22.280445300000054],[36.64515740000007,22.283213300000057],[36.64621640000007,22.28487670000004],[36.64714090000007,22.28493210000005],[36.64919390000006,22.283097200000043],[36.64958450000006,22.282657700000073],[36.65208450000006,22.280423600000063],[36.65175030000006,22.27866030000007],[36.65040910000005,22.27772390000007],[36.64971470000006,22.27834450000006],[36.648620900000026,22.279570700000022],[36.64680230000005,22.279959100000042],[36.64565220000003,22.279603200000054],[36.64377280000008,22.277179200000035],[36.64364260000008,22.274983000000077]]],[[[36.63006610000008,22.294407000000035],[36.63361650000007,22.295710100000065],[36.63571280000008,22.295176300000037],[36.636528800000065,22.294876800000054],[36.64041770000006,22.294602300000065],[36.64044810000007,22.294223600000066],[36.639306600000054,22.29350960000005],[36.63809130000004,22.292556900000022],[36.635695500000054,22.292120700000055],[36.63487950000007,22.291543400000023],[36.633529700000054,22.29113760000007],[36.63166330000007,22.28979540000006],[36.630139900000074,22.28795400000007],[36.62945410000003,22.28697090000003],[36.62928050000005,22.287118500000076],[36.62943670000004,22.289045600000065],[36.62845580000004,22.289890900000046],[36.629206700000054,22.29022720000006],[36.62821280000003,22.291629200000045],[36.62854260000006,22.293328400000064],[36.63006610000008,22.294407000000035]]],[[[36.52612200000004,22.402078000000074],[36.526117000000056,22.40233500000005],[36.526666000000034,22.40260100000006],[36.52695600000004,22.401834000000065],[36.52612200000004,22.402078000000074]]],[[[36.35128300000008,22.56756400000006],[36.35113000000007,22.568333000000052],[36.352509000000055,22.568613000000028],[36.35279600000007,22.568103000000065],[36.35251900000003,22.568099000000075],[36.35252900000006,22.567584000000068],[36.35225500000007,22.567451000000062],[36.351424000000065,22.56743700000004],[36.35128300000008,22.56756400000006]]],[[[36.34883700000006,22.586819000000048],[36.34911100000005,22.586952000000053],[36.34994500000005,22.58683700000006],[36.349702000000036,22.58503200000007],[36.349146000000076,22.585151000000053],[36.349004000000036,22.585278000000073],[36.34885200000008,22.586047000000065],[36.34857400000004,22.586043000000075],[36.34857000000005,22.58630000000005],[36.348847000000035,22.58630500000004],[36.34883700000006,22.586819000000048]]],[[[36.19823100000008,22.677535000000034],[36.199598200000025,22.67712380000006],[36.19985870000005,22.676268700000037],[36.20067460000007,22.67480500000005],[36.200748400000066,22.673862000000042],[36.200027900000066,22.672149800000057],[36.20077450000008,22.671817700000076],[36.201247600000045,22.67126870000004],[36.20183350000008,22.670765200000062],[36.20138640000005,22.668309700000066],[36.201889900000026,22.666943600000025],[36.20138640000005,22.66604300000006],[36.201573100000076,22.663688300000047],[36.20124320000008,22.661560500000064],[36.201334400000064,22.66046670000003],[36.20098710000008,22.65932420000007],[36.20041420000007,22.657957000000067],[36.20028400000007,22.65641830000004],[36.19878660000006,22.65770850000007],[36.19867810000005,22.65904100000006],[36.199042700000064,22.660713100000066],[36.199303100000066,22.662123700000052],[36.199897700000065,22.66410940000003],[36.199537500000076,22.66606900000005],[36.19807910000003,22.666721100000075],[36.19752360000007,22.667199700000026],[36.19650360000003,22.669025800000043],[36.19590460000006,22.670365900000036],[36.19453310000006,22.67154860000005],[36.19350440000005,22.672999400000037],[36.19265370000005,22.674901500000033],[36.19207650000004,22.675715300000036],[36.19211990000008,22.676252500000032],[36.191620700000044,22.67714660000007],[36.19118670000006,22.681868800000075],[36.18987590000006,22.683542000000045],[36.19013640000003,22.684068300000035],[36.19096970000004,22.685243400000047],[36.19068760000005,22.686392500000068],[36.19011030000007,22.687427700000057],[36.19097840000006,22.687357200000065],[36.191955000000064,22.68743530000006],[36.193105100000025,22.686923100000058],[36.193890700000054,22.68431570000007],[36.19480650000003,22.68285080000004],[36.19581780000004,22.681675700000028],[36.19671630000005,22.680904200000043],[36.19774060000003,22.679710600000078],[36.19889510000007,22.67871880000007],[36.19823100000008,22.677535000000034]]],[[[36.207805800000074,22.788899800000024],[36.20665120000007,22.787830000000042],[36.20611740000004,22.787252700000067],[36.20444640000005,22.787430700000073],[36.20399500000008,22.788286800000037],[36.20541860000003,22.78878590000005],[36.206260600000064,22.789052800000036],[36.20742820000004,22.789855800000055],[36.21035350000005,22.78997190000007],[36.207805800000074,22.788899800000024]]],[[[36.22624780000007,22.788491900000054],[36.22450730000003,22.78880760000004],[36.223509000000035,22.788727300000062],[36.220922200000075,22.78907780000003],[36.219876200000044,22.789775500000076],[36.22235880000005,22.789325200000064],[36.22674690000008,22.788922600000035],[36.22722870000007,22.78836380000007],[36.22624780000007,22.788491900000054]]],[[[36.21320950000006,22.79047970000005],[36.215679100000045,22.790452600000037],[36.21598730000005,22.79017700000003],[36.21611750000005,22.790030500000057],[36.21320950000006,22.79047970000005]]]]}}]}
