{"type":"FeatureCollection","features":[{"type":"Feature","properties":{"place":"juan-de-nova","region":"TF","donors":"","rank":2,"whose_line":"the coastline (uncontested), as drawn by the US Department of State","publisher":"US Department of State, Office of the Geographer and Global Issues (World Polygons, high-resolution layer DoS_WP_11_4)","source_url":"https://data.geodata.state.gov/WorldPolygons.zip","version_or_date":"World Polygons 11.4 BETA, 2025-02-24; read 2026-10-04","feature_id":"DoS_WP_11_4 fid 153","licence":"US government work, not subject to US copyright (17 U.S.C. § 105)","notes":"","input_sha256":"55fab422ef09e35eb48d68141b9ece0ace86d4276dfe332a04dfd401c0bfc80c","operation":"none (the source feature's geometry as published)","crs":"WGS84 longitude/latitude, as in the source (no reprojection)","source_features":[{"id":"DoS_WP_11_4 fid 153","WP_Name":"Juan de Nova Island","WP_ID":"1f91a382-726a-4abe-8945-be67aee698df","Map_Label":null,"NOTES":"The French Southern and Antarctic Lands includes Île Amsterdam, Île Saint-Paul, Îles Crozet, and Îles Kerguelen in the southern Indian Ocean; the “Iles Eparses” (Bassas da India, Europa Island, Glorioso Islands, Juan de Nova Island and Trom","US_Recog":"Dependency or Area of Special Sovereignty","Show_Disp":null,"GENC_3":"XJN"}]},"geometry":{"type":"MultiPolygon","coordinates":[[[[42.69995800000004,-17.045542999999952],[42.70016900000007,-17.045609999999954],[42.700432000000035,-17.045634999999947],[42.701091000000076,-17.04591199999993],[42.70163500000007,-17.046062999999947],[42.702127000000075,-17.046239999999955],[42.70271500000007,-17.04640799999993],[42.703347000000065,-17.046557999999948],[42.70403200000004,-17.046658999999977],[42.70467300000007,-17.046700999999928],[42.70501600000006,-17.04676799999993],[42.70542000000006,-17.046784999999943],[42.706034000000045,-17.046835999999928],[42.70642900000007,-17.046835999999928],[42.706886000000054,-17.04682699999995],[42.707017000000064,-17.04675199999997],[42.70729000000006,-17.04672599999998],[42.70774600000004,-17.046742999999935],[42.708379000000036,-17.046801999999957],[42.70914200000004,-17.04681899999997],[42.709775000000036,-17.04682699999995],[42.710240000000056,-17.04686099999998],[42.71084600000006,-17.046885999999972],[42.71164500000003,-17.046986999999945],[42.71208400000006,-17.047086999999976],[42.712461000000076,-17.047212999999942],[42.71317200000004,-17.047514999999976],[42.71352400000006,-17.047632999999962],[42.714094000000046,-17.04779199999996],[42.714665000000025,-17.04779199999996],[42.71570100000008,-17.047909999999945],[42.71633300000008,-17.04793499999994],[42.71732500000007,-17.047968999999966],[42.71766800000006,-17.048018999999954],[42.71807200000006,-17.04799399999996],[42.71891500000004,-17.048094999999932],[42.71979300000004,-17.04816999999997],[42.72055700000004,-17.04825399999993],[42.72123200000004,-17.048379999999952],[42.72193500000003,-17.04841399999998],[42.72252300000008,-17.048371999999972],[42.72273400000006,-17.04832099999993],[42.723032000000046,-17.048396999999966],[42.72351500000008,-17.048446999999953],[42.724060000000065,-17.048539999999946],[42.72471800000005,-17.048690999999963],[42.72506100000004,-17.048723999999936],[42.72546500000004,-17.048858999999936],[42.72596500000003,-17.04898399999996],[42.72642200000007,-17.049034999999947],[42.72679000000005,-17.049135999999976],[42.72707100000008,-17.04922799999997],[42.72746600000005,-17.04926999999998],[42.72785300000004,-17.04933699999998],[42.728221000000076,-17.04942099999994],[42.72854600000005,-17.049521999999968],[42.72872200000006,-17.049504999999954],[42.729284000000064,-17.04953899999998],[42.729389000000026,-17.049630999999977],[42.72978400000005,-17.049672999999927],[42.73010900000003,-17.049756999999943],[42.73062700000003,-17.049823999999944],[42.73126800000006,-17.049898999999982],[42.73190900000003,-17.05001699999997],[42.732480000000066,-17.05016799999993],[42.73307700000004,-17.050419999999974],[42.73366500000003,-17.050604999999962],[42.734095000000025,-17.050780999999972],[42.73474500000003,-17.050998999999933],[42.73564900000008,-17.051376999999945],[42.73615900000004,-17.051510999999948],[42.73675600000007,-17.05174599999998],[42.73717700000003,-17.051930999999968],[42.737941000000035,-17.052156999999966],[42.738424000000066,-17.052266999999972],[42.73946900000004,-17.052685999999937],[42.74018900000004,-17.05302999999998],[42.74064500000003,-17.05320699999993],[42.74112800000006,-17.053424999999947],[42.741611000000034,-17.053592999999978],[42.741997000000026,-17.053735999999958],[42.74226100000004,-17.053818999999976],[42.74253300000004,-17.053886999999975],[42.742796000000055,-17.053961999999956],[42.743025000000046,-17.054138999999964],[42.743490000000065,-17.05433199999993],[42.74411300000003,-17.054633999999965],[42.74463100000003,-17.054943999999978],[42.74469300000004,-17.055094999999937],[42.74493000000007,-17.055178999999953],[42.74550100000005,-17.055741999999952],[42.74588700000004,-17.056026999999972],[42.74639600000006,-17.05632899999995],[42.746879000000035,-17.056689999999946],[42.747678000000064,-17.05721099999994],[42.74817900000005,-17.057604999999967],[42.74867000000006,-17.057932999999935],[42.74929400000008,-17.058343999999977],[42.74977700000005,-17.058712999999955],[42.75019800000007,-17.059065999999973],[42.75050500000003,-17.059358999999972],[42.75081300000005,-17.05967899999996],[42.75094400000006,-17.059921999999972],[42.75094400000006,-17.060148999999967],[42.75076900000005,-17.06035799999995],[42.75054000000006,-17.06042599999995],[42.75035600000007,-17.06052599999998],[42.75005700000003,-17.060572999999977],[42.74975900000004,-17.06054699999993],[42.749517000000026,-17.060599999999965],[42.74928700000004,-17.060551999999973],[42.74907300000007,-17.060615999999982],[42.748736000000065,-17.06063299999994],[42.748613000000034,-17.06068099999993],[42.74859600000008,-17.06054699999993],[42.74841600000008,-17.060513999999955],[42.74795500000005,-17.06055699999996],[42.74661800000007,-17.060540999999944],[42.74633700000004,-17.06048199999998],[42.745741000000066,-17.060513999999955],[42.74537600000008,-17.060513999999955],[42.74503900000008,-17.06050399999998],[42.74478600000003,-17.06052999999997],[42.744612000000075,-17.060465999999963],[42.74385300000006,-17.060438999999974],[42.74336400000004,-17.060438999999974],[42.742819000000054,-17.06036899999998],[42.742454000000066,-17.06035799999995],[42.74208300000004,-17.060325999999975],[42.74155500000006,-17.060234999999977],[42.74104900000003,-17.060186999999928],[42.73979600000007,-17.060041999999953],[42.739442000000054,-17.05997199999996],[42.73897600000004,-17.059896999999978],[42.73829000000006,-17.059777999999937],[42.737745000000075,-17.059724999999958],[42.73729600000007,-17.059654999999964],[42.73627800000003,-17.059466999999927],[42.73567700000007,-17.059358999999972],[42.73540200000008,-17.059272999999962],[42.735149000000035,-17.05921399999994],[42.734312000000045,-17.059219999999982],[42.73348600000003,-17.05924699999997],[42.73310300000003,-17.059315999999967],[42.73274900000007,-17.059455999999955],[42.732564000000025,-17.059595999999942],[42.732519000000025,-17.05968699999994],[42.732575000000054,-17.059788999999967],[42.73257000000007,-17.059949999999958],[42.73252500000007,-17.060148999999967],[42.732480000000066,-17.06027299999994],[42.73244600000004,-17.06049299999995],[42.73245200000008,-17.06071899999995],[42.73249700000008,-17.06077199999993],[42.73252500000007,-17.06094399999995],[42.73246900000004,-17.06114299999996],[42.73227200000008,-17.06137899999993],[42.732300000000066,-17.061459999999954],[42.73230600000005,-17.06156199999998],[42.73212900000004,-17.061774999999955],[42.731918000000064,-17.06188999999995],[42.731651000000056,-17.06192299999998],[42.73143300000004,-17.06186299999996],[42.731201000000056,-17.06174199999998],[42.731047000000046,-17.06163399999997],[42.730871000000036,-17.061653999999976],[42.73070300000006,-17.061687999999947],[42.730260000000044,-17.06166799999994],[42.72974700000003,-17.06163399999997],[42.72937500000006,-17.061613999999963],[42.72894700000006,-17.061546999999962],[42.72867300000007,-17.061680999999965],[42.72858100000008,-17.061640999999952],[42.728237000000036,-17.06174199999998],[42.72798400000005,-17.06183599999997],[42.727472000000034,-17.06194299999993],[42.72726800000004,-17.062063999999964],[42.72714800000006,-17.062184999999943],[42.727134000000035,-17.062332999999967],[42.72709900000007,-17.06250099999994],[42.72701500000005,-17.06262099999998],[42.72663600000004,-17.062896999999964],[42.72644600000007,-17.062976999999933],[42.72613000000007,-17.06301099999996],[42.72599700000006,-17.06307099999998],[42.72570900000005,-17.063218999999947],[42.725385000000074,-17.06335299999995],[42.72527300000007,-17.06348799999995],[42.72519600000004,-17.06342099999995],[42.72487300000006,-17.06354799999997],[42.724533000000065,-17.06364899999994],[42.72438200000005,-17.06379899999996],[42.72417900000005,-17.064056999999934],[42.724011000000075,-17.06418599999995],[42.72366800000003,-17.064217999999983],[42.72334200000006,-17.064174999999977],[42.723213000000044,-17.06409999999994],[42.72326900000007,-17.064040999999975],[42.72323600000004,-17.063965999999937],[42.72310100000004,-17.063949999999977],[42.72290400000003,-17.06387399999994],[42.72267400000004,-17.063836999999978],[42.722353000000055,-17.063803999999948],[42.722230000000025,-17.063680999999974],[42.72207800000007,-17.063658999999973],[42.72198800000007,-17.063750999999968],[42.72199900000004,-17.063841999999966],[42.72181900000004,-17.063863999999967],[42.721640000000036,-17.063830999999936],[42.72144300000008,-17.063728999999967],[42.72120700000005,-17.06363299999998],[42.721145000000035,-17.06340199999994],[42.721258000000034,-17.06332599999996],[42.72131400000006,-17.063256999999965],[42.72122400000006,-17.06318099999993],[42.721100000000035,-17.06318699999997],[42.72107200000005,-17.063062999999943],[42.72100500000005,-17.063035999999954],[42.720965000000035,-17.06295599999993],[42.720965000000035,-17.06285399999996],[42.72086400000006,-17.06274099999996],[42.720578000000046,-17.06252799999993],[42.72030500000005,-17.062309999999968],[42.72009500000007,-17.06209999999993],[42.719805000000065,-17.06188999999995],[42.719340000000045,-17.06170499999996],[42.71869000000004,-17.06146999999993],[42.717689000000064,-17.061083999999937],[42.71732000000003,-17.060949999999934],[42.71642500000007,-17.06059799999997],[42.715801000000056,-17.06036299999994],[42.71502000000004,-17.060026999999934],[42.71419400000008,-17.059631999999965],[42.71359700000005,-17.05932999999993],[42.713018000000034,-17.059102999999936],[42.71235100000007,-17.058809999999937],[42.71214000000003,-17.05873399999996],[42.71188500000005,-17.058700999999928],[42.71180600000008,-17.058456999999976],[42.711718000000076,-17.05826399999995],[42.71157800000003,-17.05798699999997],[42.711464000000035,-17.057684999999935],[42.71132300000005,-17.057440999999926],[42.711104000000034,-17.057046999999955],[42.71112100000005,-17.05678699999993],[42.71111300000007,-17.056542999999976],[42.71098100000006,-17.05629099999993],[42.71081400000003,-17.056123999999954],[42.71075300000007,-17.055938999999967],[42.71083200000004,-17.05579599999993],[42.71099900000007,-17.05561199999994],[42.71112100000005,-17.055334999999957],[42.71117400000003,-17.055006999999932],[42.71119200000004,-17.054746999999963],[42.71135900000007,-17.05455399999994],[42.71144600000008,-17.05430199999995],[42.711438000000044,-17.053923999999938],[42.71133200000003,-17.053638999999976],[42.71131500000007,-17.05334499999998],[42.71123000000006,-17.052956999999935],[42.710942000000045,-17.052536999999973],[42.71038000000004,-17.051999999999964],[42.709982000000025,-17.05177599999996],[42.709460000000036,-17.05148799999995],[42.70859600000006,-17.05100299999998],[42.707197000000065,-17.05026799999996],[42.706785000000025,-17.050149999999974],[42.70607200000006,-17.049782999999934],[42.70513900000003,-17.04920599999997],[42.70435700000007,-17.048772999999926],[42.703095000000076,-17.048090999999943],[42.70206600000006,-17.04751399999998],[42.70106400000003,-17.046936999999957],[42.700447000000054,-17.046621999999957],[42.699583000000075,-17.04613699999993],[42.69908900000007,-17.045716999999968],[42.699159000000066,-17.045575999999983],[42.699317000000065,-17.04551799999996],[42.699475000000064,-17.04544199999998],[42.69966000000005,-17.045433999999943],[42.69995800000004,-17.045542999999952]]]]}}]}
