{"type":"FeatureCollection","features":[{"type":"Feature","properties":{"place":"junagadh","region":"area/junagadh","donors":"IN","rank":4,"whose_line":"Natural Earth editors: the princely state of Junagadh with Manavadar, as Pakistan claims it","publisher":"Natural Earth (ne_10m_admin_0_disputed_areas)","source_url":"https://raw.githubusercontent.com/nvkelso/natural-earth-vector/v5.1.2/geojson/ne_10m_admin_0_disputed_areas.geojson","version_or_date":"v5.1.2 (git tag); read 2026-10-04","feature_id":"NE_ID 1746598035","licence":"public domain","notes":"Pakistan claims the princely state of Junagadh and Manavadar (its 2020 political map; deshgujarat.com 2020-08-04); its own line exists only as a raster map. The area (8,651 km²) matches the princely state's 8,643 km² of 1921; no set of current districts or talukas fits.","input_sha256":"9cafef8b7dfb6b164dc58f218f981f4ace9f716f6c03795d4c62d1ac9f3d50f5","operation":"none (the source feature's geometry as published)","crs":"WGS84 longitude/latitude, as in the source (no reprojection)","source_features":[{"id":"NE_ID=1746598035","NE_ID":1746598035,"NAME":"India","BRK_NAME":"Junagadh and Manavadar","NOTE_BRK":"Admin. by India; Claimed by Pakistan","TYPE":"Disputed","ADMIN":"India"}]},"geometry":{"type":"Polygon","coordinates":[[[69.988332,21.2334],[69.930029,21.539309],[69.84217,21.743473],[69.851226,21.77017],[69.873548,21.790099],[69.915922,21.806644],[69.948856,21.801753],[70.049266,21.731815],[70.105747,21.731815],[70.124574,21.68517],[70.206157,21.591836],[70.300291,21.545146],[70.344221,21.574329],[70.413253,21.68517],[70.463458,21.696833],[70.614073,21.650177],[70.67683,21.568493],[70.739586,21.574329],[70.764689,21.597671],[70.764689,21.68517],[70.708208,21.743473],[70.714484,21.766788],[70.750042,21.78519],[70.783516,21.784272],[70.827445,21.76096],[70.852548,21.679339],[70.871375,21.609341],[70.846272,21.562657],[70.745862,21.475084],[70.664279,21.457563],[70.595247,21.445881],[70.567506,21.428586],[70.545041,21.399144],[70.545041,21.340703],[70.588971,21.282238],[70.620349,21.258845],[70.664279,21.270542],[70.67683,21.29978],[70.658003,21.346548],[70.695657,21.375771],[70.7408,21.392017],[70.77724,21.393301],[70.821169,21.399144],[70.833721,21.358238],[70.789791,21.258845],[70.821169,21.153533],[70.890202,21.135974],[71.065919,21.112558],[71.147503,21.100849],[71.323221,21.042289],[71.404804,21.001283],[71.480112,21.100849],[71.699743,21.021306],[71.68336,21.011461],[71.639985,20.996812],[71.583507,20.958238],[71.549571,20.951239],[71.557302,20.96601],[71.562348,20.972968],[71.569347,20.979193],[71.551117,20.973578],[71.515979,20.995233],[71.299621,20.905781],[71.318614,20.849311],[71.140636,20.765692],[71.116954,20.766913],[71.110118,20.759467],[71.09547,20.763739],[71.083263,20.756537],[71.072602,20.745673],[71.062348,20.738959],[71.044444,20.740546],[71.024181,20.744534],[71.00766,20.741604],[71.005951,20.736558],[71.000824,20.722154],[70.982432,20.71015],[70.972992,20.709621],[70.902531,20.70552],[70.827445,20.790219],[70.852548,20.860607],[70.808618,20.966126],[70.689381,21.007142],[70.588971,20.907513],[70.562174,20.799767],[70.541515,20.807847],[70.484141,20.84394],[70.463064,20.848863],[70.451427,20.855902],[70.417003,20.890448],[70.398774,20.90351],[70.336681,20.927069],[70.299978,20.958564],[70.26352,20.980414],[70.152192,21.078518],[70.054445,21.153155],[69.988332,21.2334]],[[70.369324,21.352393],[70.352622,21.323156],[70.356772,21.29978],[70.400702,21.235449],[70.431182,21.209034],[70.463458,21.200348],[70.488946,21.211188],[70.501112,21.247148],[70.482285,21.29978],[70.438356,21.352393],[70.401144,21.359742],[70.369324,21.352393]]]}}]}
