{"type":"FeatureCollection","features":[{"type":"Feature","properties":{"place":"karki","region":"area/karki","donors":"AM","rank":2,"whose_line":"the US State Department's international boundaries (World Polygons 11.4)","publisher":"US Department of State, Office of the Geographer and Global Issues (World Polygons, high-resolution layer DoS_WP_11_4)","source_url":"https://data.geodata.state.gov/WorldPolygons.zip","version_or_date":"World Polygons 11.4 BETA, 2025-02-24; read 2026-10-04","feature_id":"DoS_WP_11_4 fid 20: the Azerbaijani exclave of Karki (Tigranashen), part of Azerbaijan's polygon (fid 20)","licence":"US government work, not subject to US copyright (17 U.S.C. § 105)","notes":"Held by Armenia since May 1992; Azerbaijan claims it. GADM has no unit or part for it.","input_sha256":"55fab422ef09e35eb48d68141b9ece0ace86d4276dfe332a04dfd401c0bfc80c","operation":"the parts of the source feature that contain the points [[44.954, 39.792]]","crs":"WGS84 longitude/latitude, as in the source (no reprojection)","source_features":[{"id":"DoS_WP_11_4 fid 20","WP_Name":"Azerbaijan","WP_ID":"4aeb6821-a913-436a-a695-35686ac02655","Map_Label":"AZERBAIJAN","NOTES":null,"US_Recog":"Independent","Show_Disp":null,"GENC_3":"AZE"}]},"geometry":{"type":"Polygon","coordinates":[[[44.93514000000005,39.796129000000064],[44.934563000000026,39.79727100000008],[44.93414500000006,39.798290000000065],[44.933692300000075,39.79927200000003],[44.93341200000003,39.79988000000003],[44.933152000000064,39.80081800000005],[44.932787000000076,39.802163000000064],[44.93268400000005,39.80265200000008],[44.93258000000003,39.80318100000005],[44.932476000000065,39.80371100000008],[44.93253100000004,39.80415900000003],[44.93258600000007,39.804891000000055],[44.932799000000045,39.80537900000007],[44.93295800000004,39.80578600000007],[44.93322400000005,39.80623300000008],[44.93375700000007,39.806846000000064],[44.934124000000054,39.80716700000005],[44.934705000000065,39.80745100000007],[44.935339000000056,39.807652000000076],[44.935690900000054,39.80766350000005],[44.93813400000005,39.80768500000005],[44.93976900000007,39.807476000000065],[44.94076730000006,39.80733200000003],[44.941639800000075,39.807206000000065],[44.94381460000005,39.80703760000006],[44.94435310000006,39.80699590000006],[44.946659200000056,39.806880000000035],[44.948451900000066,39.80679890000005],[44.949564500000065,39.80674860000005],[44.95200300000005,39.80658500000004],[44.95401380000004,39.80645750000008],[44.95617000000004,39.80641000000003],[44.95970560000006,39.806236100000035],[44.962024900000074,39.806174000000055],[44.96323800000005,39.80626600000005],[44.965243000000044,39.80642300000005],[44.96582300000006,39.80650300000008],[44.967670000000055,39.806579000000056],[44.96899410000003,39.806483600000035],[44.96908630000007,39.80648420000006],[44.969840600000055,39.806489500000055],[44.970356200000026,39.806425200000035],[44.97062040000003,39.806350000000066],[44.97100510000007,39.806112400000075],[44.971281400000066,39.80579650000004],[44.97155580000003,39.805373100000054],[44.97184430000004,39.80477110000004],[44.97224900000003,39.803796000000034],[44.972244000000046,39.80237100000005],[44.97213100000005,39.80037600000003],[44.972023000000036,39.79972500000008],[44.97165000000007,39.798505000000034],[44.97138200000006,39.79740600000008],[44.97116900000003,39.79667400000005],[44.97097930000007,39.79589610000005],[44.97084010000003,39.795177300000034],[44.97073900000004,39.79451700000004],[44.97052600000006,39.79398800000007],[44.970259000000055,39.79317400000008],[44.97017720000008,39.79299150000003],[44.96919970000005,39.79057620000003],[44.96855930000004,39.788986100000045],[44.968011500000046,39.78745660000004],[44.967828600000075,39.78662590000005],[44.96756400000004,39.78530060000003],[44.96707330000004,39.78398710000005],[44.96639170000003,39.78259080000004],[44.96558390000007,39.781293600000026],[44.96458060000003,39.78003910000007],[44.96378310000006,39.77932800000008],[44.962582300000065,39.77842990000005],[44.96161610000007,39.77780380000007],[44.960621100000026,39.777396800000076],[44.959388500000045,39.77706280000007],[44.95798490000004,39.77692890000003],[44.956636400000036,39.77695310000007],[44.95543360000005,39.77716900000007],[44.95413120000006,39.77758650000004],[44.95330590000003,39.77800750000006],[44.950112800000056,39.78032770000004],[44.94609800000006,39.783096400000034],[44.942809200000056,39.78626630000008],[44.94112000000007,39.788175900000056],[44.939459500000055,39.790395000000046],[44.93646650000005,39.79413990000006],[44.93618900000007,39.794538000000045],[44.93566400000003,39.79531300000008],[44.93514000000005,39.796129000000064]]]}}]}
