{"type": "FeatureCollection", "features": [{"type": "Feature", "properties": {"derivation": "single polygon of the intersection of HDX COD-AB admin0 Burkina Faso (v03, valid_on 2025-08-01) and Benin (v01, valid_on 2019-08-16) that contains OSM node 3813587874 (Koalou/Kourou village); no vertex added by hand", "bfa_source": "https://data.humdata.org/dataset/cod-ab-bfa  bfa_admin_boundaries.geojson.zip (HDX last_modified 2026-04-02; dataset_source Institut Geographique Burkina (IGB))", "ben_source": "https://data.humdata.org/dataset/cod-ab-ben  ben_admin_boundaries.geojson.zip (HDX last_modified 2026-01-26; dataset_source SALB Project, OCHA ROWCA)", "licence": "CC BY-IGO (both inputs, per HDX license_title)", "retrieved": "2026-10-04", "area_km2": 64.23, "n_vertices": 502, "meaning": "land that both national admin0 datasets include. Of 502 ring vertices, 492 lie on the Burkina Faso (IGB) admin0 boundary and 8 on the Benin (SALB) boundary (the NW edge 0.8917,10.9113 to 0.9454,11.0343), 2 on both"}, "geometry": {"type": "Polygon", "coordinates": [[[0.945462000000134, 11.034271000000103], [0.945576000000131, 11.034071], [0.945700000000102, 11.03389], [0.945776, 11.033719], [0.945900000000108, 11.033585000000187], [0.946033000000114, 11.033357], [0.946185, 11.03311900000017], [0.9463760000001, 11.032986], [0.946661, 11.032738000000109], [0.946937000000162, 11.032557], [0.94715600000012, 11.03237600000017], [0.947432, 11.0323], [0.947689, 11.0323], [0.947899000000177, 11.032348000000184], [0.948041, 11.032348000000184], [0.948213, 11.032262000000173], [0.948394, 11.03211], [0.948546, 11.031996000000163], [0.94866, 11.031834], [0.948755000000119, 11.031606], [0.948812, 11.031377000000134], [0.948822000000121, 11.031054], [0.948670000000163, 11.03058700000014], [0.948479, 11.030302000000177], [0.948260000000175, 11.030111], [0.947965000000124, 11.029902000000106], [0.947680000000162, 11.029616], [0.947413, 11.029255], [0.947242000000131, 11.02900700000015], [0.946928000000128, 11.028505000000166], [0.946388000000184, 11.027901], [0.945775, 11.027587], [0.9453180000001, 11.027259], [0.945004, 11.026973], [0.944804, 11.02654500000017], [0.94474700000012, 11.026131], [0.944850000000145, 11.025906], [0.945375, 11.02476], [0.945760000000121, 11.024104], [0.946017, 11.023747000000128], [0.946189, 11.02369], [0.9463310000001, 11.023347], [0.94656, 11.022947], [0.947345000000155, 11.0223620000001], [0.947459000000151, 11.022276], [0.947573, 11.022119], [0.947945, 11.022062000000119], [0.948373000000117, 11.021991000000128], [0.9488300000001, 11.021777], [0.94898, 11.021745], [0.949845, 11.021637000000169], [0.950181000000157, 11.021567], [0.950427, 11.021431000000177], [0.950786000000107, 11.021048], [0.951314, 11.020392000000186], [0.951499000000126, 11.019849], [0.951771, 11.019192], [0.952256, 11.018550000000175], [0.953170000000171, 11.017765], [0.953755000000115, 11.017236], [0.954212, 11.016980000000103], [0.954912, 11.016466], [0.955383000000154, 11.016423], [0.95574, 11.01666500000016], [0.955840000000137, 11.016794000000175], [0.956025000000125, 11.016737], [0.956225000000188, 11.016551000000163], [0.95638200000019, 11.016480000000115], [0.957153, 11.016123000000107], [0.957638, 11.015766], [0.957995, 11.015538], [0.958352000000104, 11.015152], [0.958401, 11.015068], [0.958552000000168, 11.014809], [0.958684, 11.014536], [0.958618000000115, 11.014072], [0.958381, 11.013653], [0.95781, 11.013068], [0.957524, 11.012368], [0.957481, 11.011883000000125], [0.958238000000108, 11.010998], [0.959223, 11.010169], [0.959851000000185, 11.009584000000132], [0.960165, 11.009399], [0.961022, 11.009127000000149], [0.961593, 11.008685000000185], [0.96222100000017, 11.008114], [0.962621, 11.007543], [0.963164, 11.006743], [0.963578000000155, 11.006358], [0.964177000000177, 11.005944], [0.964934, 11.005273000000102], [0.965619000000117, 11.004230000000177], [0.966019000000188, 11.003616], [0.966433000000109, 11.00301700000017], [0.967061, 11.002389], [0.967932000000189, 11.00176], [0.968646, 11.001346000000126], [0.96928800000012, 11.000975000000153], [0.970059000000106, 11.000761000000182], [0.970702, 11.000461], [0.971516, 11.000000000000114], [0.972286000000167, 10.999705], [0.972986, 10.999548], [0.973329000000149, 10.99949], [0.974205000000154, 10.999438000000168], [0.974514000000113, 10.999419], [0.975327000000107, 10.999176000000148], [0.975927000000183, 10.998777000000189], [0.976412000000153, 10.998177000000112], [0.976741, 10.997449], [0.976727, 10.996963], [0.976548, 10.996524], [0.976324000000147, 10.996112], [0.976604, 10.994884000000127], [0.977001, 10.994214000000113], [0.977178, 10.993555000000129], [0.977305000000115, 10.993175000000122], [0.97747, 10.992336000000137], [0.977844000000175, 10.991765000000157], [0.977781000000107, 10.991153000000168], [0.977870000000166, 10.99038000000013], [0.978197, 10.989279000000181], [0.978822, 10.987822], [0.979387, 10.986543], [0.980101, 10.984788], [0.980246000000136, 10.984395000000177], [0.980398, 10.983985000000189], [0.980458, 10.98342], [0.980428, 10.982765000000143], [0.980249000000185, 10.982319000000189], [0.979624000000172, 10.981992000000105], [0.978792, 10.981932000000143], [0.978493, 10.982], [0.978138000000115, 10.982081], [0.977186, 10.981992000000105], [0.976663000000144, 10.98182700000018], [0.976056, 10.981635], [0.975411000000122, 10.981368], [0.975351000000103, 10.98134], [0.974665000000186, 10.980853], [0.97455500000018, 10.98077000000012], [0.974408, 10.980665000000101], [0.974056, 10.980332], [0.973688, 10.979557000000113], [0.97326, 10.978605000000186], [0.972868, 10.977713000000108], [0.972641, 10.977058000000113], [0.971951000000161, 10.976106000000186], [0.971547000000157, 10.975476000000128], [0.971119000000101, 10.974941], [0.970809, 10.974453], [0.970357, 10.973929], [0.969774, 10.973382], [0.96923900000013, 10.973132], [0.968811, 10.972775000000127], [0.96870900000016, 10.972697], [0.968463, 10.972509000000116], [0.968107, 10.972236], [0.967922, 10.972094], [0.967645, 10.971883], [0.966883, 10.971371], [0.966479, 10.970895000000155], [0.965313, 10.970063], [0.964016000000186, 10.968992], [0.963112, 10.968349], [0.962303, 10.96790900000019], [0.961636, 10.967719000000102], [0.960839, 10.967219000000114], [0.959697, 10.96622], [0.959293000000173, 10.965875], [0.958864, 10.965589], [0.958424, 10.965030000000183], [0.957841000000144, 10.964423], [0.957627000000173, 10.964114], [0.957461000000137, 10.963733000000161], [0.957139000000154, 10.963353000000154], [0.956473, 10.962841], [0.95564, 10.962329000000182], [0.955057000000181, 10.962115], [0.954082000000142, 10.961758], [0.951191, 10.960688000000118], [0.949585, 10.960045], [0.9487400000001, 10.959641], [0.94799, 10.959426000000121], [0.947312, 10.959307], [0.946658000000127, 10.959367], [0.946487, 10.959432000000106], [0.946218000000158, 10.95953400000019], [0.945706, 10.959724000000108], [0.945111, 10.960021000000154], [0.944749000000115, 10.960191], [0.944528000000105, 10.960295], [0.944064, 10.96058], [0.943767, 10.960878], [0.943564, 10.96115200000014], [0.943434, 10.961568000000113], [0.943431000000146, 10.961735], [0.943422000000112, 10.962246], [0.943508000000122, 10.962593], [0.943386000000146, 10.962912], [0.943291000000102, 10.963043], [0.942943, 10.963554000000101], [0.942571, 10.964098], [0.942494, 10.964221], [0.942042000000129, 10.964709], [0.941518000000144, 10.965256], [0.940983, 10.965922], [0.940435, 10.967148000000122], [0.940019, 10.968242], [0.939496, 10.969206], [0.938853, 10.970241], [0.938603000000171, 10.970884000000126], [0.938270000000159, 10.97156200000012], [0.937973, 10.971966000000123], [0.937521000000174, 10.972751], [0.937116, 10.973703000000171], [0.936961, 10.974132000000111], [0.936890000000176, 10.974381000000108], [0.936557000000164, 10.974786], [0.93595, 10.975642000000164], [0.935320000000104, 10.976178000000118], [0.934653, 10.976844000000142], [0.933725000000152, 10.977974], [0.933119, 10.978998], [0.932571, 10.980021000000136], [0.9324170000001, 10.98063900000011], [0.932262, 10.981139], [0.932310000000143, 10.981924], [0.932238, 10.983126], [0.932274000000177, 10.984137000000146], [0.932226000000128, 10.985018], [0.932036, 10.985565000000179], [0.931572000000187, 10.986279], [0.931072, 10.986814000000152], [0.930632, 10.9869920000001], [0.92999, 10.987421], [0.929228, 10.988051000000155], [0.928824, 10.988432], [0.928384, 10.988611000000162], [0.927991, 10.988646000000188], [0.92732500000011, 10.988611000000162], [0.926873, 10.988646000000188], [0.926587, 10.988694], [0.926147000000185, 10.9886580000001], [0.925948, 10.988554], [0.925647, 10.988396000000137], [0.925136, 10.98801600000013], [0.924719000000152, 10.987742], [0.92444600000016, 10.987468], [0.924100000000124, 10.987064], [0.923851000000127, 10.986398000000179], [0.923744000000113, 10.985636], [0.923934, 10.984839000000136], [0.92416, 10.983899000000179], [0.924267, 10.983542000000114], [0.924350000000175, 10.981008], [0.924411, 10.979749], [0.924481000000185, 10.979521000000148], [0.924755000000118, 10.979069], [0.924921, 10.978058], [0.92495700000012, 10.976999], [0.924969, 10.974905000000149], [0.924849000000108, 10.974388000000147], [0.92482600000011, 10.974286], [0.924731, 10.973656000000176], [0.924636, 10.973144000000104], [0.924624000000108, 10.97224], [0.924576, 10.97174], [0.924529, 10.971062000000131], [0.92441, 10.970479], [0.924315000000149, 10.969587000000104], [0.924350000000175, 10.969182], [0.924330000000111, 10.968992], [0.924417, 10.968524000000116], [0.924511, 10.967753], [0.924631, 10.967066], [0.924759000000108, 10.966596], [0.924822000000177, 10.965770000000134], [0.92481, 10.965269], [0.924541, 10.963995000000182], [0.924112, 10.9631270000001], [0.923399000000188, 10.962234000000137], [0.922847000000161, 10.96122], [0.922484000000168, 10.960273], [0.922192000000166, 10.95958300000018], [0.922050000000127, 10.959297000000106], [0.921705, 10.958827000000156], [0.92136, 10.958358], [0.920527, 10.957063], [0.920115, 10.956345000000113], [0.919675, 10.955203000000154], [0.919211, 10.954358], [0.91873500000014, 10.953811], [0.918366000000162, 10.953038], [0.918128, 10.952014], [0.917997000000184, 10.950682], [0.917926000000136, 10.949504], [0.917985, 10.948766], [0.918152, 10.948207], [0.918842, 10.947398], [0.919234000000188, 10.947006000000101], [0.919461000000126, 10.945649000000117], [0.919853, 10.944876], [0.920567000000176, 10.943972], [0.922149000000161, 10.942092000000173], [0.922911000000113, 10.941176], [0.923803, 10.939986000000147], [0.925136, 10.938416000000132], [0.925373, 10.93807100000015], [0.926171, 10.937274000000116], [0.926670000000115, 10.936833], [0.927206, 10.93666700000017], [0.927901, 10.93637200000012], [0.928324, 10.936179], [0.928871000000129, 10.936084], [0.929146000000173, 10.936205000000143], [0.929276, 10.936262], [0.929454, 10.936631], [0.93004900000011, 10.936631], [0.93062, 10.936441000000116], [0.931037000000117, 10.935989], [0.931227, 10.93557200000015], [0.931298, 10.935323000000153], [0.931572000000187, 10.934954000000175], [0.931953, 10.934525], [0.932345000000169, 10.933907], [0.932345000000169, 10.933324000000141], [0.932226000000128, 10.932658000000117], [0.932072000000176, 10.932182000000182], [0.931727, 10.931206], [0.931358, 10.930433], [0.930608000000177, 10.92992100000015], [0.93037, 10.929148000000112], [0.930323, 10.928256], [0.930537000000129, 10.92741100000012], [0.930989, 10.926828], [0.931345, 10.926528], [0.931596, 10.926316], [0.932119000000114, 10.926162000000147], [0.932667, 10.926281], [0.932899, 10.926455], [0.933023000000162, 10.926828], [0.933702, 10.92732800000016], [0.933868, 10.927577000000156], [0.934308, 10.927839000000176], [0.934796000000119, 10.927887], [0.935034, 10.927637000000175], [0.935051000000101, 10.927554], [0.935094000000106, 10.927339000000188], [0.935105, 10.926947], [0.935641, 10.927101], [0.936093000000142, 10.927506000000164], [0.936188000000186, 10.927851], [0.936358, 10.928221000000178], [0.936390000000188, 10.928291000000115], [0.936819000000185, 10.928493000000117], [0.937271, 10.928470000000175], [0.937794, 10.928184000000101], [0.938116, 10.927792000000181], [0.938425000000166, 10.92703], [0.938544, 10.926388], [0.938568, 10.926257], [0.938663, 10.925079], [0.938996, 10.92412700000017], [0.939377, 10.922830000000147], [0.93965, 10.922081000000162], [0.939698, 10.921771], [0.93987600000014, 10.921319], [0.940209, 10.920487], [0.940424, 10.920153], [0.940602000000183, 10.919618000000128], [0.940602000000183, 10.91911800000014], [0.940519, 10.918726], [0.940400000000182, 10.918464], [0.940102, 10.918393], [0.940007000000151, 10.918286], [0.93987600000014, 10.918048], [0.939638000000173, 10.917750000000126], [0.939115, 10.917643000000169], [0.938615, 10.91771400000016], [0.938258, 10.918024], [0.937663, 10.918], [0.937235000000101, 10.917917000000102], [0.9367, 10.917750000000126], [0.93646200000012, 10.917477], [0.936331000000109, 10.916917000000126], [0.936283, 10.91603700000013], [0.936367, 10.915561], [0.936609, 10.915067], [0.937009000000103, 10.914716], [0.937592000000166, 10.914467], [0.938234, 10.914193000000125], [0.938639000000137, 10.914098], [0.93899, 10.914079000000129], [0.939305000000161, 10.914062000000172], [0.939698, 10.91411], [0.940328, 10.914038000000119], [0.94070900000014, 10.913955], [0.94159, 10.913301], [0.942172, 10.912848], [0.942601, 10.912384], [0.942989000000125, 10.911987], [0.943124000000125, 10.911849000000188], [0.94321900000017, 10.911421000000132], [0.943291000000102, 10.911064], [0.943231, 10.910457000000122], [0.943136, 10.90972], [0.942982, 10.909053000000142], [0.942672, 10.90847], [0.942541, 10.907816], [0.942446000000189, 10.907031000000131], [0.942415, 10.906815], [0.942335, 10.90654], [0.942266000000188, 10.905781000000104], [0.942227000000173, 10.905119], [0.941728, 10.904691000000184], [0.941261000000168, 10.904387], [0.940899, 10.904092000000162], [0.940233, 10.903592000000174], [0.939222, 10.90295], [0.938680000000147, 10.902602000000172], [0.938316, 10.902381000000162], [0.937859, 10.902067000000102], [0.936890000000176, 10.901546], [0.936569, 10.901177], [0.936355000000162, 10.900594000000126], [0.936033000000123, 10.899940000000186], [0.935986000000185, 10.899286], [0.935843, 10.89881000000014], [0.935903, 10.898441000000162], [0.935962000000131, 10.898072000000184], [0.935641, 10.897822], [0.935355000000186, 10.897739000000115], [0.93501, 10.897739000000115], [0.934677, 10.897513000000117], [0.934320000000184, 10.897430000000156], [0.933951, 10.897323], [0.933511, 10.897441000000185], [0.93319, 10.897715000000119], [0.932762, 10.897858], [0.932391, 10.898020000000145], [0.932107, 10.898143000000175], [0.931346000000133, 10.898393], [0.930287, 10.898536], [0.929359, 10.898572000000115], [0.92875, 10.898532], [0.928265000000124, 10.8985], [0.927503000000115, 10.898322], [0.92692, 10.897953], [0.926230000000146, 10.897406000000103], [0.925773000000163, 10.897055], [0.925210000000106, 10.896834], [0.924010000000123, 10.89677], [0.923425, 10.896856], [0.923042000000123, 10.897096], [0.922459, 10.897668000000124], [0.922111, 10.898187], [0.921935, 10.898774000000174], [0.921757, 10.899369], [0.920948, 10.900035], [0.920317, 10.900368], [0.91958, 10.900380000000155], [0.918830000000185, 10.900083000000109], [0.918711, 10.900035], [0.917569, 10.899619], [0.916867, 10.899369], [0.91633, 10.899077], [0.916196000000184, 10.898992], [0.915642000000162, 10.89861900000011], [0.915339000000131, 10.898288], [0.915166, 10.898084], [0.914618000000189, 10.897323], [0.914214000000129, 10.89674], [0.913738, 10.896406000000184], [0.912834, 10.896418], [0.911941000000184, 10.897061000000178], [0.910848, 10.89812], [0.910783000000151, 10.898172000000102], [0.910085, 10.898726], [0.906409, 10.901046], [0.90311400000013, 10.903176], [0.902447000000166, 10.903698], [0.898019, 10.907164000000137], [0.897855, 10.907292], [0.894121000000155, 10.909782], [0.89402900000016, 10.909850000000176], [0.893871, 10.909952], [0.893802, 10.909997], [0.893065000000149, 10.910465], [0.892267, 10.910975000000178], [0.8917147899780089, 10.911321810519771], [0.89080196600014, 10.913813591000121], [0.890523016000145, 10.920939445000158], [0.899445057000037, 10.94513511700012], [0.899855971000079, 10.953644753000106], [0.907392979, 10.976222992000089], [0.912155032000157, 10.996489525000186], [0.921565055999963, 11.017465591000075], [0.94451004300015, 11.033926964000045], [0.9454380297796003, 11.034331761721885], [0.945462000000134, 11.034271000000103]]]}}]}