{"type":"FeatureCollection","features":[{"type":"Feature","properties":{"place":"la-guera","region":"area/la-guera","donors":"EH MR","rank":3,"whose_line":"OSM mappers: Morocco's commune of La Güera (HCP code 12.066.01.03), the unit the claimant names","publisher":"OpenStreetMap contributors","source_url":"https://www.openstreetmap.org/relation/6182716","version_or_date":"snapshot 2026-10-04T06:57:51Z (Overpass attic query); relation 6182716 v20","feature_id":"relation 6182716","licence":"ODbL 1.0","notes":"Held by Mauritania, claimed by Morocco. Whether Mauritania's policing covers the whole commune is not stated; the register's 87.8 km² is unexplained (the commune is 243.7 km²).","input_sha256":"9aecb59eb9e9cc060c149390f264d7a93d9f4ab2b8676dea9619a93a946bed50","operation":"assembled from the OSM element's member ways (outer minus inner)","crs":"WGS84 longitude/latitude, as in the source (no reprojection)","source_features":[{"id":"relation 6182716 v20","osm":"relation/6182716","version":20,"timestamp":"2025-11-04T00:20:47Z","name":"الكويرة La Güera","name:en":"La Güera","boundary":"administrative","admin_level":"8"}]},"geometry":{"type":"Polygon","coordinates":[[[-17.026535,21.0679094],[-17.0275,21.066944],[-17.0297416,21.0626378],[-17.0320904,21.0581504],[-17.0322882,21.057489],[-17.0325647,21.0565641],[-17.033557,21.0532455],[-17.0344158,21.0475754],[-17.0347953,21.0451835],[-17.0351699,21.0427823],[-17.036552,21.0370317],[-17.0369866,21.0332135],[-17.0373264,21.0295269],[-17.0375,21.023333],[-17.037222,21.016667],[-17.0375,21.010556],[-17.038056,21.004167],[-17.039444,20.998889],[-17.040556,20.993333],[-17.0425,20.988333],[-17.044444,20.983611],[-17.0453161,20.9784307],[-17.046399,20.9740232],[-17.0468838,20.9686225],[-17.0486581,20.9634196],[-17.0496141,20.9595817],[-17.0506374,20.955541],[-17.0505858,20.9534961],[-17.0516229,20.9498951],[-17.0517719,20.9445121],[-17.0520501,20.9383541],[-17.0535293,20.9315543],[-17.053565,20.93139],[-17.0538695,20.9306654],[-17.0613755,20.912806],[-17.0631838,20.9037602],[-17.0636088,20.9024324],[-17.0640193,20.90115],[-17.0661288,20.8945591],[-17.0675826,20.8899233],[-17.0677945,20.8880864],[-17.068081,20.885333],[-17.0671374,20.8744109],[-17.0662296,20.8646604],[-17.065785,20.861785],[-17.0648857,20.8546028],[-17.0642492,20.850566],[-17.060278,20.814444],[-17.059444,20.808333],[-17.0542585,20.7889006],[-17.049762,20.7701123],[-17.0498505,20.7700534],[-17.0499404,20.7699932],[-17.050045,20.7699268],[-17.0502086,20.7699004],[-17.0503186,20.7699268],[-17.050387,20.7699594],[-17.0504299,20.7700246],[-17.0504312,20.7700672],[-17.0504221,20.7701211],[-17.0503736,20.7701888],[-17.0503695,20.7702352],[-17.0504071,20.7702678],[-17.0504433,20.7702917],[-17.0505305,20.7704321],[-17.0506431,20.7706829],[-17.0509301,20.7711669],[-17.0510736,20.7713525],[-17.0512292,20.7715531],[-17.0513579,20.7717613],[-17.0515403,20.7720196],[-17.0517455,20.7725061],[-17.0518273,20.772713],[-17.0519024,20.7729512],[-17.0519829,20.7731193],[-17.0520808,20.7732785],[-17.0522565,20.7734378],[-17.0524,20.7735581],[-17.0524657,20.773661],[-17.052526,20.7737838],[-17.05264,20.7739444],[-17.0527862,20.7741688],[-17.0528492,20.7742716],[-17.0529391,20.7744121],[-17.0531242,20.7746478],[-17.0532234,20.7747719],[-17.0533669,20.7749312],[-17.0535989,20.7751807],[-17.0537196,20.7752773],[-17.0538068,20.7753299],[-17.0539731,20.7754227],[-17.0541152,20.775503],[-17.0542467,20.7755682],[-17.0543808,20.7756484],[-17.0546114,20.7758114],[-17.0548341,20.7760108],[-17.0550205,20.7761261],[-17.0552069,20.7762453],[-17.0554483,20.7764334],[-17.0555489,20.7765149],[-17.0556602,20.7765913],[-17.0559096,20.7767694],[-17.056084,20.7769525],[-17.0562449,20.777123],[-17.0563924,20.777271],[-17.0564944,20.7774214],[-17.0565909,20.7775142],[-17.0566714,20.7775443],[-17.0567358,20.7775568],[-17.0568377,20.7776057],[-17.0569235,20.7777035],[-17.0570791,20.7779042],[-17.0572722,20.7781888],[-17.0574009,20.7783267],[-17.0576102,20.7785198],[-17.0578247,20.7787455],[-17.0580205,20.7790189],[-17.0582843,20.7793486],[-17.058396,20.7795229],[-17.058506,20.7797812],[-17.0585704,20.7800295],[-17.0586348,20.7804232],[-17.058742,20.7809423],[-17.0589298,20.7823767],[-17.0590371,20.7829434],[-17.0591605,20.7833848],[-17.0593751,20.7840519],[-17.0596433,20.7849094],[-17.0598364,20.785421],[-17.0600724,20.7859275],[-17.060523,20.787076],[-17.0607537,20.7877581],[-17.0610488,20.7884151],[-17.0613109,20.788872],[-17.0615691,20.7893654],[-17.0618748,20.7898194],[-17.0622665,20.7902306],[-17.0629263,20.7906819],[-17.0634681,20.7908575],[-17.0638999,20.7908876],[-17.0640957,20.7908299],[-17.064203,20.7906945],[-17.0643076,20.790361],[-17.0644283,20.7903108],[-17.0645356,20.7903259],[-17.0651794,20.7908994],[-17.0654637,20.7910681],[-17.0657319,20.7911734],[-17.0659357,20.7913138],[-17.0662657,20.7916147],[-17.0667028,20.7923971],[-17.0671535,20.7931744],[-17.0675129,20.7939217],[-17.067654,20.7943821],[-17.0677612,20.7948753],[-17.0678248,20.795807],[-17.0678347,20.79673],[-17.067765,20.7978283],[-17.0678723,20.7991923],[-17.06806,20.8003507],[-17.0685697,20.8021059],[-17.0688111,20.8028932],[-17.0690149,20.8031841],[-17.0692027,20.8033446],[-17.069774,20.8034749],[-17.070002,20.8036153],[-17.0703566,20.8038583],[-17.0707276,20.8041074],[-17.07115,20.8043224],[-17.0715201,20.8044077],[-17.0716783,20.8045155],[-17.0717749,20.8046433],[-17.0720136,20.8050421],[-17.072255,20.8061251],[-17.0724025,20.8067169],[-17.0726466,20.8077223],[-17.0728558,20.8086951],[-17.0730865,20.8098083],[-17.0732582,20.810716],[-17.0733976,20.8113077],[-17.0735532,20.8118442],[-17.0737946,20.8123657],[-17.0740843,20.8128922],[-17.0743471,20.8133636],[-17.0748889,20.814211],[-17.0751733,20.8144717],[-17.0753986,20.814572],[-17.0757473,20.8146573],[-17.0759565,20.8146823],[-17.0765251,20.8147124],[-17.0769864,20.8147726],[-17.0773619,20.8147726],[-17.0776141,20.8148277],[-17.077775,20.8148979],[-17.0779789,20.8150634],[-17.0780754,20.8152189],[-17.078231,20.8157504],[-17.0783436,20.8163972],[-17.078467,20.8167181],[-17.0785797,20.8169287],[-17.0787889,20.8175555],[-17.0791161,20.8179867],[-17.0795399,20.818438],[-17.0801461,20.8199172],[-17.0803392,20.8202531],[-17.0803499,20.8204587],[-17.0803392,20.8208598],[-17.0805591,20.8221535],[-17.0807067,20.8227777],[-17.0807549,20.822873],[-17.0808354,20.8229081],[-17.0809373,20.8228755],[-17.0810768,20.8229131],[-17.0811439,20.8229658],[-17.0813853,20.8235925],[-17.0816267,20.8243446],[-17.0819539,20.8251268],[-17.0823294,20.8256181],[-17.0826995,20.8261145],[-17.0830053,20.8264504],[-17.0837456,20.8271875],[-17.0843196,20.8276638],[-17.084899,20.8280123],[-17.0855024,20.8283356],[-17.0863205,20.8285463],[-17.0867819,20.828461],[-17.0876911,20.8282379],[-17.088021,20.828105],[-17.0885226,20.8276989],[-17.0888311,20.8274282],[-17.0890081,20.8271699],[-17.0891583,20.8269769],[-17.0894131,20.8268716],[-17.0896545,20.8268716],[-17.0899442,20.8269293],[-17.0901936,20.8270922],[-17.0906925,20.8275184],[-17.0913389,20.8279446],[-17.0918539,20.8282254],[-17.0921999,20.8284134],[-17.0924413,20.8284786],[-17.092672,20.828461],[-17.093018,20.8285012],[-17.0934177,20.8284836],[-17.0936859,20.8284761],[-17.09393,20.8284159],[-17.0941418,20.8283482],[-17.0943537,20.8282404],[-17.0945106,20.8281639],[-17.094677,20.8280574],[-17.0947447,20.8279791],[-17.0948017,20.8279045],[-17.0948684,20.8278545],[-17.0949512,20.8278017],[-17.0951074,20.827561],[-17.0952027,20.8273918],[-17.0951705,20.8272514],[-17.0951208,20.8271424],[-17.0950719,20.8270265],[-17.0950092,20.8268866],[-17.0949197,20.8267738],[-17.0947507,20.8266861],[-17.0945073,20.826682],[-17.0944315,20.8266686],[-17.0943819,20.826636],[-17.0943564,20.8265181],[-17.0943537,20.826305],[-17.0943162,20.8261647],[-17.0942411,20.8260142],[-17.0942974,20.825929],[-17.0944449,20.8258864],[-17.0947883,20.8259917],[-17.0949197,20.8260995],[-17.0950833,20.8263351],[-17.095212,20.8264204],[-17.095314,20.8264153],[-17.0953837,20.8263552],[-17.0954481,20.8263727],[-17.0954907,20.8265135],[-17.0955795,20.826646],[-17.0957834,20.8269719],[-17.0959604,20.8276488],[-17.0960194,20.8278944],[-17.0961535,20.8282554],[-17.0965505,20.8287669],[-17.097162,20.8296568],[-17.0975724,20.8301106],[-17.097736,20.8301808],[-17.0978862,20.8301983],[-17.097972,20.830281],[-17.0979747,20.8304916],[-17.0979506,20.8306821],[-17.0980659,20.831176],[-17.0985767,20.8326396],[-17.0990342,20.8334071],[-17.0994714,20.8338608],[-17.0997477,20.8340814],[-17.1000212,20.8344449],[-17.1003458,20.8348836],[-17.1005872,20.835014],[-17.1007401,20.8350014],[-17.1008715,20.8349764],[-17.1010861,20.8349112],[-17.1015206,20.8349338],[-17.101762,20.8348936],[-17.1019498,20.8347808],[-17.1020973,20.8347909],[-17.1022689,20.8348661],[-17.1023843,20.8349989],[-17.1025372,20.8354727],[-17.1025425,20.8356808],[-17.102446,20.835944],[-17.1023843,20.8362122],[-17.1024165,20.8365431],[-17.1025667,20.836859],[-17.1028054,20.8373077],[-17.1029088,20.8377804],[-17.1029091,20.8379742],[-17.1028778,20.8382176],[-17.102564,20.8391577],[-17.1025774,20.839283],[-17.1026149,20.8393861],[-17.1027195,20.8394585],[-17.1028644,20.8395613],[-17.1031085,20.8397693],[-17.1032962,20.8400501],[-17.1034545,20.8402356],[-17.1035537,20.8404486],[-17.1036154,20.8408096],[-17.1035484,20.8412683],[-17.1035618,20.8416017],[-17.1036851,20.8421307],[-17.1038246,20.842459],[-17.1041545,20.8427648],[-17.1044067,20.8429654],[-17.1045226,20.8431853],[-17.104588,20.8436501],[-17.1046186,20.843765],[-17.1046266,20.843859],[-17.1046078,20.8438979],[-17.1045931,20.8439279],[-17.1044576,20.8439906],[-17.1042806,20.8442187],[-17.1041438,20.844685],[-17.1041143,20.8451512],[-17.1039962,20.8455924],[-17.1038032,20.846026],[-17.1035349,20.8466978],[-17.1034437,20.8473445],[-17.1033955,20.8480012],[-17.1033338,20.8486379],[-17.1032104,20.8490465],[-17.1029905,20.8493147],[-17.1026899,20.8495384],[-17.1023668,20.8497409],[-17.1017714,20.8501512],[-17.1013195,20.8505028],[-17.1007937,20.8509114],[-17.1002439,20.8513174],[-17.0996109,20.8518037],[-17.098715,20.8526258],[-17.0979828,20.8532224],[-17.0975241,20.8535557],[-17.0961615,20.8546912],[-17.0949894,20.8556136],[-17.0938173,20.8566538],[-17.0927498,20.8578117],[-17.0921597,20.8584433],[-17.0919532,20.8586639],[-17.0916152,20.8590299],[-17.0910761,20.8596414],[-17.0903894,20.8605086],[-17.089963,20.8609297],[-17.089735,20.8612154],[-17.0895445,20.8615237],[-17.0890912,20.8621854],[-17.0888418,20.8624937],[-17.0883778,20.8631127],[-17.0874578,20.8643258],[-17.0871279,20.8647795],[-17.085591,20.8671379],[-17.0848802,20.8685464],[-17.0840728,20.8702206],[-17.0837172,20.8708996],[-17.0829624,20.8721428],[-17.0827451,20.8728546],[-17.0826083,20.8731854],[-17.0823991,20.8735764],[-17.0820558,20.874045],[-17.0817071,20.8747067],[-17.0815596,20.8751127],[-17.0814174,20.8755237],[-17.0811063,20.8761001],[-17.0809507,20.8764935],[-17.0808059,20.8769672],[-17.0806342,20.8773982],[-17.0802534,20.8783004],[-17.0798608,20.8791547],[-17.0794586,20.8800268],[-17.0792878,20.8804958],[-17.0790732,20.880987],[-17.0788881,20.8814631],[-17.0786682,20.8820921],[-17.0783141,20.8829742],[-17.078054,20.8842172],[-17.0778474,20.8861669],[-17.0776382,20.8868986],[-17.0775685,20.8872695],[-17.0775443,20.88749],[-17.0775926,20.8882894],[-17.0777857,20.8894271],[-17.0778742,20.8897554],[-17.077952,20.8898481],[-17.0780566,20.8899132],[-17.0781291,20.890031],[-17.0781398,20.8902164],[-17.0781317,20.8904821],[-17.0780969,20.891507],[-17.0781076,20.8921009],[-17.0782793,20.8930556],[-17.0784885,20.893677],[-17.0787942,20.8941807],[-17.0791751,20.8944814],[-17.0794675,20.8945967],[-17.0796741,20.8946092],[-17.0799289,20.8945792],[-17.0805189,20.894306],[-17.0806665,20.8943161],[-17.08083,20.8944764],[-17.0810661,20.8950051],[-17.0810714,20.8952131],[-17.0808998,20.8959824],[-17.0807979,20.8962731],[-17.0806906,20.896679],[-17.0806369,20.8969922],[-17.0806503,20.8976137],[-17.0806423,20.8984481],[-17.080822,20.8989593],[-17.0810795,20.8993251],[-17.0812243,20.8996985],[-17.0813102,20.9000117],[-17.0814953,20.9007759],[-17.0816132,20.9011392],[-17.0817393,20.901455],[-17.0822811,20.9023971],[-17.0828202,20.9029483],[-17.0832869,20.9032515],[-17.0837188,20.9033743],[-17.0840782,20.9033643],[-17.0844457,20.9031989],[-17.084687,20.9030261],[-17.084797,20.9029008],[-17.0848493,20.9028544],[-17.0849016,20.9028506],[-17.0849405,20.9028807],[-17.084966,20.9029333],[-17.0849982,20.9030285],[-17.085025,20.9030912],[-17.0850626,20.9032189],[-17.0851296,20.9034219],[-17.0851886,20.9036023],[-17.0853361,20.9037277],[-17.0854327,20.9037702],[-17.0855105,20.9038654],[-17.085532,20.9039607],[-17.0854327,20.9042989],[-17.0853898,20.9044969],[-17.0853016,20.905075],[-17.0851967,20.9059727],[-17.0851994,20.9069774],[-17.0854595,20.9084307],[-17.0856875,20.9090671],[-17.086004,20.9095958],[-17.0867148,20.910345],[-17.0871949,20.9106632],[-17.0874417,20.9107133],[-17.0877501,20.9107383],[-17.0880237,20.9106632],[-17.0881766,20.9105053],[-17.088308,20.9103399],[-17.0883939,20.9102973],[-17.0884636,20.9103349],[-17.0886245,20.9107809],[-17.0889488,20.911643],[-17.0893877,20.9121902],[-17.0897752,20.9124446],[-17.0901856,20.9126125],[-17.090553,20.9126275],[-17.0909151,20.9125448],[-17.0911163,20.9123519],[-17.0911378,20.9119335],[-17.0912182,20.9118884],[-17.0913122,20.9119034],[-17.0914033,20.9121189],[-17.091583,20.9125373],[-17.0915964,20.913061],[-17.0916313,20.913299],[-17.0917171,20.9134368],[-17.0919666,20.9136197],[-17.0920095,20.913765],[-17.0920095,20.9139404],[-17.0919344,20.9141534],[-17.0918861,20.9152207],[-17.0919746,20.915584],[-17.092106,20.9158471],[-17.0922241,20.9159347],[-17.0923421,20.9159949],[-17.0925835,20.9159798],[-17.0926854,20.9159873],[-17.0927927,20.9160625],[-17.0928302,20.9162179],[-17.0928973,20.9165261],[-17.0928302,20.9169119],[-17.0927525,20.9172952],[-17.0927605,20.9177863],[-17.0928088,20.9181045],[-17.0928302,20.91836],[-17.0928705,20.9186632],[-17.0929402,20.9189789],[-17.093069,20.9195902],[-17.0932567,20.9202867],[-17.0934096,20.9205723],[-17.093651,20.9208529],[-17.0939702,20.9210583],[-17.0944986,20.9211811],[-17.0947266,20.9213039],[-17.0949465,20.9215294],[-17.0950592,20.92181],[-17.0951343,20.922306],[-17.0949841,20.9228472],[-17.0945871,20.9236389],[-17.0944047,20.9243454],[-17.0940292,20.9250068],[-17.0938093,20.9257784],[-17.0936322,20.926074],[-17.0933694,20.9263396],[-17.0930851,20.9268206],[-17.0929885,20.9271212],[-17.0929507,20.92763],[-17.0928973,20.9277977],[-17.0926827,20.9280983],[-17.0925862,20.9284941],[-17.0924842,20.9288799],[-17.0923247,20.9292108],[-17.0920336,20.9300875],[-17.0919854,20.9304131],[-17.0919049,20.9304933],[-17.0916849,20.9305735],[-17.0912129,20.9311346],[-17.091068,20.9314954],[-17.0907462,20.9323171],[-17.0903707,20.9329284],[-17.0902902,20.933224],[-17.0902956,20.9335496],[-17.0904377,20.9338803],[-17.0903894,20.9340707],[-17.0902821,20.9341784],[-17.0899093,20.9345066],[-17.0896089,20.9348423],[-17.0893729,20.9352882],[-17.0893085,20.935679],[-17.0893461,20.936145],[-17.0893246,20.9364907],[-17.0888418,20.937633],[-17.0883966,20.9387503],[-17.088115,20.9392989],[-17.087903,20.939602],[-17.0876241,20.9399327],[-17.087431,20.9403084],[-17.0872968,20.9411501],[-17.0873398,20.9425029],[-17.0874417,20.9428134],[-17.0874149,20.943049],[-17.0872271,20.9433646],[-17.0868248,20.9442463],[-17.0866263,20.9447073],[-17.0865405,20.9451481],[-17.0865727,20.9454337],[-17.0868221,20.945812],[-17.086857,20.9459297],[-17.0868275,20.946095],[-17.0865083,20.946591],[-17.086181,20.9472172],[-17.0860255,20.9477282],[-17.0859021,20.9483394],[-17.0859182,20.94861],[-17.085945,20.9487753],[-17.0859397,20.9490408],[-17.0859289,20.9492162],[-17.0859236,20.9498474],[-17.0857251,20.9509846],[-17.0854086,20.9521819],[-17.085135,20.9527781],[-17.084856,20.9536448],[-17.0847541,20.9547369],[-17.0846897,20.955328],[-17.0848775,20.9561346],[-17.0850331,20.9566556],[-17.0850331,20.9569662],[-17.084915,20.9573168],[-17.08462,20.9580933],[-17.0844269,20.9585993],[-17.0838475,20.959521],[-17.0834559,20.960052],[-17.083236,20.9606531],[-17.0831233,20.9614747],[-17.0829302,20.9621009],[-17.0826781,20.9626519],[-17.0823991,20.9631829],[-17.0820558,20.9635987],[-17.0815943,20.9640697],[-17.081117,20.9646156],[-17.0805752,20.9652868],[-17.0797062,20.9663488],[-17.0790786,20.9670951],[-17.0786709,20.9677463],[-17.0780218,20.9690938],[-17.0777963,20.9695703],[-17.0776087,20.9702008],[-17.0773459,20.9707218],[-17.0768838,20.9713355],[-17.076391,20.9721043],[-17.0759557,20.9727376],[-17.075758,20.9730309],[-17.0755971,20.9732363],[-17.0750284,20.9737923],[-17.0748675,20.9739726],[-17.0747441,20.974163],[-17.0745724,20.9746438],[-17.0744866,20.9747841],[-17.0742184,20.9750345],[-17.0736498,20.9755254],[-17.0730597,20.9762367],[-17.0725876,20.976988],[-17.0723248,20.9772885],[-17.0719332,20.9776742],[-17.0716703,20.978135],[-17.0716274,20.9784857],[-17.0716918,20.9787762],[-17.0717239,20.9789114],[-17.0717079,20.9790567],[-17.0715952,20.9792069],[-17.0713967,20.9793622],[-17.0709515,20.9797629],[-17.0705813,20.9802488],[-17.0705545,20.980389],[-17.070533,20.9805844],[-17.0706618,20.9812806],[-17.0708925,20.9820569],[-17.07093,20.9823324],[-17.0709461,20.9825127],[-17.0708817,20.9828483],[-17.0708254,20.9830086],[-17.0706296,20.9833141],[-17.0704579,20.9835445],[-17.0702004,20.9839202],[-17.0699617,20.9842257],[-17.0697297,20.9845876],[-17.0695621,20.9849569],[-17.0692992,20.985548],[-17.0691356,20.9859286],[-17.0689076,20.9863619],[-17.068854,20.9866023],[-17.0688111,20.9868101],[-17.0686689,20.9871282],[-17.068626,20.9874086],[-17.0686045,20.9875564],[-17.0685884,20.9878243],[-17.0686045,20.9882701],[-17.068567,20.9883828],[-17.0680547,20.9891817],[-17.0679581,20.9894721],[-17.0678321,20.98966],[-17.0675799,20.9898929],[-17.0673519,20.9901633],[-17.0671454,20.9904989],[-17.0669684,20.9915231],[-17.0668584,20.9918036],[-17.0666975,20.9923294],[-17.0666304,20.9926926],[-17.066735,20.9930256],[-17.0667833,20.9932209],[-17.0668718,20.9934138],[-17.0668986,20.9935565],[-17.066896,20.9937243],[-17.0667645,20.9939547],[-17.0667189,20.994155],[-17.0667028,20.9945381],[-17.0667136,20.9946533],[-17.0666331,20.994791],[-17.0665044,20.994786],[-17.0664614,20.9948386],[-17.0664977,20.994895],[-17.0664909,20.9949275],[-17.0664373,20.9949513],[-17.0664051,20.9950314],[-17.0663703,20.9952643],[-17.0663676,20.9954872],[-17.066322,20.995645],[-17.0661799,20.9957676],[-17.0659921,20.9957877],[-17.0658955,20.9958678],[-17.0658821,20.9960406],[-17.0657882,20.9963085],[-17.0656085,20.9967317],[-17.0656434,20.9969346],[-17.0656353,20.9970322],[-17.0656085,20.9970948],[-17.0653859,20.9974028],[-17.065064,20.9980539],[-17.0647824,20.9984746],[-17.0644498,20.9989929],[-17.0642647,20.9994788],[-17.0641279,20.9998318],[-17.0638678,21.0002299],[-17.0636183,21.0006431],[-17.06346,21.0009937],[-17.0633554,21.0013017],[-17.0633206,21.001517],[-17.0633957,21.0017561],[-17.0634627,21.0018676],[-17.0635647,21.0019552],[-17.0635901,21.0020053],[-17.0636103,21.0020729],[-17.0636156,21.002138],[-17.0636103,21.0022106],[-17.0635995,21.0022532],[-17.0635647,21.0022958],[-17.063511,21.0023609],[-17.0634654,21.0025462],[-17.0634413,21.0026614],[-17.0634761,21.0028467],[-17.0635325,21.0029193],[-17.0635969,21.0029618],[-17.063621,21.0030245],[-17.0635915,21.0031221],[-17.0636237,21.0033349],[-17.0636988,21.0037857],[-17.0638222,21.0039184],[-17.0639321,21.0039935],[-17.0639858,21.0040536],[-17.0640206,21.0041212],[-17.0640126,21.0042464],[-17.063975,21.004334],[-17.0639026,21.0045519],[-17.0638785,21.0048824],[-17.0639455,21.0051779],[-17.0639884,21.005233],[-17.0640823,21.0052505],[-17.0642325,21.0051453],[-17.0643264,21.0051353],[-17.0644605,21.0051629],[-17.0645222,21.0052555],[-17.0645463,21.0055435],[-17.0646375,21.0057813],[-17.0647019,21.005919],[-17.0647234,21.0060793],[-17.0647609,21.0063372],[-17.0647663,21.0067629],[-17.0647422,21.007181],[-17.064769,21.0075541],[-17.0647717,21.0078195],[-17.0647448,21.0080199],[-17.0645329,21.0087785],[-17.06449,21.0090164],[-17.0645088,21.0092292],[-17.0646375,21.0094972],[-17.0647368,21.0097801],[-17.0647636,21.0099529],[-17.0647395,21.0104386],[-17.0645866,21.0109319],[-17.0644605,21.0112499],[-17.0643103,21.0115854],[-17.0641923,21.0120486],[-17.0641762,21.0123341],[-17.0642164,21.0126145],[-17.0641977,21.0127747],[-17.063975,21.0131528],[-17.063916,21.0133005],[-17.0637739,21.0140041],[-17.0637015,21.0146676],[-17.0635915,21.0159596],[-17.0635727,21.0162225],[-17.0635781,21.0165805],[-17.0636585,21.0168159],[-17.0638248,21.0170663],[-17.0639402,21.0171789],[-17.0641279,21.0172691],[-17.0643586,21.0172791],[-17.0644954,21.0172265],[-17.0645463,21.017209],[-17.0645973,21.0172115],[-17.064667,21.0172766],[-17.0647287,21.0174318],[-17.0648897,21.0177623],[-17.0649809,21.0178925],[-17.0650721,21.0179726],[-17.0652652,21.0180477],[-17.0653832,21.0180164],[-17.0654382,21.0179651],[-17.0654824,21.0179538],[-17.0655495,21.0179764],[-17.0655642,21.0180077],[-17.0655482,21.0180315],[-17.0654959,21.0180415],[-17.0654677,21.0180765],[-17.0654717,21.0181329],[-17.0655575,21.0182355],[-17.065579,21.0183206],[-17.0655414,21.0183482],[-17.0655146,21.0183958],[-17.0655227,21.0184283],[-17.0655951,21.0184483],[-17.0656058,21.0184934],[-17.0655629,21.0185184],[-17.0654878,21.0185385],[-17.0654435,21.0186023],[-17.0654248,21.0186574],[-17.0654382,21.0187237],[-17.06552,21.0187763],[-17.0655522,21.0188514],[-17.0655616,21.0189441],[-17.0655455,21.019063],[-17.0654717,21.0191919],[-17.0653403,21.0194398],[-17.0652732,21.019555],[-17.0651633,21.0197327],[-17.0650882,21.0198404],[-17.0650104,21.0199381],[-17.0649514,21.0200157],[-17.0647261,21.0204413],[-17.0643613,21.0214553],[-17.0642728,21.0216681],[-17.0641842,21.0218083],[-17.064136,21.0218859],[-17.064093,21.0219297],[-17.0640126,21.0220937],[-17.0639348,21.0221638],[-17.0638168,21.0221864],[-17.0637578,21.0222114],[-17.063731,21.022284],[-17.0637256,21.0223466],[-17.0639925,21.0226258],[-17.0640099,21.0227096],[-17.0639804,21.0227447],[-17.0638959,21.0227384],[-17.0638597,21.0227935],[-17.0638275,21.0228749],[-17.0638262,21.0230076],[-17.0638718,21.0231265],[-17.0638745,21.0232204],[-17.0638154,21.0233593],[-17.0637819,21.0235309],[-17.0638168,21.0237362],[-17.0639187,21.0238989],[-17.064018,21.0240842],[-17.0640121,21.0241545],[-17.0639024,21.0242771],[-17.0638758,21.0243671],[-17.0638865,21.0244222],[-17.0639509,21.0245724],[-17.063937,21.0246754],[-17.063889,21.0247345],[-17.0638007,21.0247351],[-17.0636988,21.0247126],[-17.0636371,21.0247376],[-17.0636371,21.0248653],[-17.0636063,21.0249114],[-17.0635057,21.0249154],[-17.0634842,21.0249554],[-17.063511,21.025033],[-17.0637202,21.0251582],[-17.0637685,21.0252133],[-17.0637873,21.025326],[-17.0638007,21.0254762],[-17.0638382,21.0255388],[-17.0639107,21.0256364],[-17.0639938,21.0259118],[-17.0639724,21.026002],[-17.0638114,21.0261822],[-17.0637846,21.0262949],[-17.0638128,21.02638],[-17.0639107,21.0265077],[-17.0642996,21.0267518],[-17.0644444,21.0268982],[-17.0644377,21.0269871],[-17.0643935,21.0270284],[-17.0643049,21.0270134],[-17.0642138,21.0270034],[-17.0641682,21.0269996],[-17.0640394,21.0270535],[-17.063798,21.0272813],[-17.063629,21.0275142],[-17.0633715,21.0279948],[-17.0631784,21.028448],[-17.063114,21.0285857],[-17.0630631,21.0286958],[-17.0629934,21.0288636],[-17.0629182,21.029184],[-17.0629022,21.0293417],[-17.0628767,21.0295026],[-17.0628103,21.029795],[-17.0628074,21.0299759],[-17.0628107,21.0301074],[-17.0628217,21.0302055],[-17.0628221,21.0303488],[-17.062833,21.0304084],[-17.062878,21.0305134],[-17.062996,21.0305885],[-17.0632374,21.0306211],[-17.0633769,21.0306937],[-17.0634145,21.0307362],[-17.0634353,21.0308616],[-17.0633275,21.0313777],[-17.0633022,21.0314354],[-17.0632422,21.0314853],[-17.0631435,21.0314978],[-17.0631136,21.0315249],[-17.0630971,21.0315699],[-17.0631075,21.0316338],[-17.0630954,21.0316905],[-17.0630497,21.0317451],[-17.0630229,21.0318403],[-17.0630094,21.0319454],[-17.0629773,21.0320255],[-17.0629692,21.0320681],[-17.0629504,21.0322208],[-17.0629317,21.0324186],[-17.0629317,21.0325413],[-17.0629521,21.0327965],[-17.062929,21.0328454],[-17.0628874,21.0328555],[-17.0627774,21.0328429],[-17.0627506,21.0328805],[-17.0627345,21.0329243],[-17.0627158,21.033042],[-17.0627057,21.0330908],[-17.0626903,21.0331509],[-17.0627395,21.0335104],[-17.0628277,21.0335671],[-17.0629531,21.0336103],[-17.0630148,21.0336703],[-17.0630025,21.0337641],[-17.0629464,21.0338081],[-17.0627788,21.0337855],[-17.0626198,21.0337849],[-17.0625731,21.0338007],[-17.0625253,21.033957],[-17.0625213,21.034166],[-17.0625682,21.0342286],[-17.0627064,21.0343313],[-17.062819,21.0344214],[-17.0628834,21.034529],[-17.0629424,21.0346717],[-17.0629182,21.0347368],[-17.0626715,21.0348345],[-17.0626313,21.0350097],[-17.0627305,21.0352525],[-17.0629665,21.0353652],[-17.0630121,21.0354403],[-17.063055,21.0359335],[-17.0631462,21.0360737],[-17.0631301,21.0361563],[-17.0630497,21.0362414],[-17.0630255,21.036329],[-17.0630685,21.0363941],[-17.0632267,21.0364918],[-17.0633018,21.0365568],[-17.0634171,21.036682],[-17.0634466,21.0368247],[-17.063452,21.037015],[-17.0634091,21.0371652],[-17.0633662,21.037378],[-17.0633394,21.0374831],[-17.0632938,21.0377685],[-17.063275,21.0379262],[-17.0633125,21.038164],[-17.0633447,21.0382567],[-17.0634279,21.0383818],[-17.0636076,21.0386923],[-17.0636532,21.0387974],[-17.0637041,21.0389476],[-17.0637766,21.0390978],[-17.0638409,21.0393156],[-17.0638517,21.0395509],[-17.0637203,21.0396886],[-17.0635942,21.0397086],[-17.0634949,21.0397862],[-17.0634761,21.0399089],[-17.0635244,21.039989],[-17.0635164,21.0400266],[-17.0634896,21.0400591],[-17.0634198,21.0400892],[-17.0633957,21.0401893],[-17.063444,21.0402819],[-17.063731,21.040317],[-17.064026,21.0404772],[-17.0640743,21.0405573],[-17.0641038,21.0406449],[-17.0640984,21.0407],[-17.0640233,21.0407375],[-17.0639455,21.040715],[-17.0637551,21.0405948],[-17.0636154,21.0405915],[-17.0634225,21.04071],[-17.0633367,21.0408402],[-17.063275,21.0410505],[-17.0632911,21.0413884],[-17.063342,21.0414685],[-17.0633474,21.0415611],[-17.0633179,21.0416688],[-17.0632321,21.041844],[-17.0632428,21.0420368],[-17.063224,21.0423472],[-17.0633394,21.0424924],[-17.0633259,21.042585],[-17.0631194,21.0427327],[-17.063055,21.0428278],[-17.0630819,21.0429155],[-17.0631784,21.042963],[-17.0634761,21.0432234],[-17.0635352,21.0433185],[-17.063511,21.0434812],[-17.0634359,21.0435438],[-17.0632857,21.0435413],[-17.0631623,21.0435588],[-17.0631355,21.0436214],[-17.0631248,21.0437065],[-17.0631731,21.0438517],[-17.0632133,21.0440269],[-17.0633313,21.0442022],[-17.0633447,21.0444325],[-17.0634332,21.0445877],[-17.063444,21.0446828],[-17.0633742,21.0448305],[-17.0632911,21.0450107],[-17.0632401,21.0452786],[-17.0632938,21.0456791],[-17.0634545,21.0459626],[-17.0635781,21.0461497],[-17.0635942,21.0463099],[-17.0635486,21.0465628],[-17.0636076,21.0468131],[-17.0637336,21.0469458],[-17.0637497,21.0470209],[-17.0637149,21.0470759],[-17.0636746,21.0471047],[-17.0636572,21.047146],[-17.0636693,21.0473263],[-17.0637926,21.0477168],[-17.0639294,21.0480572],[-17.0639965,21.0482825],[-17.0640367,21.0485053],[-17.0640796,21.0489484],[-17.064136,21.0492362],[-17.0642969,21.0496242],[-17.0644283,21.049847],[-17.0645812,21.0499797],[-17.0646215,21.0500748],[-17.0646564,21.0503201],[-17.0647475,21.0505304],[-17.0647958,21.0506706],[-17.0648012,21.0508333],[-17.0647314,21.0510311],[-17.0645705,21.0512413],[-17.064482,21.0515117],[-17.0644847,21.051757],[-17.0644793,21.0520611],[-17.0644069,21.0522038],[-17.0641212,21.0524216],[-17.0638624,21.0526331],[-17.0636612,21.0528258],[-17.0635271,21.0531813],[-17.063401,21.0536669],[-17.0633635,21.0538171],[-17.0633675,21.053971],[-17.0633635,21.0540461],[-17.0633501,21.0541137],[-17.0632911,21.0543002],[-17.0632696,21.0543828],[-17.0632374,21.0545029],[-17.0632535,21.0546031],[-17.0633045,21.0546832],[-17.0634896,21.0548008],[-17.0636867,21.0548321],[-17.0637457,21.0548484],[-17.0637766,21.0549085],[-17.0637806,21.0550198],[-17.0637645,21.0550724],[-17.0636183,21.0552977],[-17.063617,21.0553665],[-17.0636438,21.0554366],[-17.0636867,21.0554917],[-17.0638154,21.0556794],[-17.063857,21.0557245],[-17.0638718,21.0557745],[-17.063849,21.0562752],[-17.0638691,21.0564967],[-17.0638785,21.0565568],[-17.0638637,21.0566669],[-17.0638195,21.0569235],[-17.0638248,21.0570862],[-17.0638731,21.0572313],[-17.0639227,21.0574253],[-17.0639576,21.0576031],[-17.0639522,21.0576819],[-17.0639147,21.0579009],[-17.0639107,21.0579973],[-17.0639335,21.0580749],[-17.0640019,21.05814],[-17.0640206,21.0582101],[-17.0640059,21.0582576],[-17.0639616,21.0582801],[-17.0637779,21.0582977],[-17.063676,21.0583127],[-17.0636237,21.058329],[-17.0635767,21.0583828],[-17.0635124,21.0585467],[-17.0635311,21.0588709],[-17.0635083,21.0590649],[-17.0635137,21.0591124],[-17.06357,21.0592851],[-17.0635754,21.0593377],[-17.0635539,21.0594516],[-17.0635439,21.0594891],[-17.0635385,21.0595304],[-17.0635298,21.0595655],[-17.0635164,21.0595805],[-17.0634265,21.0596118],[-17.0632562,21.0597357],[-17.0631878,21.0598008],[-17.0631583,21.0599134],[-17.0631489,21.0601362],[-17.063169,21.0603352],[-17.0631731,21.060409],[-17.0631516,21.0604403],[-17.0631087,21.0604716],[-17.0630617,21.0605467],[-17.0629652,21.060837],[-17.0629706,21.0609284],[-17.0629638,21.061016],[-17.0629075,21.0611912],[-17.0627452,21.0613989],[-17.0626809,21.0615191],[-17.0626701,21.0615654],[-17.0626608,21.0616342],[-17.0626165,21.0617431],[-17.0625776,21.0618858],[-17.0625857,21.0621048],[-17.0626393,21.0621486],[-17.0626728,21.0621711],[-17.0626876,21.0622087],[-17.0626929,21.0623075],[-17.0626956,21.062663],[-17.0627493,21.0628532],[-17.0627949,21.062937],[-17.0628592,21.0630297],[-17.0630121,21.0631974],[-17.0630403,21.0632649],[-17.063047,21.0633037],[-17.0630349,21.0633238],[-17.0629947,21.0633338],[-17.0628847,21.0633463],[-17.0627922,21.0633738],[-17.0626943,21.0634427],[-17.0626876,21.0635303],[-17.062697,21.0635891],[-17.0627573,21.0636592],[-17.0628619,21.0637543],[-17.0629196,21.0638632],[-17.063051,21.064116],[-17.0630457,21.0641923],[-17.0630094,21.0642424],[-17.0627973,21.0643794],[-17.0627815,21.0644438],[-17.0627815,21.0644914],[-17.062811,21.0645803],[-17.0628123,21.0646516],[-17.0627747,21.0647517],[-17.0626715,21.0649307],[-17.0626742,21.0649807],[-17.0626782,21.0650283],[-17.0626822,21.0650884],[-17.0626675,21.0652135],[-17.0626326,21.0652723],[-17.0625709,21.0653349],[-17.0625293,21.0654137],[-17.0625521,21.0655039],[-17.0625991,21.0655789],[-17.0626594,21.0656277],[-17.0627037,21.0656741],[-17.0627292,21.0657254],[-17.0627506,21.0659656],[-17.0627962,21.0661509],[-17.0630255,21.06646],[-17.0630778,21.0666177],[-17.063098,21.0667728],[-17.063102,21.0669793],[-17.0630832,21.0670945],[-17.0630899,21.0671758],[-17.0631288,21.0673035],[-17.0631167,21.0673285],[-17.0630845,21.0673385],[-17.0630161,21.0673272],[-17.0628539,21.067336],[-17.062705,21.0674036],[-17.062638,21.0674737],[-17.062418,21.0679167],[-17.0623818,21.0680794],[-17.0623751,21.068162],[-17.0623671,21.068207],[-17.0623201,21.0682496],[-17.0622759,21.0682959],[-17.0621954,21.0685637],[-17.0621324,21.0688177],[-17.0620975,21.0691093],[-17.0621082,21.069232],[-17.0621257,21.0693483],[-17.0621216,21.0694848],[-17.0620935,21.0695661],[-17.0620184,21.069705],[-17.0620103,21.0697989],[-17.0620264,21.0698765],[-17.062064,21.0699203],[-17.0621686,21.0699966],[-17.0622303,21.0700041],[-17.0622839,21.0700154],[-17.0623054,21.0700504],[-17.0624462,21.0705022],[-17.0625313,21.0705441],[-17.0625722,21.0705654],[-17.0626245,21.0705704],[-17.0627245,21.0705572],[-17.0627721,21.0705666],[-17.0627996,21.0705942],[-17.0628002,21.0706192],[-17.0627828,21.0706336],[-17.0627265,21.0706592],[-17.0626889,21.0706799],[-17.0626587,21.0707143],[-17.0626514,21.0707593],[-17.0626775,21.0707956],[-17.0627553,21.0708225],[-17.0627855,21.0708463],[-17.062811,21.070862],[-17.062813,21.0708876],[-17.0627942,21.0708932],[-17.0627627,21.0708957],[-17.0627204,21.0709026],[-17.0626889,21.070922],[-17.0626634,21.0709727],[-17.0626587,21.0710347],[-17.0626614,21.0711179],[-17.0626601,21.0711986],[-17.0626654,21.071305],[-17.0626809,21.0713713],[-17.0628257,21.0715909],[-17.062941,21.0718174],[-17.0630577,21.0720026],[-17.0630993,21.0720877],[-17.0631301,21.072251],[-17.0631536,21.0723155],[-17.0632106,21.0723706],[-17.0634413,21.0725558],[-17.0635512,21.0727084],[-17.0636304,21.0727873],[-17.0637417,21.0728473],[-17.0638838,21.0729062],[-17.064026,21.0730188],[-17.0641306,21.0732065],[-17.0641722,21.0732703],[-17.0641856,21.0733216],[-17.0641628,21.0733529],[-17.0640944,21.0733554],[-17.0640314,21.0733717],[-17.0639978,21.0734155],[-17.0639268,21.0736057],[-17.0639227,21.0736958],[-17.0639589,21.0738184],[-17.0639536,21.0738723],[-17.0638704,21.0740037],[-17.0638356,21.0741488],[-17.063849,21.0743591],[-17.0639174,21.0745555],[-17.0640548,21.0748371],[-17.0641192,21.0748677],[-17.0642111,21.0748959],[-17.0642473,21.0749359],[-17.0642929,21.0751187],[-17.064317,21.0752357],[-17.0643029,21.0753739],[-17.064258,21.075439],[-17.0642084,21.0754684],[-17.0641775,21.0754966],[-17.0641594,21.0755473],[-17.0641621,21.0755998],[-17.0641615,21.0756611],[-17.064134,21.0757012],[-17.0640837,21.07579],[-17.0640736,21.0758695],[-17.0640669,21.0759358],[-17.0640555,21.0760741],[-17.0640562,21.076121],[-17.0640448,21.0761567],[-17.0640314,21.0761867],[-17.0640166,21.0762649],[-17.0640039,21.0763025],[-17.0639858,21.07635],[-17.0639797,21.0763969],[-17.0639817,21.0765527],[-17.0639965,21.0767405],[-17.0640515,21.0768531],[-17.064148,21.0769332],[-17.0642781,21.0769957],[-17.0642956,21.0770358],[-17.0642768,21.0770771],[-17.0642459,21.0770958],[-17.0641775,21.0770771],[-17.0641078,21.0770733],[-17.0640314,21.0771184],[-17.0640005,21.0772235],[-17.0640112,21.0772948],[-17.0640756,21.0773399],[-17.0641507,21.0773812],[-17.064203,21.0774638],[-17.0642017,21.0775413],[-17.0641655,21.0776302],[-17.0641856,21.0777341],[-17.0642339,21.0777954],[-17.0644324,21.0779505],[-17.0645182,21.0780757],[-17.064718,21.0783072],[-17.0647542,21.0783935],[-17.0647569,21.0784849],[-17.0647207,21.0785937],[-17.0647261,21.0786989],[-17.0647985,21.0787965],[-17.064828,21.0789091],[-17.064836,21.0790342],[-17.0648119,21.0792394],[-17.0648012,21.0793921],[-17.0647636,21.0794422],[-17.0646161,21.0795072],[-17.0644578,21.0796599],[-17.0643774,21.0798451],[-17.0642728,21.0799953],[-17.0642701,21.0802581],[-17.0642298,21.0803532],[-17.0641682,21.0804107],[-17.0641172,21.0804983],[-17.0640863,21.0806447],[-17.0640716,21.0807861],[-17.0640381,21.0808725],[-17.0640019,21.0809738],[-17.0640206,21.0810789],[-17.0640971,21.0811841],[-17.0641038,21.0812141],[-17.064085,21.0812416],[-17.0640408,21.0812454],[-17.0639724,21.0812366],[-17.0639201,21.0812591],[-17.0637752,21.0814243],[-17.0637578,21.0814881],[-17.0637243,21.0815119],[-17.0636451,21.0815244],[-17.0635767,21.0816045],[-17.0634922,21.0817647],[-17.0634359,21.0818961],[-17.063444,21.0821826],[-17.0634721,21.0824204],[-17.0634466,21.0825418],[-17.0633474,21.0827032],[-17.063275,21.0829147],[-17.0633031,21.0831699],[-17.0633367,21.0833151],[-17.063334,21.0834027],[-17.0632871,21.0834753],[-17.0632106,21.0835428],[-17.0631757,21.0836542],[-17.0631771,21.0837618],[-17.0632482,21.083907],[-17.0633635,21.0840471],[-17.0635016,21.084221],[-17.0635673,21.0843174],[-17.06357,21.0843825],[-17.0635311,21.08442],[-17.0634533,21.0844375],[-17.0633568,21.0844513],[-17.0633125,21.0844888],[-17.0630912,21.0847066],[-17.0630524,21.0847791],[-17.063043,21.0848354],[-17.0630671,21.0849374],[-17.063114,21.0850694],[-17.0632039,21.0853322],[-17.0632951,21.0854886],[-17.0633461,21.0856475],[-17.0633501,21.0857827],[-17.0633085,21.085869],[-17.0632119,21.0859366],[-17.0631006,21.0859654],[-17.0630322,21.0860192],[-17.0629196,21.0862031],[-17.0628968,21.0862945],[-17.0629075,21.0864221],[-17.0629773,21.086601],[-17.0629893,21.0867149],[-17.0629491,21.08684],[-17.0629062,21.0870027],[-17.0629022,21.0870965],[-17.0629196,21.0871854],[-17.0629276,21.0872943],[-17.0628941,21.0873768],[-17.0628531,21.0874346],[-17.0627989,21.0875345],[-17.0627747,21.0875958],[-17.0627868,21.0876972],[-17.0628445,21.0878461],[-17.0628633,21.0879424],[-17.0628458,21.0880263],[-17.0628163,21.0880851],[-17.0627788,21.0881526],[-17.0627855,21.088219],[-17.0628458,21.088289],[-17.0628874,21.0883491],[-17.0629062,21.0885305],[-17.0628901,21.0888283],[-17.0628753,21.0889147],[-17.0628418,21.0890235],[-17.0628271,21.0890673],[-17.0627935,21.0890899],[-17.0627265,21.0891199],[-17.0625561,21.0891912],[-17.0624167,21.0893213],[-17.0624046,21.0893839],[-17.0623818,21.0894139],[-17.0623295,21.0894402],[-17.0622544,21.0895153],[-17.0621753,21.0896754],[-17.0621122,21.089773],[-17.062068,21.0898431],[-17.0620184,21.0899883],[-17.0619553,21.0902898],[-17.0618963,21.0903987],[-17.061785,21.0905013],[-17.0616938,21.0905588],[-17.0615986,21.0905839],[-17.0615275,21.0905826],[-17.0614578,21.0905976],[-17.0613988,21.0906552],[-17.0613505,21.0907102],[-17.0612714,21.0907603],[-17.0611842,21.0908366],[-17.0611547,21.0909079],[-17.0611587,21.0910356],[-17.0611936,21.0911707],[-17.061262,21.0912783],[-17.0612808,21.0913597],[-17.0612566,21.0914235],[-17.0611855,21.0914848],[-17.0610259,21.0916237],[-17.0608811,21.0917913],[-17.0607685,21.091944],[-17.0607416,21.0920466],[-17.0607014,21.0922305],[-17.0606397,21.0923181],[-17.060523,21.0924482],[-17.0604654,21.0925896],[-17.0604761,21.0926797],[-17.0604801,21.0927923],[-17.0604385,21.0929275],[-17.0603769,21.0930138],[-17.0602535,21.0931239],[-17.0601811,21.0932403],[-17.0601743,21.0933304],[-17.0601998,21.0935644],[-17.0601971,21.0938709],[-17.0601878,21.0939547],[-17.0601435,21.0940186],[-17.0600215,21.0940774],[-17.0600201,21.0940774],[-17.0598216,21.09417],[-17.0596835,21.0943314],[-17.0596205,21.0944628],[-17.0596084,21.0946554],[-17.0595548,21.0947305],[-17.0594488,21.0948356],[-17.0593496,21.0948819],[-17.0592181,21.094922],[-17.0590679,21.0950045],[-17.0589325,21.0951584],[-17.05873,21.0955213],[-17.0585583,21.0958954],[-17.0585141,21.0961194],[-17.0585382,21.0962983],[-17.0586307,21.0963996],[-17.0587876,21.0965173],[-17.0588292,21.0966036],[-17.0588332,21.0966737],[-17.0588158,21.0967337],[-17.0587863,21.0967713],[-17.0586978,21.0969089],[-17.0586012,21.0971541],[-17.0585905,21.0972542],[-17.0586227,21.0973856],[-17.0586307,21.0974569],[-17.0585918,21.0975458],[-17.0585677,21.0976108],[-17.0585583,21.0977097],[-17.0585999,21.0978498],[-17.0586026,21.0979749],[-17.0585744,21.0980625],[-17.0585677,21.0981488],[-17.0586415,21.0983153],[-17.0587112,21.0984692],[-17.0587367,21.0985793],[-17.0587166,21.098802],[-17.0586535,21.0989909],[-17.0585194,21.0993175],[-17.0584229,21.0997979],[-17.0583799,21.1000206],[-17.0583867,21.1002046],[-17.058506,21.1004598],[-17.0585489,21.1006137],[-17.0585503,21.10071],[-17.0585221,21.1008339],[-17.0584363,21.1010078],[-17.0583826,21.1011217],[-17.0583679,21.101208],[-17.0584457,21.101442],[-17.058451,21.1015271],[-17.0584188,21.1015984],[-17.058333,21.101696],[-17.0582686,21.1018549],[-17.05827,21.1019362],[-17.0583008,21.10202],[-17.0583491,21.1020888],[-17.0583612,21.1022315],[-17.0583276,21.102488],[-17.0582968,21.1025618],[-17.0582512,21.1025768],[-17.0581238,21.1025956],[-17.0580326,21.1026506],[-17.0579629,21.1027207],[-17.0579052,21.1028783],[-17.057865,21.1030222],[-17.0578274,21.1030722],[-17.0577483,21.1031561],[-17.057704,21.1032374],[-17.0576946,21.1033262],[-17.0577255,21.1034401],[-17.0578086,21.1036077],[-17.0578234,21.1037028],[-17.0577858,21.1038467],[-17.0576692,21.1040319],[-17.0574774,21.1042371],[-17.0573835,21.1043096],[-17.0573057,21.1043947],[-17.0572346,21.1044898],[-17.0572246,21.104558],[-17.0572132,21.1046087],[-17.057189,21.1046349],[-17.0571535,21.1046593],[-17.0570791,21.1047813],[-17.0570295,21.1048914],[-17.0569704,21.1052267],[-17.0569718,21.1055533],[-17.0569892,21.105746],[-17.0570737,21.1058711],[-17.0572722,21.106025],[-17.057358,21.106095],[-17.0573822,21.1061451],[-17.0574211,21.1062477],[-17.0574224,21.1063052],[-17.0574036,21.1063515],[-17.0574237,21.1064503],[-17.057464,21.1065517],[-17.0574714,21.1066017],[-17.057464,21.1066343],[-17.0574432,21.1066549],[-17.0574097,21.10671],[-17.0574023,21.1067606],[-17.057407,21.1068157],[-17.0574586,21.106942],[-17.0574714,21.1069958],[-17.0574687,21.1070628],[-17.0574566,21.1071278],[-17.0574117,21.1071985],[-17.0573748,21.1072298],[-17.0573238,21.1072367],[-17.0572266,21.1072504],[-17.0571548,21.1072942],[-17.0570972,21.1073874],[-17.0570167,21.1076039],[-17.0569745,21.1077259],[-17.056959,21.1077553],[-17.0569409,21.1077715],[-17.0568518,21.1078378],[-17.0567384,21.1079986],[-17.0567163,21.1080824],[-17.0567056,21.1083145],[-17.0566848,21.1084196],[-17.0566432,21.1085372],[-17.0566177,21.1086273],[-17.0566124,21.1087061],[-17.0566003,21.1087443],[-17.0565708,21.1087818],[-17.0565172,21.108825],[-17.0564883,21.1088863],[-17.056495,21.1089933],[-17.0565312,21.1091484],[-17.0565963,21.1092529],[-17.056611,21.1092929],[-17.056599,21.1093267],[-17.0565574,21.1093467],[-17.0563763,21.1093742],[-17.056261,21.1094168],[-17.0561939,21.1095031],[-17.0561282,21.1097533],[-17.0561215,21.1098934],[-17.056092,21.1099485],[-17.0560263,21.1099923],[-17.0559499,21.1100698],[-17.0558774,21.1102025],[-17.0557648,21.1104802],[-17.0557541,21.1106003],[-17.0557702,21.1107705],[-17.0557648,21.110878],[-17.0557541,21.1110307],[-17.0558023,21.1111533],[-17.0558935,21.1112559],[-17.0559472,21.111376],[-17.0559552,21.1114335],[-17.055907,21.1115411],[-17.0558533,21.1116587],[-17.0558305,21.1117188],[-17.0558023,21.1117501],[-17.0556495,21.1118764],[-17.0555019,21.1120691],[-17.055447,21.1121617],[-17.055404,21.1122004],[-17.0553182,21.1122755],[-17.0552793,21.1123944],[-17.0552619,21.1125195],[-17.0552713,21.1126421],[-17.0552807,21.1127046],[-17.0552753,21.1127634],[-17.0552485,21.1128498],[-17.055227,21.1129924],[-17.0552029,21.1132288],[-17.0551908,21.1134027],[-17.0552216,21.1135103],[-17.0553697,21.1136393],[-17.0554234,21.1137352],[-17.0554617,21.1138018],[-17.0554671,21.1138594],[-17.0554349,21.1138869],[-17.0553947,21.1138957],[-17.0553075,21.1138919],[-17.0552351,21.1139082],[-17.0551519,21.113947],[-17.0550983,21.1140058],[-17.0550513,21.1140245],[-17.0548837,21.114027],[-17.0547201,21.1140095],[-17.054649,21.1140245],[-17.0546034,21.1140821],[-17.0545511,21.1142622],[-17.0545524,21.1143423],[-17.0545779,21.1144336],[-17.0545726,21.1144824],[-17.0545162,21.1145662],[-17.0544948,21.1148027],[-17.0545162,21.1149228],[-17.0545524,21.1150904],[-17.0545498,21.1152793],[-17.0545176,21.1153431],[-17.0544049,21.1154282],[-17.0541903,21.1157873],[-17.0540656,21.1159386],[-17.0540361,21.11601],[-17.0540187,21.11606],[-17.0539704,21.1161125],[-17.053906,21.1162189],[-17.0538685,21.1163815],[-17.0538618,21.1164353],[-17.0538349,21.1165391],[-17.0537826,21.1166217],[-17.0537706,21.116678],[-17.0537826,21.1167381],[-17.0538645,21.1167743],[-17.0538846,21.1168056],[-17.0539033,21.1169082],[-17.0539945,21.1170496],[-17.0540696,21.1171171],[-17.0541058,21.1171784],[-17.0541152,21.117201],[-17.0541072,21.117226],[-17.0540777,21.1172385],[-17.0539677,21.1172335],[-17.0538618,21.1172535],[-17.053792,21.1172873],[-17.0537585,21.1173642],[-17.0537431,21.1174974],[-17.0537853,21.1176213],[-17.0538054,21.1177039],[-17.053792,21.1178065],[-17.0537639,21.1179628],[-17.053784,21.1180379],[-17.0538121,21.118113],[-17.0538095,21.1181743],[-17.0537813,21.1182256],[-17.0536338,21.1183169],[-17.053552,21.1184282],[-17.0534329,21.118629],[-17.0533749,21.1188723],[-17.0533602,21.1191626],[-17.0533521,21.1195154],[-17.0534138,21.1198394],[-17.053446,21.1199657],[-17.0534849,21.1200583],[-17.0535131,21.1201033],[-17.0535332,21.1201196],[-17.0535479,21.1201571],[-17.0535359,21.1202097],[-17.0534876,21.1203485],[-17.0535024,21.1204173],[-17.0535761,21.1205149],[-17.0536888,21.1206588],[-17.0538028,21.1209153],[-17.053961,21.1211442],[-17.0540978,21.1213556],[-17.0541219,21.1214157],[-17.0541139,21.1214657],[-17.0540442,21.1215082],[-17.0539691,21.1215758],[-17.0539449,21.1216584],[-17.0539489,21.1217759],[-17.0539463,21.1219361],[-17.0539221,21.1221738],[-17.0539396,21.1222513],[-17.0539999,21.1223439],[-17.0540522,21.1223989],[-17.0540643,21.1224465],[-17.0540817,21.1225428],[-17.0540723,21.1225941],[-17.0540616,21.1226366],[-17.0540468,21.1227079],[-17.0540951,21.1228293],[-17.0542131,21.1229744],[-17.0543392,21.1231533],[-17.0543687,21.1232646],[-17.0543446,21.1233397],[-17.0543097,21.1234748],[-17.0542775,21.1235173],[-17.0542373,21.1235424],[-17.0542038,21.1235736],[-17.0541756,21.1237],[-17.0542118,21.1239464],[-17.0542306,21.1239952],[-17.0542265,21.1240165],[-17.0541997,21.1240265],[-17.0540428,21.1240327],[-17.0539556,21.1240603],[-17.0537585,21.1241703],[-17.0536754,21.1242392],[-17.0536512,21.1243367],[-17.0536566,21.1244944],[-17.0536619,21.1245406],[-17.0536432,21.1245719],[-17.0535667,21.1246282],[-17.053552,21.1246545],[-17.05356,21.124692],[-17.0536271,21.1248284],[-17.0536606,21.1249872],[-17.0536941,21.125061],[-17.0537049,21.1250811],[-17.0536955,21.1251073],[-17.0536633,21.1251311],[-17.0535801,21.1252274],[-17.053552,21.1252875],[-17.0535587,21.125355],[-17.0536807,21.1255502],[-17.0537196,21.1256302],[-17.0537652,21.1258341],[-17.0538779,21.1260155],[-17.0539127,21.1261381],[-17.0539208,21.1263083],[-17.0539892,21.1264559],[-17.054024,21.1266022],[-17.054012,21.1267198],[-17.0539597,21.1268975],[-17.0539664,21.1270676],[-17.0540026,21.1271877],[-17.0540173,21.1272928],[-17.0540093,21.1273641],[-17.0539784,21.1273979],[-17.0538819,21.1273991],[-17.0538282,21.1273916],[-17.0537759,21.1273954],[-17.0537277,21.1274279],[-17.0536767,21.1274642],[-17.0536056,21.1275004],[-17.0535412,21.127558],[-17.0534782,21.1276868],[-17.0534018,21.1278932],[-17.0533173,21.1281121],[-17.053261,21.1282222],[-17.0532502,21.1283348],[-17.0532247,21.1283986],[-17.0531859,21.1284399],[-17.0531483,21.1284824],[-17.0531403,21.1285437],[-17.053147,21.1286225],[-17.0531322,21.1286901],[-17.0530987,21.1289465],[-17.0530786,21.1290454],[-17.0529994,21.129268],[-17.0529512,21.1296796],[-17.052923,21.1298635],[-17.0528694,21.1300474],[-17.0528828,21.1303226],[-17.0529082,21.1305352],[-17.0529498,21.1306028],[-17.0530812,21.1306878],[-17.0532113,21.1307979],[-17.0532328,21.1308667],[-17.0532087,21.1309155],[-17.053151,21.1309343],[-17.0530155,21.1309255],[-17.0529418,21.1309355],[-17.0528828,21.130968],[-17.052868,21.1310281],[-17.0529364,21.1311532],[-17.0530263,21.1313296],[-17.0530558,21.1314909],[-17.0530316,21.1316686],[-17.0529726,21.1319225],[-17.0529082,21.1320588],[-17.0528224,21.1323716],[-17.0528224,21.1326368],[-17.0528492,21.1328257],[-17.0528868,21.1328932],[-17.0529029,21.1330058],[-17.0528841,21.1331071],[-17.0528908,21.1332272],[-17.0529243,21.1333548],[-17.052923,21.1334474],[-17.0528586,21.1335975],[-17.0527057,21.1338189],[-17.0524,21.1341591],[-17.0523423,21.1342667],[-17.0523463,21.134373],[-17.0524013,21.1345431],[-17.0523986,21.1346082],[-17.0523396,21.1347345],[-17.0523369,21.1349497],[-17.0523316,21.1350085],[-17.052298,21.1350498],[-17.0522216,21.1350973],[-17.0521197,21.1352374],[-17.0521036,21.1353162],[-17.0521411,21.1354888],[-17.0521519,21.1355539],[-17.0521304,21.1356239],[-17.0519976,21.1359479],[-17.0519413,21.1361555],[-17.0519668,21.136387],[-17.0520593,21.1366421],[-17.0521747,21.1368023],[-17.0522551,21.1368898],[-17.0522672,21.1369624],[-17.052239,21.1370199],[-17.0521532,21.1371175],[-17.0521264,21.1372188],[-17.0521197,21.1373501],[-17.0520942,21.1374214],[-17.0520137,21.137489],[-17.0519453,21.1376879],[-17.0519118,21.1379856],[-17.0518501,21.1380681],[-17.0518099,21.1381319],[-17.0518112,21.1381745],[-17.0518367,21.1382145],[-17.0518582,21.1382445],[-17.0518608,21.1382895],[-17.0518287,21.138526],[-17.0518783,21.1391614],[-17.0518541,21.1393978],[-17.0516463,21.1400883],[-17.0516101,21.1402334],[-17.051606,21.1404085],[-17.0516919,21.1409288],[-17.0517375,21.1410402],[-17.0517495,21.1411252],[-17.0517093,21.1412416],[-17.0516489,21.1414304],[-17.0516409,21.1417006],[-17.051653,21.1419983],[-17.0516302,21.1421196],[-17.0515779,21.1422147],[-17.0514035,21.1424761],[-17.0512909,21.1427175],[-17.0511809,21.1432166],[-17.0511299,21.1436607],[-17.0509958,21.144146],[-17.0508242,21.1445663],[-17.0505855,21.1451091],[-17.0504433,21.1454268],[-17.050277,21.1457845],[-17.0501161,21.1461473],[-17.0499417,21.1465825],[-17.0496923,21.1471829],[-17.0494053,21.148156],[-17.0489064,21.1498221],[-17.0487374,21.1504249],[-17.0486328,21.1507927],[-17.0484987,21.1511479],[-17.0483646,21.1514681],[-17.0482761,21.1516357],[-17.0482171,21.1518483],[-17.0481715,21.1520584],[-17.0481339,21.1522235],[-17.0480883,21.1525337],[-17.0480025,21.1529214],[-17.0478308,21.1533667],[-17.0476618,21.153807],[-17.0472112,21.1546299],[-17.047116,21.1548263],[-17.0470583,21.1549264],[-17.0470181,21.1549864],[-17.0469578,21.1550677],[-17.0469055,21.1551602],[-17.0467714,21.1554329],[-17.0466614,21.1556593],[-17.046538,21.1557931],[-17.0464093,21.1559907],[-17.04631,21.1562409],[-17.0462725,21.1564698],[-17.0462161,21.1567261],[-17.0462202,21.1568112],[-17.0462483,21.1568912],[-17.0462671,21.1569406],[-17.0462678,21.1569619],[-17.0462564,21.15697],[-17.0462369,21.1569732],[-17.0462175,21.1569769],[-17.0462014,21.1569925],[-17.0461799,21.1570132],[-17.0461632,21.1570182],[-17.0461323,21.1570282],[-17.0461055,21.1570407],[-17.0461021,21.1570701],[-17.046131,21.157097],[-17.0461645,21.1571307],[-17.0461766,21.1571683],[-17.0461692,21.157192],[-17.0461504,21.1571989],[-17.0461276,21.1571895],[-17.0460874,21.1571445],[-17.0460572,21.1571376],[-17.0460284,21.1571433],[-17.0459948,21.1571639],[-17.0459767,21.1572289],[-17.0459814,21.1572815],[-17.0459868,21.1573209],[-17.0459834,21.1573446],[-17.0459513,21.1573659],[-17.0458996,21.1573903],[-17.0458312,21.1574647],[-17.0458037,21.1575203],[-17.0457917,21.1576104],[-17.0458218,21.1577505],[-17.0458359,21.1578105],[-17.0458319,21.1578499],[-17.045795,21.1578818],[-17.0456629,21.1579168],[-17.0456334,21.157945],[-17.0455469,21.158227],[-17.0454732,21.1584743],[-17.0454742,21.1585437],[-17.0455107,21.1586691],[-17.0455154,21.1587266],[-17.0454323,21.1589293],[-17.0454215,21.1590262],[-17.0454028,21.1590656],[-17.0452639,21.1591525],[-17.045154,21.1592582],[-17.0450876,21.1593739],[-17.0450521,21.1594908],[-17.0450427,21.1595402],[-17.0450279,21.1595652],[-17.0449126,21.1596553],[-17.0448589,21.1597228],[-17.0448442,21.1597991],[-17.0448495,21.1599217],[-17.0448361,21.1600017],[-17.0447972,21.160048],[-17.044757,21.1601706],[-17.0447651,21.1602981],[-17.0447865,21.1603882],[-17.0447932,21.1604345],[-17.0447771,21.160477],[-17.0447382,21.160557],[-17.0447342,21.1606821],[-17.0447771,21.1607596],[-17.0447959,21.1608059],[-17.0447892,21.1608572],[-17.044753,21.160906],[-17.0446551,21.1610473],[-17.044525,21.1612199],[-17.0444714,21.1614],[-17.0444338,21.1615463],[-17.0444445,21.1617314],[-17.0444687,21.1617989],[-17.0444794,21.1618915],[-17.0444351,21.1620278],[-17.0443292,21.1621466],[-17.0442621,21.1623317],[-17.0441937,21.1624793],[-17.0441227,21.1625456],[-17.0440328,21.1625756],[-17.0439188,21.1626181],[-17.0438303,21.1627094],[-17.0438115,21.1628095],[-17.043837,21.1629233],[-17.0438504,21.1630308],[-17.0438424,21.1631134],[-17.0438263,21.1632022],[-17.043833,21.1633285],[-17.043837,21.163431],[-17.0438612,21.1635223],[-17.0439269,21.1635661],[-17.0439953,21.1636174],[-17.0440342,21.1637037],[-17.0440717,21.1638037],[-17.0441294,21.163915],[-17.0441656,21.1640139],[-17.0441723,21.1640839],[-17.0441562,21.1641477],[-17.0441428,21.1642752],[-17.0441589,21.1644028],[-17.0441401,21.1645354],[-17.0441052,21.1647067],[-17.0441414,21.1648355],[-17.0441374,21.164878],[-17.0441079,21.1649031],[-17.0440288,21.1649381],[-17.0439403,21.1649994],[-17.0438156,21.165232],[-17.0437673,21.1653796],[-17.0437458,21.1655334],[-17.0438088,21.1656691],[-17.0439188,21.1658298],[-17.0440596,21.1658986],[-17.0442863,21.1659111],[-17.0446296,21.1659248],[-17.0447436,21.1659623],[-17.0450762,21.1661549],[-17.0452747,21.166355],[-17.0455496,21.1665189],[-17.0459653,21.1667115],[-17.0460257,21.1667227],[-17.0460659,21.1667565],[-17.0462872,21.1668866],[-17.0463797,21.1669591],[-17.0464776,21.1670967],[-17.0464951,21.1671905],[-17.0464709,21.1673543],[-17.0464535,21.1675119],[-17.0465219,21.1677833],[-17.046597,21.1679183],[-17.0466895,21.1679984],[-17.0467941,21.1681422],[-17.0468424,21.1682823],[-17.0468277,21.1683698],[-17.0467727,21.1684273],[-17.0466869,21.1684611],[-17.046648,21.1685036],[-17.0466386,21.1685674],[-17.0466761,21.1686112],[-17.0468143,21.1686887],[-17.0469376,21.1686987],[-17.0470288,21.1686724],[-17.0470838,21.1686212],[-17.047167,21.1685561],[-17.0472233,21.1685449],[-17.0474084,21.1686137],[-17.0475827,21.16882],[-17.0479099,21.1691264],[-17.0480172,21.169229],[-17.0480427,21.1693278],[-17.048028,21.1694003],[-17.047977,21.1694903],[-17.0479716,21.1696016],[-17.047981,21.1697104],[-17.0479676,21.1697755],[-17.0479314,21.169813],[-17.047749,21.1699893],[-17.0477061,21.1701181],[-17.0477115,21.1701832],[-17.047749,21.1702357],[-17.0478483,21.1702695],[-17.0479274,21.1703332],[-17.0480038,21.1704283],[-17.0482197,21.1705308],[-17.0484424,21.1705671],[-17.048547,21.1705946],[-17.0486167,21.1706496],[-17.0486355,21.1706922],[-17.0486221,21.1707534],[-17.0485792,21.1708472],[-17.0485765,21.170906],[-17.0485879,21.1709654],[-17.0486549,21.1710154],[-17.0487307,21.1710611],[-17.0488273,21.1711411],[-17.0489399,21.1712011],[-17.0492336,21.1712824],[-17.0494683,21.17134],[-17.0495622,21.17139],[-17.0495796,21.1714263],[-17.0495635,21.1714663],[-17.0494978,21.17149],[-17.0494133,21.1715238],[-17.049357,21.1716101],[-17.0493422,21.1717076],[-17.0494241,21.1718414],[-17.0496427,21.1720816],[-17.0498076,21.1723692],[-17.0498639,21.1725193],[-17.0499001,21.1726381],[-17.0499042,21.1727181],[-17.0498975,21.1727719],[-17.0498224,21.1729119],[-17.0497392,21.173017],[-17.0496427,21.173067],[-17.0495716,21.1731095],[-17.0495608,21.1731583],[-17.0495783,21.1732121],[-17.0496708,21.1732834],[-17.0497526,21.1733484],[-17.049813,21.1733834],[-17.0499243,21.1734297],[-17.0499967,21.1734584],[-17.0500356,21.1735272],[-17.0500571,21.1736098],[-17.0500141,21.1737498],[-17.0499069,21.1738274],[-17.0497955,21.1738736],[-17.0497178,21.1739174],[-17.0497017,21.1739824],[-17.0497379,21.17403],[-17.0498036,21.1740612],[-17.0499578,21.1740775],[-17.0500195,21.1741112],[-17.0500705,21.1741888],[-17.0500718,21.1742763],[-17.050049,21.1744051],[-17.0500933,21.1744964],[-17.050226,21.1746177],[-17.0503414,21.1747903],[-17.0504272,21.1749529],[-17.0504943,21.1750929],[-17.0505352,21.1751567],[-17.0505901,21.1752349],[-17.0506015,21.175268],[-17.0505828,21.175293],[-17.0504701,21.1753068],[-17.0503508,21.1753693],[-17.0502716,21.1754731],[-17.0502716,21.1756682],[-17.050285,21.1757332],[-17.0503199,21.1758007],[-17.0505399,21.1759183],[-17.0507598,21.1761134],[-17.0508805,21.1761734],[-17.050918,21.1762184],[-17.0509241,21.1762484],[-17.0509127,21.1762835],[-17.0508818,21.176301],[-17.0508403,21.1763135],[-17.0507357,21.1763085],[-17.0505694,21.176431],[-17.0504768,21.1765498],[-17.0504312,21.1766699],[-17.05045,21.1767537],[-17.0504446,21.1767962],[-17.0503923,21.1768537],[-17.0503655,21.176975],[-17.0503749,21.1770575],[-17.0504098,21.1771226],[-17.0504534,21.1771795],[-17.0505063,21.1772113],[-17.0505466,21.177247],[-17.0505707,21.1772682],[-17.0505774,21.1772945],[-17.0505613,21.1773283],[-17.0505385,21.1774239],[-17.0505486,21.1775084],[-17.05056,21.1775815],[-17.0505821,21.1776428],[-17.0505968,21.1776816],[-17.0506022,21.1777191],[-17.0505908,21.1777441],[-17.0505673,21.1777716],[-17.0505405,21.1777897],[-17.0504996,21.1778035],[-17.0504446,21.1778004],[-17.050385,21.1778041],[-17.0503192,21.1778335],[-17.0502569,21.1778623],[-17.050224,21.1779091],[-17.0502293,21.1779584],[-17.0502649,21.1780079],[-17.050395,21.1781217],[-17.0504178,21.1782068],[-17.050399,21.1782918],[-17.0502502,21.1784881],[-17.050218,21.1785882],[-17.0502247,21.178692],[-17.0502207,21.1787382],[-17.0501912,21.1787833],[-17.050163,21.1788408],[-17.0501871,21.1790696],[-17.050222,21.1792397],[-17.0502006,21.1793573],[-17.0501576,21.1794585],[-17.0501483,21.1795686],[-17.0501348,21.1796174],[-17.0500812,21.1796411],[-17.0499954,21.1796786],[-17.0499176,21.1797499],[-17.0498452,21.1799437],[-17.0497392,21.1801676],[-17.0497338,21.1803126],[-17.0497674,21.1804377],[-17.0498545,21.1805678],[-17.0498894,21.180674],[-17.0499323,21.1807716],[-17.049994,21.1808529],[-17.050104,21.1809066],[-17.0502301,21.1809604],[-17.0502676,21.1810154],[-17.050275,21.1810423],[-17.0502636,21.181073],[-17.0502254,21.181093],[-17.0501348,21.1810942],[-17.0500021,21.1811467],[-17.0499679,21.1811893],[-17.0499337,21.1812093],[-17.0498613,21.1812261],[-17.0498378,21.1812524],[-17.049825,21.181283],[-17.0498304,21.1813406],[-17.0498639,21.1813693],[-17.0499377,21.1813831],[-17.0500135,21.1814062],[-17.0500524,21.1814168],[-17.0500852,21.1814537],[-17.0501731,21.1815306],[-17.0503494,21.1816207],[-17.0506123,21.1817945],[-17.050631,21.1818201],[-17.0506357,21.1818658],[-17.0506223,21.1818995],[-17.0505922,21.1819202],[-17.0505331,21.1819577],[-17.0504875,21.1820183],[-17.0504379,21.1821446],[-17.0504259,21.1823472],[-17.0504513,21.1825811],[-17.0504715,21.1826273],[-17.0504782,21.1826698],[-17.0504648,21.1826999],[-17.0504393,21.1827086],[-17.0503575,21.1827674],[-17.0502421,21.1829712],[-17.0501952,21.18311],[-17.0502032,21.1832376],[-17.0502448,21.1835689],[-17.0503441,21.1842842],[-17.0504138,21.1845243],[-17.0504567,21.1846719],[-17.0504627,21.1847138],[-17.050454,21.184745],[-17.0504185,21.1847688],[-17.0503722,21.1847725],[-17.050273,21.1847694],[-17.0501442,21.1848094],[-17.0500416,21.1848694],[-17.0499967,21.1849063],[-17.0499652,21.1849814],[-17.0499638,21.1850345],[-17.0500021,21.185107],[-17.0500249,21.1851602],[-17.0500289,21.1852096],[-17.0499632,21.1853559],[-17.0499578,21.1854372],[-17.0499806,21.1855272],[-17.0500168,21.1857635],[-17.0500423,21.1859323],[-17.0500839,21.1860486],[-17.0501027,21.1861737],[-17.0500933,21.1863412],[-17.0500436,21.186445],[-17.0499377,21.1865976],[-17.0499189,21.1866764],[-17.0499263,21.1867126],[-17.0499384,21.1867445],[-17.0499377,21.1867764],[-17.0499015,21.1868277],[-17.0498264,21.1869677],[-17.049695,21.187109],[-17.0496561,21.187199],[-17.0496199,21.1874716],[-17.0496534,21.1877567],[-17.0496587,21.187818],[-17.0496467,21.1878668],[-17.0496091,21.1878893],[-17.0495287,21.1879318],[-17.0494683,21.1880118],[-17.0494375,21.1881581],[-17.0494509,21.1883094],[-17.0494482,21.188352],[-17.0494026,21.1884107],[-17.0493275,21.1885395],[-17.0491679,21.1888384],[-17.0490941,21.189086],[-17.0490365,21.1892023],[-17.0489855,21.1894036],[-17.0489225,21.1896074],[-17.0489198,21.1897049],[-17.0489547,21.1898012],[-17.0489895,21.1898737],[-17.0489996,21.1898994],[-17.0490003,21.1899275],[-17.0489761,21.1899625],[-17.0489091,21.1900288],[-17.0488594,21.1901263],[-17.0488232,21.1902751],[-17.0488286,21.1904039],[-17.0487991,21.1905815],[-17.0487602,21.1907015],[-17.0487307,21.1907978],[-17.0487455,21.1909203],[-17.048775,21.1910179],[-17.048775,21.1910754],[-17.0487347,21.1911454],[-17.0487066,21.1912617],[-17.0486905,21.1916506],[-17.0486985,21.1919307],[-17.0487334,21.1919932],[-17.048779,21.1920595],[-17.0488112,21.192132],[-17.0488058,21.1922295],[-17.0488139,21.1923608],[-17.0488541,21.1924446],[-17.048901,21.1925559],[-17.0489024,21.1926084],[-17.0488796,21.1926309],[-17.0488353,21.1926272],[-17.0486771,21.1926372],[-17.048559,21.1926547],[-17.0484638,21.1927147],[-17.048437,21.1927872],[-17.048445,21.1929223],[-17.0484813,21.1930373],[-17.0484759,21.1931236],[-17.0484558,21.1931748],[-17.0483659,21.1932199],[-17.0482653,21.1932774],[-17.0482224,21.1933574],[-17.048205,21.1934974],[-17.0482171,21.1936537],[-17.0483498,21.1939563],[-17.0484129,21.1940876],[-17.0484316,21.1942377],[-17.048429,21.1944327],[-17.0485094,21.1946053],[-17.0485443,21.1946928],[-17.0485577,21.1947878],[-17.0485577,21.1949154],[-17.0486355,21.1952555],[-17.0487133,21.1954656],[-17.0489278,21.1956944],[-17.04907,21.1957644],[-17.0491679,21.1958057],[-17.0492283,21.1958682],[-17.0492162,21.1959282],[-17.0491759,21.195972],[-17.0490512,21.1959895],[-17.0489413,21.1960295],[-17.0488447,21.1961358],[-17.0487924,21.1962145],[-17.0487763,21.1963771],[-17.0488246,21.1965534],[-17.0489359,21.1966697],[-17.0490029,21.1967872],[-17.0490029,21.1968897],[-17.0489547,21.1969397],[-17.0488004,21.196996],[-17.0485725,21.1971511],[-17.048433,21.1972798],[-17.0484021,21.1973886],[-17.0484155,21.1974837],[-17.0484719,21.1976012],[-17.0485564,21.1976753],[-17.0486174,21.197704],[-17.0486422,21.1977237],[-17.0486429,21.1977331],[-17.0486368,21.1977453],[-17.0486217,21.1977525],[-17.0486033,21.19775],[-17.0485476,21.1977446],[-17.0485252,21.1977525],[-17.0485014,21.19777],[-17.0484491,21.1978775],[-17.0484021,21.1979325],[-17.0483565,21.1979488],[-17.0482479,21.1979675],[-17.0481366,21.1980288],[-17.0480333,21.1981463],[-17.0479515,21.1982739],[-17.0479341,21.1984139],[-17.0479341,21.1985715],[-17.0479969,21.1987404],[-17.0480937,21.1988728],[-17.0481473,21.1989028],[-17.0481862,21.1989691],[-17.0482332,21.1990691],[-17.0482761,21.1991929],[-17.0483123,21.1994367],[-17.048323,21.1995342],[-17.0483404,21.1995705],[-17.0483364,21.199603],[-17.048315,21.1996318],[-17.0482975,21.1997518],[-17.0483552,21.2002819],[-17.048374,21.200307],[-17.0483807,21.2003382],[-17.0483753,21.2003807],[-17.0483391,21.200442],[-17.0482479,21.200627],[-17.048213,21.2007596],[-17.0482238,21.2009046],[-17.0483069,21.2010196],[-17.0483311,21.2010897],[-17.0483324,21.2011497],[-17.0483445,21.2011872],[-17.048382,21.2012272],[-17.0484276,21.2014073],[-17.0484893,21.201546],[-17.0485295,21.2015873],[-17.0485725,21.2016123],[-17.04861,21.2016423],[-17.0486757,21.2017586],[-17.0487092,21.2018599],[-17.0486972,21.2019374],[-17.0486382,21.2020562],[-17.0485564,21.2022912],[-17.0485457,21.2023399],[-17.0485396,21.2023762],[-17.0485295,21.2024138],[-17.0485295,21.202445],[-17.0485537,21.2024838],[-17.0485591,21.2025469],[-17.0485476,21.2026039],[-17.0485135,21.2026569],[-17.048441,21.2026938],[-17.0481849,21.2027889],[-17.0481004,21.2028339],[-17.0480722,21.2028851],[-17.0480602,21.2029389],[-17.0480628,21.2030314],[-17.048095,21.2031139],[-17.0483257,21.203354],[-17.0484477,21.2035003],[-17.0484531,21.2035447],[-17.0484404,21.2035691],[-17.0484122,21.2035809],[-17.0483713,21.2035834],[-17.0483411,21.2036009],[-17.0482901,21.2037247],[-17.0482761,21.2038141],[-17.0483076,21.2039391],[-17.048315,21.2040836],[-17.0482855,21.2041967],[-17.0482694,21.2042317],[-17.048272,21.2042605],[-17.0482962,21.2042917],[-17.0483458,21.2043217],[-17.0483592,21.2043618],[-17.0483297,21.2044343],[-17.0483297,21.204513],[-17.0483713,21.2046406],[-17.048429,21.2048331],[-17.0484477,21.2049744],[-17.0484692,21.2050319],[-17.0484732,21.2050894],[-17.0484464,21.2051457],[-17.0484263,21.2051694],[-17.0484209,21.2051995],[-17.0484216,21.2052157],[-17.0484383,21.2052263],[-17.0484652,21.2052282],[-17.0484786,21.2052413],[-17.0484752,21.2052607],[-17.0484323,21.2052807],[-17.0483726,21.2053107],[-17.0483089,21.2053257],[-17.048268,21.2053295],[-17.048211,21.2053557],[-17.0481869,21.2053864],[-17.0481614,21.2054514],[-17.048042,21.2056252],[-17.0478617,21.2058977],[-17.0477886,21.2059534],[-17.047696,21.2060434],[-17.0476793,21.2061059],[-17.047688,21.2062422],[-17.0477443,21.2063697],[-17.0477725,21.2064785],[-17.047749,21.2069011],[-17.0477732,21.2071099],[-17.0478107,21.2071849],[-17.0478496,21.2072174],[-17.0478684,21.2072674],[-17.0478617,21.2073124],[-17.0478161,21.2073462],[-17.0477624,21.2073537],[-17.0477101,21.2073362],[-17.047631,21.2073575],[-17.0474365,21.2075425],[-17.0472461,21.2077701],[-17.047167,21.2080176],[-17.0471442,21.2081851],[-17.0471965,21.2083814],[-17.0472783,21.208559],[-17.0473132,21.2086302],[-17.0473252,21.208694],[-17.0472957,21.2087878],[-17.0472997,21.2089091],[-17.0472837,21.2090966],[-17.0473695,21.2093629],[-17.0473883,21.2094354],[-17.0473842,21.2094817],[-17.0473266,21.2095279],[-17.0472676,21.2095429],[-17.0471482,21.2096467],[-17.0470959,21.2098167],[-17.046949,21.2104888],[-17.046943,21.2105181],[-17.0469437,21.210545],[-17.0469618,21.2105625],[-17.0469812,21.2106025],[-17.0470074,21.2107207],[-17.0469826,21.2108782],[-17.0469457,21.210972],[-17.046939,21.2110439],[-17.0469732,21.211177],[-17.0470154,21.211277],[-17.0470463,21.2113346],[-17.0470463,21.2113808],[-17.0470127,21.2114096],[-17.046884,21.2114321],[-17.0467834,21.2114671],[-17.0466721,21.2115833],[-17.046593,21.2117684],[-17.0465621,21.2119172],[-17.0465903,21.2121397],[-17.046648,21.2123185],[-17.046703,21.2124748],[-17.0467097,21.2125092],[-17.0467016,21.2125448],[-17.0466761,21.2125698],[-17.0466319,21.2126223],[-17.0465903,21.2127011],[-17.046483,21.2128373],[-17.0464025,21.2130511],[-17.0463958,21.2131349],[-17.0464441,21.2132649],[-17.0465286,21.2134062],[-17.0465869,21.2134781],[-17.0466225,21.2135425],[-17.0466614,21.2136437],[-17.0466748,21.2138088],[-17.04666,21.2139175],[-17.0466332,21.2139525],[-17.0465662,21.2139675],[-17.0464964,21.2139988],[-17.0464334,21.2140876],[-17.0464106,21.2142251],[-17.0464723,21.2143939],[-17.046601,21.2145764],[-17.0466627,21.2146477],[-17.0466828,21.2147064],[-17.0466734,21.2147539],[-17.0465085,21.215024],[-17.0464548,21.2151565],[-17.0464428,21.2152828],[-17.0464522,21.215394],[-17.0463851,21.2158204],[-17.0463757,21.2160704],[-17.0463569,21.2161242],[-17.0462832,21.2161842],[-17.0460874,21.2163855],[-17.046019,21.2164892],[-17.0459814,21.2166017],[-17.0459425,21.2167368],[-17.0457494,21.2170618],[-17.0456328,21.2173544],[-17.0456421,21.2174931],[-17.0456971,21.2176857],[-17.0457467,21.2179445],[-17.0457172,21.2180957],[-17.0456555,21.2182533],[-17.0455322,21.2184945],[-17.0453565,21.2186583],[-17.0451888,21.2187558],[-17.0451245,21.2187996],[-17.0450856,21.2188659],[-17.045099,21.2189571],[-17.0451432,21.2190809],[-17.0452036,21.2191921],[-17.0452385,21.2192597],[-17.0452613,21.2193109],[-17.0452633,21.2193422],[-17.0452492,21.219364],[-17.045219,21.2193697],[-17.0451855,21.2193797],[-17.045166,21.2194003],[-17.045164,21.2194397],[-17.0451634,21.219581],[-17.0451419,21.2196635],[-17.0451151,21.2197385],[-17.0451151,21.2197872],[-17.0451432,21.2198222],[-17.045154,21.2198447],[-17.0451453,21.2198641],[-17.0451218,21.219876],[-17.045095,21.2198985],[-17.0450722,21.2199285],[-17.0450011,21.2201298],[-17.0450078,21.2201898],[-17.0450521,21.2202736],[-17.0450883,21.2203261],[-17.0450923,21.2203498],[-17.0450856,21.2203936],[-17.0450078,21.2204611],[-17.044993,21.2205036],[-17.0450065,21.2205723],[-17.0450588,21.2206899],[-17.0451057,21.2207874],[-17.0451178,21.2208836],[-17.0451137,21.2209899],[-17.0450909,21.2210799],[-17.0450427,21.2211899],[-17.0449783,21.2212699],[-17.0449649,21.2213262],[-17.044989,21.2218538],[-17.0449997,21.2219488],[-17.0450628,21.222115],[-17.0450681,21.2222076],[-17.0450708,21.2222888],[-17.0449394,21.2230564],[-17.0449032,21.2233639],[-17.0448764,21.2234315],[-17.0448402,21.2234915],[-17.0448147,21.2235602],[-17.0447811,21.223839],[-17.0447892,21.2239453],[-17.0447771,21.2241853],[-17.044749,21.2242653],[-17.0447047,21.2243328],[-17.0444472,21.2248879],[-17.0444083,21.2250016],[-17.0444043,21.2251579],[-17.0444043,21.2253267],[-17.0444204,21.2255404],[-17.0444351,21.2255779],[-17.0444794,21.2256079],[-17.0445076,21.2256454],[-17.0445183,21.2257204],[-17.0444942,21.225763],[-17.0444231,21.2258142],[-17.0443815,21.225863],[-17.0443667,21.2259117],[-17.0443721,21.226073],[-17.0443372,21.226183],[-17.0443118,21.2262593],[-17.0443118,21.2263443],[-17.0443158,21.226448],[-17.0443493,21.2265918],[-17.044356,21.2266305],[-17.0443567,21.2266593],[-17.0443476,21.2266859],[-17.0443279,21.226698],[-17.0443081,21.2267074],[-17.0442937,21.2267149],[-17.0442876,21.226728],[-17.0442937,21.2267518],[-17.0443674,21.2268506],[-17.0444103,21.2269012],[-17.0444794,21.2269318],[-17.0445102,21.2269743],[-17.0445129,21.2270343],[-17.0444499,21.2272081],[-17.0442353,21.2275094],[-17.0442005,21.2275581],[-17.0441937,21.2276156],[-17.0442635,21.2282744],[-17.0443051,21.2285945],[-17.0443064,21.228682],[-17.0442715,21.2287607],[-17.0442005,21.2288357],[-17.0441388,21.2289257],[-17.0441253,21.2289882],[-17.0441535,21.2290557],[-17.0441884,21.229117],[-17.0442031,21.2292683],[-17.0441911,21.229462],[-17.0441562,21.2296083],[-17.0441763,21.2296833],[-17.0441951,21.2297896],[-17.0441575,21.2299158],[-17.0440261,21.2300483],[-17.0439148,21.2301433],[-17.0437525,21.2303921],[-17.0436023,21.2307059],[-17.0435554,21.2309071],[-17.0435554,21.2310546],[-17.0435634,21.2312522],[-17.0435795,21.2313984],[-17.0435916,21.2314872],[-17.0435742,21.2319122],[-17.0435339,21.2320084],[-17.0434776,21.232101],[-17.0433408,21.2322547],[-17.0432724,21.2323447],[-17.0432335,21.2324572],[-17.0431799,21.2326735],[-17.0431678,21.232911],[-17.0431812,21.233091],[-17.0432121,21.233191],[-17.0432791,21.2333073],[-17.0434132,21.2337173],[-17.0434038,21.2338123],[-17.0433542,21.2338723],[-17.0432335,21.2339298],[-17.0431557,21.2339323],[-17.0430873,21.2339273],[-17.0430243,21.2339385],[-17.042972,21.2339936],[-17.0429358,21.2340698],[-17.0427816,21.2344661],[-17.0427199,21.2346923],[-17.0427212,21.2347798],[-17.0427427,21.2348223],[-17.0427534,21.2348736],[-17.0427547,21.2349561],[-17.0427722,21.2350123],[-17.0428218,21.2350998],[-17.0428325,21.2351386],[-17.042807,21.2352536],[-17.0427373,21.2354799],[-17.0427199,21.2355799],[-17.0427105,21.2356974],[-17.0427185,21.2357486],[-17.0427454,21.2357986],[-17.0427534,21.2358399],[-17.0425978,21.2361486],[-17.0425791,21.2361911],[-17.0425764,21.2362474],[-17.0425884,21.2363124],[-17.0425871,21.2364711],[-17.0424825,21.2367624],[-17.0423913,21.2368987],[-17.042339,21.2370237],[-17.0423296,21.2370874],[-17.0423377,21.2371674],[-17.042343,21.2372074],[-17.0423175,21.2372412],[-17.0422639,21.2372662],[-17.042162,21.2372862],[-17.0420775,21.2373174],[-17.0420265,21.2373687],[-17.0419434,21.2374774],[-17.0418844,21.2376374],[-17.041883,21.2377837],[-17.0418991,21.2379374],[-17.0419407,21.2380499],[-17.0419501,21.2381187],[-17.04193,21.2381887],[-17.0418777,21.2382862],[-17.0418093,21.2383599],[-17.0417596,21.2384006],[-17.0417254,21.2384431],[-17.0416892,21.2385181],[-17.0416081,21.2388237],[-17.0416161,21.2390274],[-17.0416671,21.2391174],[-17.0416859,21.2391799],[-17.0416671,21.2392499],[-17.0416054,21.2392874],[-17.0415089,21.2392774],[-17.0413828,21.2393149],[-17.041195,21.2393799],[-17.0410019,21.2395399],[-17.0408598,21.2397824],[-17.0405754,21.2403224],[-17.0404655,21.2404299],[-17.0403931,21.2405699],[-17.0403716,21.2406999],[-17.040334,21.2408549],[-17.0402536,21.2410124],[-17.0401651,21.2411224],[-17.0400631,21.2413574],[-17.0398539,21.2420824],[-17.0398513,21.2422024],[-17.0398539,21.2423174],[-17.039701,21.2427824],[-17.0395723,21.2429824],[-17.0393631,21.2433674],[-17.0392826,21.2434887],[-17.0392343,21.2435962],[-17.039237,21.2436737],[-17.0392826,21.2437387],[-17.0394771,21.2438499],[-17.0395535,21.2439362],[-17.0396005,21.2440524],[-17.0396139,21.2442012],[-17.0395803,21.2442924],[-17.039516,21.2443236],[-17.0394583,21.2443374],[-17.0394208,21.2443561],[-17.0393061,21.2444555],[-17.0392853,21.2444811],[-17.0392813,21.2445186],[-17.0393202,21.2447786],[-17.0393175,21.2449011],[-17.0392947,21.2450274],[-17.0392585,21.2451161],[-17.0392612,21.2451761],[-17.0392773,21.2452211],[-17.0393953,21.2453486],[-17.0394771,21.2454674],[-17.0395897,21.2457536],[-17.039642,21.2459586],[-17.039642,21.2460223],[-17.0396179,21.2460561],[-17.0393872,21.2461523],[-17.039288,21.2461936],[-17.0392223,21.2462486],[-17.0391995,21.2463173],[-17.0392129,21.2463898],[-17.0392907,21.2465773],[-17.0393014,21.2466698],[-17.0392773,21.2467598],[-17.0391244,21.2469723],[-17.0390292,21.2470598],[-17.0388065,21.2472235],[-17.0384927,21.2474998],[-17.0383331,21.2476523],[-17.038262,21.2477923],[-17.0382473,21.2479185],[-17.0382473,21.2481048],[-17.0382674,21.2481673],[-17.0382915,21.248246],[-17.0382862,21.248356],[-17.0382634,21.2484197],[-17.0382272,21.2484672],[-17.0381829,21.248491],[-17.0381333,21.2485235],[-17.0381105,21.2485685],[-17.0380837,21.2486072],[-17.0380434,21.248636],[-17.0379697,21.2487235],[-17.0377631,21.2491872],[-17.0377256,21.2493084],[-17.0377162,21.2494397],[-17.0376934,21.2494997],[-17.0376264,21.2495459],[-17.037558,21.2495909],[-17.0374681,21.2496772],[-17.0374145,21.2498147],[-17.0374051,21.2499421],[-17.0374279,21.2501971],[-17.0374319,21.2502521],[-17.0374534,21.2502846],[-17.0374668,21.2503246],[-17.037444,21.2505134],[-17.0374306,21.2506871],[-17.0374681,21.2510008],[-17.0375593,21.251412],[-17.0375955,21.2516033],[-17.0376009,21.251712],[-17.0375754,21.2517708],[-17.0375687,21.2518295],[-17.0375969,21.2519095],[-17.0377927,21.2522407],[-17.0378597,21.2523645],[-17.0379522,21.2524807],[-17.0382285,21.2526882],[-17.0382902,21.2527569],[-17.0383345,21.2528607],[-17.0383613,21.2529444],[-17.0383412,21.2530357],[-17.0382312,21.2531844],[-17.0382151,21.2532981],[-17.0382325,21.2533631],[-17.0382231,21.2533956],[-17.0382003,21.2534094],[-17.0381279,21.2534056],[-17.0380689,21.2533969],[-17.0380153,21.2533969],[-17.0379455,21.2534081],[-17.0378973,21.2534569],[-17.0378543,21.2535281],[-17.0378624,21.2535944],[-17.0378611,21.2536256],[-17.0378396,21.2536494],[-17.0378101,21.2536569],[-17.0377551,21.2536794],[-17.0376921,21.2537169],[-17.0375794,21.2538443],[-17.0373541,21.2541993],[-17.0370966,21.2545093],[-17.0369035,21.2547793],[-17.0368539,21.2549305],[-17.0368539,21.2550692],[-17.0368633,21.2551792],[-17.0368525,21.255283],[-17.0368338,21.2554054],[-17.0368029,21.2555667],[-17.0367412,21.2556917],[-17.03665,21.2558329],[-17.0365481,21.2559804],[-17.0364904,21.2561741],[-17.0364395,21.2563279],[-17.0364153,21.2564278],[-17.0364288,21.2565028],[-17.0364408,21.2565741],[-17.0364127,21.2566591],[-17.0363697,21.2567166],[-17.0363456,21.2567678],[-17.0363523,21.2568428],[-17.0363711,21.2569215],[-17.0363724,21.2569628],[-17.0363349,21.2570465],[-17.036182,21.2573615],[-17.0361096,21.2575502],[-17.0359164,21.2577514],[-17.0357998,21.2578327],[-17.0357475,21.2579014],[-17.0357354,21.2579714],[-17.0357595,21.2580527],[-17.0358413,21.2581064],[-17.0358977,21.2581389],[-17.0359379,21.2581976],[-17.035946,21.2582476],[-17.0359299,21.2582864],[-17.035891,21.2582926],[-17.035785,21.2583126],[-17.0357113,21.2583589],[-17.0356067,21.2584289],[-17.035557,21.2585576],[-17.0355222,21.2586913],[-17.0355128,21.2587463],[-17.03549,21.2587813],[-17.0353894,21.2589401],[-17.0352606,21.2592438],[-17.0352767,21.2593275],[-17.0353344,21.2594037],[-17.0354202,21.2594637],[-17.0355034,21.25953],[-17.0357448,21.2597862],[-17.0358668,21.2599374],[-17.0359084,21.2600424],[-17.0359004,21.2601449],[-17.0358762,21.2602361],[-17.0358118,21.2603099],[-17.0357502,21.2603174],[-17.0356751,21.2602861],[-17.0355785,21.2602149],[-17.0355316,21.2601924],[-17.035498,21.2601874],[-17.0354551,21.2602086],[-17.0354216,21.2602561],[-17.0353881,21.2604361],[-17.0352606,21.2607461],[-17.0351158,21.261011],[-17.0350367,21.261216],[-17.0350152,21.2613447],[-17.0350193,21.2614635],[-17.0351051,21.2616409],[-17.0352405,21.2618122],[-17.0353693,21.2618934],[-17.0355342,21.2619446],[-17.0357388,21.261944],[-17.0358038,21.2619409],[-17.0358548,21.2619521],[-17.0358963,21.2619796],[-17.0359071,21.2620309],[-17.0359392,21.2621871],[-17.0359553,21.2624358],[-17.0359822,21.2626033],[-17.0360398,21.2627195],[-17.0360559,21.2627808],[-17.0360586,21.2628458],[-17.0360546,21.2628945],[-17.0360573,21.2629682],[-17.0360492,21.2630545],[-17.0360371,21.263137],[-17.0360573,21.2632245],[-17.0361015,21.2633482],[-17.0361055,21.2634007],[-17.0361015,21.2634619],[-17.0361082,21.2635319],[-17.0361283,21.2635781],[-17.036135,21.2636244],[-17.0361002,21.2636569],[-17.0360599,21.2636656],[-17.0359822,21.2636881],[-17.0359071,21.2637119],[-17.0358802,21.2637569],[-17.0358507,21.2639356],[-17.0358762,21.2640518],[-17.035958,21.2641556],[-17.0360693,21.2642468],[-17.0361672,21.2642943],[-17.0362289,21.2643455],[-17.0362759,21.264438],[-17.0363107,21.264603],[-17.036292,21.2647242],[-17.0363255,21.2649004],[-17.0363845,21.2650454],[-17.0364127,21.2651904],[-17.0364328,21.2653029],[-17.0364328,21.2653641],[-17.0363939,21.2654528],[-17.0363295,21.2655053],[-17.0362289,21.2656316],[-17.0361699,21.265789],[-17.0361498,21.265954],[-17.036135,21.2659928],[-17.0361042,21.266019],[-17.036009,21.2660227],[-17.0359205,21.2660252],[-17.0358668,21.2660602],[-17.0358065,21.2661327],[-17.0355932,21.2665177],[-17.0355731,21.2665914],[-17.0355731,21.2666539],[-17.0356536,21.2667601],[-17.0356925,21.2668351],[-17.0356992,21.2669501],[-17.0356871,21.2670688],[-17.0356925,21.26718],[-17.0357327,21.2672588],[-17.0357917,21.2674187],[-17.0358118,21.2675837],[-17.0357864,21.2677224],[-17.0357354,21.2678262],[-17.035726,21.2679599],[-17.0358092,21.2683486],[-17.0358896,21.2686398],[-17.036013,21.2688447],[-17.0361444,21.2690659],[-17.036186,21.2691559],[-17.0361981,21.2692484],[-17.0362008,21.2693359],[-17.0362155,21.2694009],[-17.036237,21.2694646],[-17.0362276,21.2695296],[-17.0362135,21.2696002],[-17.0362075,21.2696361],[-17.0362142,21.2696646],[-17.0362182,21.2696786],[-17.0362148,21.2696918],[-17.0361991,21.269698],[-17.036178,21.2696958],[-17.0361511,21.2696833],[-17.0361334,21.2696758],[-17.0360908,21.2696683],[-17.0360211,21.2696871],[-17.0359379,21.2697758],[-17.0358427,21.2698858],[-17.0357488,21.2699595],[-17.0357166,21.269967],[-17.035667,21.269967],[-17.0356214,21.2699758],[-17.0356026,21.2700208],[-17.0355812,21.270107],[-17.0355624,21.2704419],[-17.0355785,21.2706844],[-17.0355825,21.2707219],[-17.0355704,21.2707718],[-17.0355409,21.2708093],[-17.0354685,21.2708893],[-17.0353163,21.2710343],[-17.0352298,21.2710974],[-17.0351399,21.2711849],[-17.0350286,21.2712855],[-17.0349804,21.2713517],[-17.0349629,21.2714367],[-17.0349777,21.2715142],[-17.0350246,21.2716967],[-17.035097,21.2718379],[-17.0351855,21.2719666],[-17.0354444,21.2724015],[-17.0355785,21.2725952],[-17.0356925,21.2727477],[-17.0357086,21.2728127],[-17.0357092,21.2728989],[-17.0356663,21.2730939],[-17.0356616,21.2731638],[-17.0356844,21.2732388],[-17.0357555,21.273365],[-17.035781,21.2734663],[-17.035777,21.2735388],[-17.0357166,21.2737037],[-17.0356965,21.2739174],[-17.0356898,21.2739912],[-17.0356603,21.2740311],[-17.0355999,21.2740561],[-17.0354953,21.2740686],[-17.0354404,21.2740636],[-17.0353867,21.2740774],[-17.0353358,21.2741036],[-17.0351775,21.2742286],[-17.0351158,21.2743836],[-17.0350568,21.2745685],[-17.03492,21.2749072],[-17.0348878,21.2749409],[-17.0348114,21.2749697],[-17.0347349,21.2750059],[-17.0345874,21.2751521],[-17.0344278,21.2754621],[-17.0340925,21.2760582],[-17.0337546,21.2767005],[-17.0333657,21.2775103],[-17.0331109,21.2780677],[-17.0329283,21.2783303],[-17.0325528,21.2788316],[-17.0323196,21.2792499],[-17.0322284,21.2795098],[-17.0320568,21.2798172],[-17.0318368,21.2801196],[-17.0317242,21.2803421],[-17.0316839,21.280562],[-17.0316625,21.2808569],[-17.0316276,21.2809832],[-17.0316021,21.2810669],[-17.0316128,21.2811519],[-17.0316477,21.2812106],[-17.0316611,21.2812631],[-17.0316665,21.2813443],[-17.0316356,21.281423],[-17.031578,21.2815005],[-17.0315592,21.2815767],[-17.0316115,21.2818242],[-17.0316343,21.2819566],[-17.0316289,21.2821491],[-17.0316423,21.2823278],[-17.0316196,21.282419],[-17.0315297,21.2825552],[-17.0315109,21.2826189],[-17.0315029,21.2827339],[-17.0314814,21.2827964],[-17.0314358,21.2828151],[-17.0313956,21.2828351],[-17.0313406,21.2828901],[-17.0313098,21.2830251],[-17.0313218,21.2831775],[-17.03135,21.2834062],[-17.0313426,21.2835043],[-17.0313346,21.2835893],[-17.0313178,21.2836418],[-17.0312702,21.2836674],[-17.0311609,21.2837136],[-17.031114,21.2837436],[-17.0310523,21.2838661],[-17.0310147,21.2840423],[-17.0308618,21.2844584],[-17.0308377,21.2845165],[-17.0308363,21.2845602],[-17.0308498,21.2846221],[-17.0308457,21.2846708],[-17.0307961,21.2848033],[-17.0307747,21.2848358],[-17.0307445,21.2848552],[-17.0307163,21.2848795],[-17.0306861,21.2850245],[-17.0306871,21.2850548],[-17.0306898,21.2850942],[-17.0306794,21.285127],[-17.0306533,21.2851432],[-17.0304273,21.2854281],[-17.0302382,21.2856355],[-17.0301095,21.2858042],[-17.0300826,21.2858905],[-17.0300786,21.2859904],[-17.0301081,21.2860517],[-17.0301175,21.2860992],[-17.0300666,21.2863728],[-17.0300384,21.286544],[-17.0299995,21.2865965],[-17.029919,21.2866415],[-17.029797,21.2867027],[-17.029679,21.2867889],[-17.0296253,21.2868939],[-17.0296052,21.2870351],[-17.0296066,21.2872251],[-17.0296468,21.287475],[-17.0296347,21.2876724],[-17.029573,21.2877761],[-17.029518,21.2878324],[-17.0293839,21.2878836],[-17.029286,21.2879623],[-17.029109,21.2883097],[-17.028932,21.2885996],[-17.0286933,21.2891144],[-17.0284331,21.2895793],[-17.0282292,21.2900916],[-17.0281488,21.290499],[-17.0280924,21.2906314],[-17.0280039,21.2907114],[-17.0279101,21.2908264],[-17.0277599,21.2911413],[-17.0276338,21.2914936],[-17.0276338,21.2916148],[-17.0276485,21.2917348],[-17.0276539,21.2918098],[-17.0276284,21.2919197],[-17.0275573,21.2921072],[-17.0275506,21.2923933],[-17.0276231,21.2925557],[-17.0276633,21.2927782],[-17.0277866,21.2932605],[-17.0277357,21.2935679],[-17.0277679,21.2938453],[-17.0279852,21.2940927],[-17.0281783,21.2942602],[-17.0282453,21.2944176],[-17.0284143,21.2945975],[-17.0286316,21.29482],[-17.0289561,21.2951373],[-17.0291278,21.2952573],[-17.0289457,21.2952638],[-17.0288229,21.2952121],[-17.0285851,21.2952675],[-17.0283632,21.2952564],[-17.0281255,21.2951604],[-17.0280185,21.2954115],[-17.0278877,21.2955222],[-17.0277799,21.2954332],[-17.0277327,21.2953892],[-17.0274063,21.2950895],[-17.0271824,21.2950626],[-17.0264494,21.2947617],[-17.0261752,21.2944165],[-17.0255842,21.2939272],[-17.0246035,21.2939652],[-17.0245186,21.2940355],[-17.0232748,21.2941296],[-17.0231706,21.2941452],[-17.0231009,21.2941977],[-17.0229234,21.294327],[-17.0212712,21.2941871],[-17.0205568,21.2940109],[-17.0194473,21.2937372],[-17.0171298,21.2934174],[-17.0160806,21.2931965],[-17.015027,21.2928076],[-17.014448,21.2925433],[-17.0138318,21.2922388],[-17.0138468,21.2921178],[-17.0129616,21.2919979],[-17.0122084,21.2921659],[-17.0116796,21.2922478],[-17.0116022,21.2923009],[-17.0114654,21.2923358],[-17.0112857,21.2923883],[-17.0110524,21.2925083],[-17.0109263,21.2925633],[-17.0107949,21.2925858],[-17.0106205,21.2926757],[-17.0104833,21.2926926],[-17.0101807,21.2926632],[-17.0100841,21.2926782],[-17.0097193,21.2926182],[-17.0094967,21.2925858],[-17.0093326,21.2925452],[-17.0085253,21.2927276],[-17.007882,21.2928882],[-17.0077801,21.2930481],[-17.0075038,21.2931231],[-17.0072141,21.2931855],[-17.0062857,21.2934899],[-17.0057121,21.2935379],[-17.0049848,21.2936473],[-17.0038154,21.2939871],[-17.0028712,21.2935273],[-17.0007791,21.2928276],[-17.0000553,21.2926083],[-16.999433,21.2922334],[-16.9981291,21.291598],[-16.9978291,21.2916436],[-16.9974375,21.2914587],[-16.996842,21.2912687],[-16.99564,21.2908383],[-16.9949976,21.2906511],[-16.9945312,21.2904734],[-16.9936798,21.2900123],[-16.9928827,21.2895387],[-16.9920104,21.2890789],[-16.9914343,21.288709],[-16.9911553,21.288679],[-16.9907047,21.2888989],[-16.9896962,21.288759],[-16.9878294,21.2878492],[-16.9872822,21.2875493],[-16.9869925,21.2875393],[-16.9866311,21.2878688],[-16.9861879,21.288549],[-16.9854778,21.2892942],[-16.9852223,21.2894287],[-16.983613,21.2893787],[-16.9821967,21.2892888],[-16.9815208,21.2891388],[-16.981218,21.2892504],[-16.9798294,21.2888556],[-16.9795705,21.2887679],[-16.9792763,21.2888556],[-16.9791068,21.2892188],[-16.9785811,21.288719],[-16.977903,21.2882547],[-16.9774872,21.2879798],[-16.9772293,21.2878468],[-16.9770393,21.2877274],[-16.9768944,21.2876049],[-16.9767711,21.2874125],[-16.976489,21.2871695],[-16.9757809,21.2868596],[-16.9749333,21.2864497],[-16.9747861,21.2863985],[-16.974442,21.2864272],[-16.9723262,21.2863897],[-16.9717661,21.2862978],[-16.9713691,21.2861779],[-16.9708809,21.2860879],[-16.9706664,21.2860229],[-16.9703762,21.2860223],[-16.9702587,21.285943],[-16.9700763,21.2858405],[-16.9693865,21.2857499],[-16.9689949,21.285606],[-16.9686586,21.2854448],[-16.9684521,21.2852808],[-16.9682359,21.2851941],[-16.967863,21.2851001],[-16.9674937,21.2850539],[-16.9672869,21.2849539],[-16.9670538,21.2849599],[-16.9667559,21.2849617],[-16.9665233,21.2849164],[-16.9663641,21.284927],[-16.9662246,21.2848883],[-16.9660784,21.2849295],[-16.9658245,21.2849402],[-16.9657016,21.2849645],[-16.9656281,21.2849594],[-16.9652604,21.2849145],[-16.964989,21.2848302],[-16.9648446,21.2848358],[-16.9645657,21.2847746],[-16.9644275,21.2847383],[-16.9641741,21.2846446],[-16.9638923,21.2846036],[-16.9638482,21.2845671],[-16.9636886,21.2845534],[-16.9633891,21.2845353],[-16.9631159,21.2845859],[-16.9628035,21.2845759],[-16.9626492,21.2845921],[-16.9625942,21.2846271],[-16.962487,21.2846371],[-16.9622978,21.2846183],[-16.961866,21.2847258],[-16.96163,21.2847858],[-16.9614257,21.2848102],[-16.9599452,21.2845203],[-16.960012,21.2842296],[-16.9601866,21.2834693],[-16.960428,21.2824183],[-16.9630439,21.2711188],[-16.9643672,21.2654231],[-16.967612,21.2513259],[-16.96836,21.248076],[-16.972308,21.231049],[-16.9761945,21.2138619],[-16.9801981,21.1966539],[-16.9841739,21.1794219],[-16.988029,21.1623949],[-16.991944,21.145278],[-16.9935999,21.13782],[-16.997572,21.1287897],[-17.0000086,21.1209485],[-17.0016323,21.1163662],[-17.0038294,21.1112311],[-17.005278,21.106944],[-17.0070182,21.1020568],[-17.0088076,21.0971569],[-17.010556,21.091667],[-17.013056,21.0875],[-17.015833,21.083333],[-17.018611,21.078889],[-17.021111,21.074722],[-17.023889,21.070556],[-17.026535,21.0679094]]]}}]}
