{"type":"FeatureCollection","features":[{"type":"Feature","properties":{"place":"migingo","region":"area/migingo","donors":"KE UG","rank":3,"whose_line":"the islet's coastline (OSM mappers)","publisher":"OpenStreetMap contributors","source_url":"https://www.openstreetmap.org/way/488350000","version_or_date":"snapshot 2026-10-04T06:57:51Z (Overpass attic query); way 488350000 v5","feature_id":"way 488350000","licence":"ODbL 1.0","notes":"Migingo Island's coastline (about 0.008 km²). No single holder: the latest report from the island (AFP, October 2018) says it is co-managed by Kenya and Uganda. GADM puts the islet in a Ugandan lake unit.","input_sha256":"9aecb59eb9e9cc060c149390f264d7a93d9f4ab2b8676dea9619a93a946bed50","operation":"assembled from the OSM element's member ways (outer minus inner)","crs":"WGS84 longitude/latitude, as in the source (no reprojection)","source_features":[{"id":"way 488350000 v5","osm":"way/488350000","version":5,"timestamp":"2023-06-03T17:24:46Z","name":"Migingo Island","place":"islet"}]},"geometry":{"type":"Polygon","coordinates":[[[33.9379276,-0.8826331],[33.9379253,-0.8826499],[33.937926,-0.8826737],[33.9379313,-0.8826982],[33.9379414,-0.8827213],[33.9379575,-0.8827585],[33.9379568,-0.8827763],[33.9379545,-0.8828065],[33.9379357,-0.8828443],[33.9379276,-0.8828621],[33.9379186,-0.8828893],[33.9379172,-0.8829181],[33.9379172,-0.8829506],[33.9379291,-0.8829971],[33.9379431,-0.8830227],[33.9379548,-0.8830451],[33.9379712,-0.8830663],[33.9379876,-0.8830938],[33.9380175,-0.8831132],[33.9380423,-0.8831293],[33.9380717,-0.8831353],[33.9381114,-0.8831353],[33.9381558,-0.8831306],[33.9381932,-0.8831353],[33.9382585,-0.8831376],[33.9383139,-0.883138],[33.9383541,-0.8831259],[33.9383917,-0.8831132],[33.9384601,-0.8830642],[33.9385157,-0.8830254],[33.93857,-0.8829838],[33.9386243,-0.8829503],[33.9386793,-0.8829315],[33.9387095,-0.8829121],[33.9387444,-0.8828785],[33.9387719,-0.8828557],[33.9388081,-0.8828249],[33.9388436,-0.8828068],[33.9388838,-0.8827873],[33.9389174,-0.8827625],[33.9389422,-0.8827337],[33.9389744,-0.8826908],[33.9390173,-0.8826499],[33.9390635,-0.882603],[33.9391061,-0.8825792],[33.9391316,-0.8825651],[33.93915,-0.882545],[33.9391571,-0.8825242],[33.9391628,-0.8825084],[33.9391568,-0.8824833],[33.9391433,-0.8824478],[33.9391299,-0.88243],[33.9390937,-0.8823978],[33.9390662,-0.8824058],[33.9390267,-0.8824179],[33.9389831,-0.8824327],[33.9389408,-0.8824427],[33.9389073,-0.8824508],[33.9388631,-0.8824467],[33.9388356,-0.882434],[33.9388007,-0.8824119],[33.9387705,-0.8823851],[33.9387397,-0.882373],[33.9387028,-0.8823609],[33.9386719,-0.8823623],[33.9386377,-0.882371],[33.9386139,-0.8823745],[33.938566,-0.8823817],[33.9385124,-0.8823824],[33.9384674,-0.8823871],[33.9384158,-0.8823904],[33.9383675,-0.8824012],[33.9383326,-0.8824119],[33.9382944,-0.8824219],[33.9382502,-0.8824333],[33.938226,-0.8824434],[33.9381891,-0.8824568],[33.9381603,-0.8824648],[33.9381107,-0.8824816],[33.9380651,-0.8824977],[33.9380229,-0.8825306],[33.9379974,-0.8825527],[33.9379713,-0.8825773],[33.9379433,-0.8826006],[33.9379276,-0.8826331]]]}}]}
