{"type":"FeatureCollection","features":[{"type":"Feature","properties":{"place":"scarborough-shoal","region":"CN","donors":"","rank":2,"whose_line":"the coastline (uncontested), as drawn by the US Department of State","publisher":"US Department of State, Office of the Geographer and Global Issues (World Polygons, high-resolution layer DoS_WP_11_4)","source_url":"https://data.geodata.state.gov/WorldPolygons.zip","version_or_date":"World Polygons 11.4 BETA, 2025-02-24; read 2026-10-04","feature_id":"DoS_WP_11_4 fid 255","licence":"US government work, not subject to US copyright (17 U.S.C. § 105)","notes":"Natural Earth's polygon lies about 9 km west of DoS's 'Scarborough Reef'.","input_sha256":"55fab422ef09e35eb48d68141b9ece0ace86d4276dfe332a04dfd401c0bfc80c","operation":"none (the source feature's geometry as published)","crs":"WGS84 longitude/latitude, as in the source (no reprojection)","source_features":[{"id":"DoS_WP_11_4 fid 255","WP_Name":"Scarborough Reef","WP_ID":"5961eeea-67cc-4098-9062-a67dc45e2937","Map_Label":null,"NOTES":null,"US_Recog":null,"Show_Disp":null,"GENC_3":"XSP"}]},"geometry":{"type":"MultiPolygon","coordinates":[[[[117.84232370000007,15.123532000000068],[117.84351800000002,15.11932360000003],[117.83817210000007,15.11801550000007],[117.83618160000003,15.121712200000047],[117.83948010000006,15.124442000000045],[117.84232370000007,15.123532000000068]]]]}}]}
