{"type":"FeatureCollection","features":[{"type":"Feature","properties":{"place":"serranilla","region":"CO","donors":"","rank":3,"whose_line":"OpenStreetMap mappers (coastline)","publisher":"OpenStreetMap contributors","source_url":"https://www.openstreetmap.org/relation/8831214; https://www.openstreetmap.org/way/335569981; https://www.openstreetmap.org/way/1368829634; https://www.openstreetmap.org/way/1368829633","version_or_date":"snapshot 2026-10-04T06:57:51Z (Overpass attic query); relation 8831214 v4 (2026-06-19T03:29:02Z); way 335569981 v6 (2025-03-09T19:53:25Z); way 1368829634 v3 (2026-06-19T03:05:27Z); way 1368829633 v3 (2026-06-19T02:25:33Z)","feature_id":"relation 8831214; way 335569981; way 1368829634; way 1368829633","licence":"ODbL 1.0","notes":"Union of the bank's four mapped cays (Beacon Cay, East Cay, Middle Cay, Northeast Breaker). See bajo-nuevo for Natural Earth's swapped names. GADM has 0.005 km² of it in the San Andrés department (region rule/co-san-andres), not a donor.","input_sha256":"1838423be70b3ca5632ef5eaec9e63dbcc02882905378bd38723d4f9e6125ed7","operation":"union of the 4 source features","crs":"WGS84 longitude/latitude, as in the source (no reprojection)","source_features":[{"id":"relation 8831214 v4","osm":"relation/8831214","version":4,"timestamp":"2026-06-19T03:29:02Z","name":"Isla Serranilla","name:en":"Beacon Cay","place":"islet"},{"id":"way 335569981 v6","osm":"way/335569981","version":6,"timestamp":"2025-03-09T19:53:25Z","name":"Cayo del Este","name:en":"East Cay","place":"islet"},{"id":"way 1368829634 v3","osm":"way/1368829634","version":3,"timestamp":"2026-06-19T03:05:27Z","name":"Cayo del Medio","name:en":"Middle Cay","place":"islet"},{"id":"way 1368829633 v3","osm":"way/1368829633","version":3,"timestamp":"2026-06-19T02:25:33Z","name":"Rompiente Noreste","name:en":"Northeast Breaker","place":"islet"}]},"geometry":{"type":"MultiPolygon","coordinates":[[[[-79.8480726,15.797017],[-79.8479519,15.7969009],[-79.8478477,15.7968481],[-79.8476393,15.7967373],[-79.847376,15.7966212],[-79.8471018,15.7965209],[-79.8467837,15.7964418],[-79.8465917,15.7964259],[-79.8464217,15.7964259],[-79.8463284,15.7963995],[-79.8461529,15.7963626],[-79.8460213,15.7963468],[-79.8458951,15.7963468],[-79.8457745,15.7963626],[-79.8454235,15.7963573],[-79.8452754,15.7963995],[-79.8446556,15.7964259],[-79.8444527,15.7964048],[-79.8443649,15.7964418],[-79.8442388,15.7964734],[-79.8439645,15.7964787],[-79.8436903,15.796579],[-79.8432789,15.7966212],[-79.8431473,15.7966318],[-79.8430266,15.7965948],[-79.8429498,15.7965156],[-79.8429608,15.7963362],[-79.8429663,15.7962412],[-79.8430102,15.7961304],[-79.8431473,15.7959879],[-79.8435203,15.7957873],[-79.8438164,15.7956448],[-79.8440358,15.7955076],[-79.8442552,15.7953598],[-79.8445075,15.7951962],[-79.8449902,15.7949271],[-79.8454125,15.7947054],[-79.8457098,15.7946268],[-79.84629,15.7944732],[-79.8465698,15.794431],[-79.8467562,15.7944468],[-79.8468879,15.7944152],[-79.8470305,15.7943624],[-79.847387,15.794146],[-79.8475735,15.7940615],[-79.8477929,15.7940457],[-79.8479793,15.7940985],[-79.8482097,15.7942463],[-79.8485168,15.795001],[-79.8485552,15.795249],[-79.8485333,15.7955551],[-79.8485223,15.7957926],[-79.8485772,15.7960407],[-79.8487911,15.796447],[-79.8491147,15.7967109],[-79.8492792,15.7968587],[-79.8496467,15.797397],[-79.8496741,15.7974709],[-79.8496906,15.7975289],[-79.8496357,15.7976134],[-79.8495589,15.7976451],[-79.8494438,15.7976978],[-79.849345,15.7976978],[-79.8491279,15.7976554],[-79.8486156,15.7975553],[-79.848451,15.7974867],[-79.8483962,15.7974339],[-79.8482494,15.7972363],[-79.8482042,15.7971753],[-79.8480726,15.797017]]],[[[-79.770078,15.8557154],[-79.7701801,15.8556705],[-79.7703005,15.8556499],[-79.7707187,15.8555926],[-79.7707542,15.8555942],[-79.7708615,15.8556123],[-79.7708985,15.8556114],[-79.7710821,15.8555727],[-79.7711307,15.8555877],[-79.7711414,15.8556334],[-79.7711063,15.8556664],[-79.7703699,15.8558138],[-79.7702265,15.8558578],[-79.7700995,15.8559109],[-79.7698988,15.856106],[-79.7698296,15.8561239],[-79.7697836,15.8560896],[-79.7697783,15.8560337],[-79.770078,15.8557154]]],[[[-79.7365279,15.8656082],[-79.7365777,15.865616],[-79.7366114,15.8656553],[-79.7366053,15.8657144],[-79.7365757,15.8657636],[-79.7363226,15.8660059],[-79.7362952,15.8660417],[-79.7362742,15.8660806],[-79.736226,15.8662164],[-79.7361993,15.8662476],[-79.7361622,15.8662715],[-79.7361231,15.8662851],[-79.736069,15.8663187],[-79.7360269,15.8663562],[-79.7359978,15.8664001],[-79.7359597,15.8664936],[-79.7359453,15.8665451],[-79.7359478,15.8665966],[-79.7359496,15.8666569],[-79.7359476,15.8666991],[-79.7359362,15.866742],[-79.7359131,15.866778],[-79.7358825,15.8668158],[-79.7358371,15.8668564],[-79.7357887,15.866895],[-79.7357366,15.8669414],[-79.7354773,15.8671889],[-79.7354307,15.8672357],[-79.7353897,15.8672793],[-79.7353528,15.867333],[-79.7352973,15.8674283],[-79.7352734,15.8674548],[-79.7352335,15.8674644],[-79.7351978,15.8674493],[-79.7351803,15.8674179],[-79.7351884,15.8672736],[-79.7351993,15.8672192],[-79.7352215,15.8671626],[-79.7352622,15.8671034],[-79.7353857,15.8669439],[-79.7354333,15.8668758],[-79.7354698,15.8667964],[-79.7355062,15.8667152],[-79.7355667,15.8666413],[-79.7356397,15.8665792],[-79.7357487,15.8664816],[-79.7358066,15.8664236],[-79.7358541,15.8663618],[-79.735966,15.8661932],[-79.7360111,15.8661436],[-79.7360604,15.866098],[-79.7361954,15.8660031],[-79.7362277,15.8659722],[-79.7364802,15.8656433],[-79.7365279,15.8656082]]],[[[-79.7203727,15.8863714],[-79.7200624,15.8860846],[-79.7200437,15.8860048],[-79.7200703,15.8859379],[-79.7201282,15.8858945],[-79.720356,15.8858855],[-79.7203985,15.8858905],[-79.7205155,15.8859321],[-79.7205585,15.8859409],[-79.7207207,15.8859378],[-79.720769,15.8859695],[-79.7207886,15.886026],[-79.7207706,15.8861108],[-79.7207004,15.8862334],[-79.720568,15.8863679],[-79.720473,15.8863995],[-79.7203727,15.8863714]]]]}}]}
