{"type":"FeatureCollection","features":[{"type":"Feature","properties":{"place":"ankoko-island","region":"area/ankoko-island","donors":"VE GY","rank":3,"whose_line":"OSM mappers (the island's coastline) cut by the US State Department's Guyana-Venezuela line (the 1899 award, demarcated 1905)","publisher":"OpenStreetMap contributors","source_url":"https://www.openstreetmap.org/relation/13096872","version_or_date":"snapshot 2026-10-04T06:57:51Z (Overpass attic query); relation 13096872 v2","feature_id":"relation 13096872","licence":"ODbL 1.0; US government work","notes":"Guyana's side of the island, which Venezuela holds and Guyana claims. GADM puts 8.04 km² of the island in Venezuela's Sifontes.","input_sha256":"7f7544b823127e19cf6ff6cdf7883afab17dd2502ddefc3cba79c162c78d9883","operation":"assembled from the OSM element's member ways (outer minus inner); intersected with dos-worldpolygons-11.4 DoS_WP_11_4 fid 123","crs":"WGS84 longitude/latitude, as in the source (no reprojection)","source_features":[{"id":"relation 13096872 v2","osm":"relation/13096872","version":2,"timestamp":"2025-06-19T14:19:23Z","name":"Isla de Anacoco","name:en":"Ankoko Island","place":"island"},{"id":"DoS_WP_11_4 fid 123","WP_Name":"Guyana","GENC_3":"GUY"}]},"geometry":{"type":"Polygon","coordinates":[[[-61.1385127,6.7223243],[-61.1388775,6.7221092],[-61.1393951,6.7218622],[-61.1395385,6.7217254],[-61.1397698,6.7215745],[-61.1398562,6.7214874],[-61.1400882,6.7213533],[-61.140186,6.7213524],[-61.1404125,6.7210506],[-61.140682,6.7207488],[-61.1410239,6.720399],[-61.14128,6.7201665],[-61.1415259,6.7199838],[-61.1418568,6.7196183],[-61.1422037,6.7192178],[-61.1427013,6.718707],[-61.1432697,6.7181962],[-61.143501,6.717978],[-61.1436332,6.717823],[-61.1437548,6.7177777],[-61.1440139,6.7175197],[-61.1443788,6.71712],[-61.1446375,6.7167766],[-61.1448346,6.7166421],[-61.1448962,6.7164708],[-61.1451044,6.7161983],[-61.1452632,6.7160311],[-61.1452904,6.715957],[-61.1457485,6.7154398],[-61.1460721,6.715109],[-61.1465948,6.7146131],[-61.1466784,6.7144083],[-61.1470296,6.7140945],[-61.1474374,6.7137456],[-61.1479428,6.7133014],[-61.1483775,6.7128713],[-61.1484958,6.7127111],[-61.1485504,6.7125649],[-61.1486313,6.7123851],[-61.1488359,6.7122528],[-61.148991,6.7121838],[-61.1492609,6.7119083],[-61.1493822,6.7117031],[-61.149835,6.7109408],[-61.15043599999996,6.710273053220425],[-61.15043599999996,6.7312915846547625],[-61.1503416,6.7313616],[-61.1501215,6.7318925],[-61.149995,6.7320704],[-61.1498967,6.7321569],[-61.1499197,6.7323089],[-61.1496221,6.7326847],[-61.149507,6.7330485],[-61.1494355,6.7332113],[-61.1493479,6.7332836],[-61.1492981,6.7334075],[-61.1492626,6.7334957],[-61.1492433,6.7335838],[-61.1491713,6.7336699],[-61.1490659,6.7336973],[-61.1489927,6.733826],[-61.148822,6.7339981],[-61.1487104,6.7341116],[-61.1485128,6.7342764],[-61.1483178,6.7344018],[-61.1480275,6.7344842],[-61.1479229,6.7345214],[-61.1478263,6.7345934],[-61.1474401,6.7349237],[-61.1472309,6.7350515],[-61.147145,6.7350569],[-61.1470726,6.7350409],[-61.1469466,6.7349743],[-61.146673,6.7349077],[-61.1464852,6.7349024],[-61.146327,6.7349157],[-61.1461768,6.734969],[-61.1460534,6.7350808],[-61.1458871,6.7352779],[-61.1457101,6.7354724],[-61.1455116,6.7356429],[-61.1453185,6.7357361],[-61.1451334,6.7357761],[-61.1448973,6.7357947],[-61.1446747,6.7357681],[-61.1443743,6.7356455],[-61.1441731,6.7355843],[-61.1439908,6.7355763],[-61.143795,6.7355976],[-61.143575,6.7356722],[-61.1433792,6.73584],[-61.1432478,6.7360078],[-61.1431888,6.7361436],[-61.1431539,6.7362795],[-61.1431432,6.7364739],[-61.14317,6.7366471],[-61.1432558,6.7368735],[-61.143288,6.7370067],[-61.1432907,6.7371612],[-61.1432076,6.7374941],[-61.1431029,6.7377365],[-61.1429715,6.7379363],[-61.1427087,6.7384025],[-61.1424914,6.7390018],[-61.1424404,6.7392442],[-61.1424243,6.7394519],[-61.1424458,6.739729],[-61.1424807,6.7399287],[-61.1425236,6.7400965],[-61.142596,6.7402377],[-61.1426416,6.7404135],[-61.1426577,6.7405733],[-61.1426309,6.7407465],[-61.1425692,6.740909],[-61.1422956,6.7413112],[-61.1421347,6.7415296],[-61.141845,6.7418199],[-61.1414802,6.7420597],[-61.1411825,6.7422008],[-61.1409149,6.7423145],[-61.1405426,6.7424321],[-61.1404519,6.7425232],[-61.1402114,6.7426051],[-61.1398977,6.7425578],[-61.1396357,6.7426275],[-61.1392263,6.7425897],[-61.1390444,6.7426448],[-61.1389006,6.7426207],[-61.1387202,6.7425684],[-61.1384788,6.7425631],[-61.1381567,6.7425206],[-61.1378347,6.7425105],[-61.1376371,6.7425417],[-61.1372374,6.7424466],[-61.1370697,6.742391],[-61.1366,6.7422617],[-61.1361034,6.7420509],[-61.1358429,6.7420159],[-61.1356974,6.7419033],[-61.135224,6.7417952],[-61.1348655,6.7417064],[-61.1346097,6.7415898],[-61.1344192,6.7414286],[-61.1343093,6.7412333],[-61.1341782,6.7409748],[-61.1340494,6.7407433],[-61.1339559,6.7405118],[-61.1337782,6.7402351],[-61.1336784,6.7400427],[-61.1336627,6.7399251],[-61.1336066,6.7398124],[-61.1335854,6.7397699],[-61.1335677,6.7397343],[-61.1334616,6.7395213],[-61.13337,6.73932],[-61.1331949,6.7389671],[-61.1331687,6.7386587],[-61.1330655,6.7385587],[-61.1329932,6.738477],[-61.1329491,6.7384017],[-61.1328918,6.7383399],[-61.1328256,6.7381815],[-61.132621,6.738079],[-61.1325251,6.737895],[-61.1323449,6.7378308],[-61.132235,6.7376676],[-61.1321508,6.7375926],[-61.1321739,6.7374248],[-61.1320708,6.7373067],[-61.1319461,6.7370926],[-61.1318118,6.7368254],[-61.1317676,6.7366697],[-61.1317089,6.7364296],[-61.1316235,6.7362587],[-61.1316182,6.7361394],[-61.1315808,6.7360574],[-61.1314791,6.7358934],[-61.1314258,6.7357412],[-61.1313003,6.7355873],[-61.131219,6.7353658],[-61.1311336,6.7351659],[-61.1310412,6.7350293],[-61.1309483,6.7346997],[-61.1308758,6.7346171],[-61.130767,6.7343344],[-61.1307573,6.7342275],[-61.1305681,6.7339504],[-61.1305882,6.7337855],[-61.1304779,6.7335766],[-61.1303181,6.7333677],[-61.1300328,6.7328975],[-61.1299151,6.7326671],[-61.1294932,6.7324733],[-61.1292314,6.7323774],[-61.1289472,6.7321797],[-61.1287354,6.7319727],[-61.1286095,6.7317978],[-61.1284756,6.7317138],[-61.128405,6.7315875],[-61.1282955,6.7314716],[-61.1281646,6.7313838],[-61.1279293,6.7312592],[-61.1278426,6.7311512],[-61.1276946,6.7311486],[-61.1275897,6.7310694],[-61.1274635,6.7309902],[-61.1273316,6.730874],[-61.1272138,6.7306876],[-61.1271101,6.7306065],[-61.1269397,6.7305291],[-61.1268259,6.7305501],[-61.1266381,6.7304921],[-61.1265352,6.7304973],[-61.1264307,6.7304841],[-61.1262341,6.7304287],[-61.12611,6.7304796],[-61.1260505,6.7304312],[-61.1259074,6.7304563],[-61.125821,6.730411],[-61.1257594,6.7304747],[-61.1256543,6.7305206],[-61.1256058,6.7305594],[-61.1255109,6.7305814],[-61.1252496,6.7305339],[-61.1250659,6.7305136],[-61.1249388,6.7304653],[-61.1245769,6.7303372],[-61.1243478,6.7303886],[-61.1242879,6.7304977],[-61.1242159,6.7305624],[-61.1241567,6.7306612],[-61.1241464,6.7307479],[-61.1241171,6.7307716],[-61.1240261,6.7307745],[-61.1239966,6.7308975],[-61.123963,6.7309479],[-61.1238338,6.7309568],[-61.1237372,6.7309375],[-61.1236527,6.7309687],[-61.1235414,6.7309802],[-61.1233772,6.7309635],[-61.1233079,6.7309155],[-61.1232437,6.7307423],[-61.1231821,6.7307064],[-61.12304,6.7305905],[-61.1229734,6.730552],[-61.1228517,6.7303939],[-61.1227931,6.730265],[-61.1227238,6.729939],[-61.1227583,6.7298352],[-61.1227567,6.7296661],[-61.1227229,6.729529],[-61.1226608,6.7293948],[-61.1226201,6.7292074],[-61.1225838,6.7290513],[-61.1225394,6.7289592],[-61.1224909,6.7289028],[-61.1224583,6.7287367],[-61.1223529,6.7286133],[-61.1221849,6.728551],[-61.1220991,6.7284549],[-61.1219677,6.7282452],[-61.1219638,6.728169],[-61.1218825,6.7281148],[-61.1218296,6.7279468],[-61.1217517,6.7277057],[-61.1217353,6.7276335],[-61.1217618,6.7274868],[-61.1217087,6.7273007],[-61.1217038,6.7271413],[-61.1216858,6.7268285],[-61.121718,6.7265107],[-61.1217502,6.7263687],[-61.1217296,6.7261268],[-61.1218152,6.7257971],[-61.1218724,6.7254392],[-61.1219598,6.7252553],[-61.1220118,6.7249871],[-61.1219637,6.7246485],[-61.1219864,6.7245279],[-61.1218833,6.7244412],[-61.1218043,6.7242608],[-61.1217906,6.7241781],[-61.1218094,6.7240953],[-61.1217933,6.7240001],[-61.121848,6.7236447],[-61.1218081,6.7234108],[-61.1218059,6.7232201],[-61.1217456,6.723181],[-61.1217056,6.7231541],[-61.1217013,6.7230622],[-61.1217255,6.722988],[-61.1217213,6.7229017],[-61.1217577,6.7227167],[-61.1218307,6.7225318],[-61.1218709,6.722501],[-61.1219639,6.7223249],[-61.1220078,6.7223037],[-61.1221131,6.7220206],[-61.1220232,6.7219474],[-61.1220773,6.7216961],[-61.1220603,6.7216114],[-61.1220803,6.7212697],[-61.1221378,6.7211015],[-61.1221245,6.7209052],[-61.1222015,6.7205139],[-61.1222218,6.7204494],[-61.122276,6.7204364],[-61.122401,6.7204866],[-61.122518,6.7205597],[-61.1225933,6.7206594],[-61.1226608,6.7206564],[-61.122753,6.7206218],[-61.1229021,6.7205876],[-61.1229961,6.720525],[-61.1231347,6.7205009],[-61.1232839,6.7205506],[-61.1233701,6.7204902],[-61.1234316,6.7204648],[-61.1236284,6.7204759],[-61.1237083,6.7204974],[-61.1237786,6.7206734],[-61.1237626,6.7207288],[-61.1237253,6.7207772],[-61.1238252,6.7208515],[-61.1238791,6.7208696],[-61.1239197,6.7209197],[-61.1239617,6.7211414],[-61.1240815,6.7213033],[-61.124086,6.7214154],[-61.1240976,6.7215943],[-61.1242003,6.7218221],[-61.1242143,6.7220288],[-61.1243031,6.7221831],[-61.124331,6.7223375],[-61.1243114,6.7224119],[-61.1242349,6.7224984],[-61.1242998,6.7226072],[-61.124385,6.7226938],[-61.1244885,6.7227015],[-61.1245726,6.7227801],[-61.1246996,6.7230871],[-61.1248972,6.723176],[-61.1252058,6.7232282],[-61.1254409,6.7231244],[-61.1255494,6.7231341],[-61.1258633,6.7230788],[-61.1261083,6.7230147],[-61.1264245,6.7231356],[-61.1268221,6.7229657],[-61.1270038,6.722699],[-61.1270461,6.7224678],[-61.1272364,6.7219551],[-61.127357,6.7214633],[-61.1276463,6.7211877],[-61.1277706,6.7212757],[-61.1279704,6.7212916],[-61.1282108,6.7213399],[-61.1282538,6.7214609],[-61.1284245,6.7214132],[-61.1285688,6.7213868],[-61.1286998,6.7213637],[-61.1287695,6.7214751],[-61.1289123,6.7215542],[-61.1289395,6.7216422],[-61.128943,6.7218043],[-61.1290293,6.7218946],[-61.1290602,6.7219422],[-61.1290696,6.7221083],[-61.1291159,6.7222745],[-61.1291593,6.7224129],[-61.1291947,6.7225918],[-61.1291503,6.7227558],[-61.129171,6.7229278],[-61.1291713,6.7231887],[-61.1292367,6.7233446],[-61.1292215,6.7234631],[-61.1292551,6.7235816],[-61.1293537,6.7236355],[-61.1294035,6.7237136],[-61.1295276,6.7237365],[-61.1297249,6.723711],[-61.1299324,6.7235725],[-61.1300503,6.723329],[-61.130337,6.7231709],[-61.1304692,6.7230451],[-61.1305872,6.7230115],[-61.1306977,6.7229086],[-61.1308445,6.7229098],[-61.1311143,6.7226958],[-61.1313127,6.7227085],[-61.1314437,6.7226026],[-61.1315604,6.7226193],[-61.1316396,6.7225614],[-61.1317856,6.722554],[-61.1318779,6.7225307],[-61.1320104,6.7225322],[-61.1321196,6.7225136],[-61.1321698,6.7224789],[-61.1322898,6.7224264],[-61.1323874,6.7224668],[-61.1324957,6.7224805],[-61.1326184,6.7223188],[-61.1327065,6.7222885],[-61.1328054,6.7222343],[-61.1328903,6.7222597],[-61.1332165,6.7221438],[-61.1333175,6.721946],[-61.1332897,6.7217908],[-61.1333401,6.7217588],[-61.1334291,6.7216949],[-61.1335021,6.7216309],[-61.1336024,6.7216362],[-61.1336114,6.7217227],[-61.133599,6.7218597],[-61.1337312,6.7219178],[-61.1337991,6.7219865],[-61.1339707,6.7221777],[-61.1340297,6.7223479],[-61.1341209,6.7224541],[-61.1341601,6.7226921],[-61.1342118,6.7227624],[-61.13436,6.7228434],[-61.1346243,6.7230985],[-61.1348232,6.72313],[-61.1349226,6.7231883],[-61.1350918,6.7232414],[-61.1353545,6.7232657],[-61.1354134,6.7233362],[-61.135758,6.7232713],[-61.1358303,6.7232563],[-61.1358962,6.723287],[-61.1359541,6.7232696],[-61.1360088,6.7232479],[-61.1361537,6.7232194],[-61.1362361,6.7231844],[-61.1363078,6.7232134],[-61.1365047,6.7231382],[-61.1366561,6.7231029],[-61.1367753,6.723057],[-61.1368367,6.7230425],[-61.1369318,6.7230405],[-61.137177,6.7229693],[-61.1374576,6.7229149],[-61.1376791,6.7228446],[-61.1383228,6.7225231],[-61.1385127,6.7223243]]]}}]}
