{"type":"FeatureCollection","features":[{"type":"Feature","properties":{"place":"bajo-nuevo","region":"CO","donors":"","rank":3,"whose_line":"OpenStreetMap mappers (coastline)","publisher":"OpenStreetMap contributors","source_url":"https://www.openstreetmap.org/way/335569980","version_or_date":"snapshot 2026-10-04T06:57:51Z (Overpass attic query); way 335569980 v2 (2024-12-07T18:37:11Z)","feature_id":"way 335569980","licence":"ODbL 1.0","notes":"Natural Earth's names are swapped: its 'Bajo Nuevo Bank (Petrel Is.)' (NE_ID 1159320425) lies at Serranilla Bank (about 79.8°W) and its 'Serranilla Bank' (1159321245) at Bajo Nuevo (about 78.6°W), where OSM maps 'Cayo Bajo Nuevo'. The membership row of NE_ID 1159320425 should point to this file's twin serranilla.geojson and vice versa. DoS has the cays only as parts of 'Colombia'.","input_sha256":"1838423be70b3ca5632ef5eaec9e63dbcc02882905378bd38723d4f9e6125ed7","operation":"assembled from the OSM element's member ways (outer minus inner)","crs":"WGS84 longitude/latitude, as in the source (no reprojection)","source_features":[{"id":"way 335569980 v2","osm":"way/335569980","version":2,"timestamp":"2024-12-07T18:37:11Z","name":"Cayo Bajo Nuevo","place":"islet"}]},"geometry":{"type":"Polygon","coordinates":[[[-78.641658,15.8857079],[-78.6422099,15.8857621],[-78.6424464,15.885892],[-78.6427956,15.8859245],[-78.6429195,15.885827],[-78.6429082,15.8856971],[-78.6426379,15.8855562],[-78.641827,15.8854262],[-78.6411512,15.8853612],[-78.6406105,15.8854371],[-78.6404979,15.8855237],[-78.6407119,15.8856212],[-78.6410836,15.8856429],[-78.641658,15.8857079]]]}}]}
