{"type":"FeatureCollection","features":[{"type":"Feature","properties":{"place":"biot","region":"IO","donors":"","rank":2,"whose_line":"the coastline (uncontested), as drawn by the US Department of State","publisher":"US Department of State, Office of the Geographer and Global Issues (World Polygons, high-resolution layer DoS_WP_11_4)","source_url":"https://data.geodata.state.gov/WorldPolygons.zip","version_or_date":"World Polygons 11.4 BETA, 2025-02-24; read 2026-10-04","feature_id":"DoS_WP_11_4 fid 41","licence":"US government work, not subject to US copyright (17 U.S.C. § 105)","notes":"The whole British Indian Ocean Territory (all atolls, with Diego Garcia); Natural Earth's disputed-area feature had the northern atolls only. Region IO also takes GADM's IOT units.","input_sha256":"55fab422ef09e35eb48d68141b9ece0ace86d4276dfe332a04dfd401c0bfc80c","operation":"none (the source feature's geometry as published)","crs":"WGS84 longitude/latitude, as in the source (no reprojection)","source_features":[{"id":"DoS_WP_11_4 fid 41","WP_Name":"British Indian Ocean Territory","WP_ID":"80bac964-1bc3-49e5-989b-824956916eda","Map_Label":"British Indian Ocean Territory (U.K.)","NOTES":"Chagos Archipelago (including Diego Garcia).","US_Recog":"Dependency or Area of Special Sovereignty","Show_Disp":null,"GENC_3":"IOT"}]},"geometry":{"type":"MultiPolygon","coordinates":[[[[71.38208000000003,-6.683830499999942],[71.38361480000003,-6.683901799999944],[71.38472120000006,-6.6831165999999484],[71.38614890000008,-6.681724599999939],[71.38746950000007,-6.680225599999972],[71.38811200000004,-6.678940699999941],[71.38857600000006,-6.6786193999999455],[71.38978950000006,-6.6800470999999675],[71.39125290000004,-6.682688299999938],[71.39282330000003,-6.686150399999974],[71.39307310000004,-6.6867928999999435],[71.39285900000004,-6.6880420999999615],[71.39289470000006,-6.689255599999967],[71.39364420000004,-6.690576199999953],[71.39489340000006,-6.691254399999934],[71.39482210000006,-6.6919681999999625],[71.39339440000003,-6.693574299999966],[71.39210950000006,-6.6944665999999415],[71.39046760000008,-6.694609399999933],[71.38918270000005,-6.694609399999933],[71.38829040000007,-6.694502299999954],[71.38761230000006,-6.694252499999948],[71.38721970000006,-6.69375279999997],[71.38714830000004,-6.693145999999956],[71.38764800000007,-6.692182399999979],[71.38746950000007,-6.6917183999999565],[71.38647010000005,-6.691218699999979],[71.38572060000007,-6.690576199999953],[71.38365050000004,-6.689648199999965],[71.37997420000005,-6.688113499999929],[71.37908190000007,-6.6873639999999455],[71.37258600000007,-6.683759099999975],[71.36912390000003,-6.682402799999977],[71.36841000000004,-6.682581199999959],[71.36816020000003,-6.683223699999928],[71.36723220000005,-6.683437799999979],[71.36637560000008,-6.6831165999999484],[71.36594730000007,-6.682331399999953],[71.36601870000004,-6.681546199999957],[71.36655410000003,-6.6810464999999795],[71.36687530000006,-6.680511099999933],[71.36726790000006,-6.680118499999935],[71.36666110000004,-6.679190499999947],[71.36509070000005,-6.67815539999998],[71.36412700000005,-6.677691399999958],[71.36384150000004,-6.678012699999954],[71.36355590000005,-6.6783695999999395],[71.36280640000007,-6.67911909999998],[71.36237810000006,-6.679154799999935],[71.36244950000008,-6.678655099999958],[71.36266360000008,-6.67772709999997],[71.36305620000007,-6.676941899999974],[71.36212630000006,-6.675908599999957],[71.36255660000006,-6.67601389999993],[71.36294920000006,-6.676228099999946],[71.36394850000005,-6.676834799999938],[71.36480520000003,-6.677441599999952],[71.36598300000003,-6.67815539999998],[71.36755340000008,-6.6790476999999555],[71.36890970000007,-6.679868599999963],[71.37080140000006,-6.680725299999949],[71.37272880000006,-6.681082199999935],[71.37429920000005,-6.681296299999929],[71.37522720000004,-6.681653199999971],[71.37690470000007,-6.682188599999961],[71.37793980000004,-6.682509899999957],[71.37979580000007,-6.683509199999946],[71.38058100000006,-6.6835448999999585],[71.38208000000003,-6.683830499999942]]],[[[71.35688150000004,-6.672765999999967],[71.35534680000006,-6.6718022999999675],[71.35456160000007,-6.671124099999929],[71.35409760000005,-6.670517399999937],[71.35438310000006,-6.670588799999962],[71.35481140000007,-6.670838599999968],[71.35534680000006,-6.671195499999953],[71.35613200000006,-6.671909399999947],[71.35698860000008,-6.672408999999959],[71.35745260000004,-6.672801599999957],[71.35688150000004,-6.672765999999967]]],[[[71.33782910000008,-6.66646099999997],[71.33920920000008,-6.666484799999978],[71.34025610000003,-6.666603799999962],[71.34125550000005,-6.66646099999997],[71.34237390000004,-6.66646099999997],[71.34382530000005,-6.666698899999972],[71.34530060000003,-6.667103399999974],[71.34656170000005,-6.667603099999951],[71.34768010000005,-6.668269399999929],[71.34732310000004,-6.668364599999961],[71.34677590000007,-6.6682455999999775],[71.34553850000003,-6.667959999999937],[71.34444400000007,-6.667817299999967],[71.34294490000008,-6.668031399999961],[71.34146970000006,-6.668316999999945],[71.34016100000008,-6.668816699999979],[71.33806700000008,-6.669554299999959],[71.33759110000005,-6.669815999999969],[71.33735320000005,-6.670149199999969],[71.33713910000006,-6.670101599999953],[71.33663940000008,-6.670506099999955],[71.33663940000008,-6.670981999999981],[71.33654420000005,-6.671434099999942],[71.33649660000003,-6.671790999999928],[71.33611590000004,-6.6717433999999685],[71.33571140000004,-6.6721716999999785],[71.33571140000004,-6.67257619999998],[71.33497370000003,-6.672599999999932],[71.33433130000003,-6.672599999999932],[71.33380780000005,-6.672552399999972],[71.33335570000008,-6.672552399999972],[71.33173770000008,-6.67219549999993],[71.33021480000008,-6.67188619999996],[71.32907270000004,-6.67155299999996],[71.32840640000006,-6.671196099999975],[71.32726430000008,-6.670672599999932],[71.32609840000003,-6.670101599999953],[71.32578900000004,-6.669530499999951],[71.32562250000007,-6.668959399999949],[71.32538450000004,-6.668554899999947],[71.32533690000008,-6.667793499999959],[71.32350470000006,-6.66603269999996],[71.32160120000003,-6.662796599999979],[71.32064940000004,-6.661630699999932],[71.32003070000007,-6.660702699999945],[71.31967380000003,-6.659798499999965],[71.31919790000006,-6.659108499999945],[71.31874580000004,-6.658608799999968],[71.31803200000007,-6.658465999999976],[71.31753230000004,-6.658394599999951],[71.31734190000003,-6.658489799999927],[71.31708020000008,-6.659108499999945],[71.31669950000008,-6.659917499999949],[71.31646150000006,-6.660250599999927],[71.31600940000004,-6.660155399999951],[71.31548600000008,-6.659893699999941],[71.31496250000004,-6.659322599999939],[71.31443900000005,-6.65884669999997],[71.31434380000007,-6.658513599999935],[71.31422480000003,-6.657966299999941],[71.31339200000008,-6.65682419999996],[71.31296370000007,-6.655872399999964],[71.31274960000007,-6.655182299999979],[71.31279720000003,-6.654563699999926],[71.31315410000008,-6.65420679999994],[71.31329690000007,-6.6536594999999465],[71.31251160000005,-6.652303199999949],[71.31213090000006,-6.650351999999941],[71.31232130000006,-6.64920989999996],[71.31251160000005,-6.648662599999966],[71.31258300000007,-6.648234299999956],[71.31263060000003,-6.647805999999946],[71.31303510000004,-6.647520499999928],[71.31336820000007,-6.647568099999944],[71.31377270000007,-6.64771079999997],[71.31398690000003,-6.647805999999946],[71.31424370000008,-6.647881899999959],[71.31447160000005,-6.647779299999968],[71.31494420000007,-6.647457799999927],[71.31521790000005,-6.6474101999999675],[71.31549150000006,-6.647338799999943],[71.31558670000004,-6.647291299999949],[71.31567000000007,-6.647386399999959],[71.31559860000004,-6.647552999999959],[71.31539630000003,-6.647636299999931],[71.31517030000003,-6.647671999999943],[71.31514650000008,-6.647778999999957],[71.31530120000008,-6.647874199999933],[71.31537250000008,-6.648005099999978],[71.31521790000005,-6.648076499999945],[71.31495610000007,-6.648219199999971],[71.31482530000005,-6.648195499999929],[71.31481340000005,-6.648135999999965],[71.31465870000005,-6.648195499999929],[71.31462300000004,-6.648290599999939],[71.31453970000007,-6.6484095999999795],[71.31446830000004,-6.648552399999971],[71.31430180000007,-6.648540499999967],[71.31426610000005,-6.648433399999931],[71.31413520000007,-6.648207399999933],[71.31394490000008,-6.6481597999999735],[71.31384970000005,-6.648278699999935],[71.31387350000006,-6.648433399999931],[71.31401620000008,-6.648802199999977],[71.31406380000004,-6.649456599999951],[71.31395680000003,-6.649849199999949],[71.31377830000008,-6.6502179999999385],[71.31357600000007,-6.650241799999947],[71.31327860000005,-6.650289399999963],[71.31311200000005,-6.650551099999973],[71.31308830000006,-6.650765299999932],[71.31335000000007,-6.651015099999938],[71.31343330000004,-6.651205499999946],[71.31350470000007,-6.65141959999994],[71.31367120000004,-6.65158619999994],[71.31382590000004,-6.651633799999956],[71.31388540000006,-6.65178839999993],[71.31376640000008,-6.651990699999942],[71.31377830000008,-6.652169199999946],[71.31387350000006,-6.652133499999934],[71.31401620000008,-6.652145399999938],[71.31398060000004,-6.652288099999964],[71.31396870000003,-6.652526099999932],[71.31384970000005,-6.65264499999995],[71.31381400000004,-6.652716399999974],[71.31398060000004,-6.653061499999978],[71.31421850000004,-6.65303769999997],[71.31439700000004,-6.652930599999934],[71.31456350000008,-6.65275209999993],[71.31477770000004,-6.652633099999946],[71.31489660000005,-6.652395199999944],[71.31500370000003,-6.65221669999994],[71.31508700000006,-6.651764599999979],[71.31509890000007,-6.65141959999994],[71.31521790000005,-6.651015099999938],[71.31546770000006,-6.6506462999999485],[71.31561050000005,-6.650408399999947],[71.31567000000007,-6.650206099999934],[71.31547960000006,-6.649920599999973],[71.31525360000006,-6.649718299999961],[71.31527740000007,-6.649480399999959],[71.31557480000004,-6.649242399999935],[71.31607450000007,-6.649040199999945],[71.31625290000005,-6.648861699999941],[71.31651470000008,-6.648528599999963],[71.31653850000004,-6.648361999999963],[71.31638380000004,-6.648254899999927],[71.31633620000008,-6.648302499999943],[71.31631240000007,-6.648492899999951],[71.31621720000004,-6.648742699999957],[71.31606260000007,-6.648790299999973],[71.31587220000006,-6.6484095999999795],[71.31572950000003,-6.648028899999929],[71.31572950000003,-6.647267499999941],[71.31569380000008,-6.646898599999929],[71.31558670000004,-6.64664879999998],[71.31505770000007,-6.646187999999938],[71.31451040000007,-6.64616419999993],[71.31379650000008,-6.646211799999946],[71.31351100000006,-6.646045199999946],[71.31327310000006,-6.645735899999977],[71.31279720000003,-6.645521699999961],[71.31270200000006,-6.645212399999934],[71.31308270000005,-6.644903099999965],[71.31353480000007,-6.644950699999981],[71.31405830000006,-6.645259999999951],[71.31439140000003,-6.645521699999961],[71.31520040000004,-6.644784099999981],[71.31610460000007,-6.643522999999959],[71.31684220000005,-6.642238099999929],[71.31757990000006,-6.641286299999933],[71.31819850000005,-6.640596199999948],[71.31876960000005,-6.6403106999999295],[71.31891240000004,-6.640405899999962],[71.31855550000006,-6.641690799999935],[71.31805580000008,-6.643332599999951],[71.31748470000008,-6.645426599999951],[71.31734190000003,-6.648162899999932],[71.31748470000008,-6.652255599999933],[71.31779400000005,-6.653826099999947],[71.31888860000004,-6.65622929999995],[71.32079220000003,-6.658703899999978],[71.32379030000004,-6.661702099999957],[71.32538450000004,-6.663272499999948],[71.32688360000003,-6.66427189999996],[71.32914410000006,-6.665033299999948],[71.33314160000003,-6.665747199999942],[71.33568760000003,-6.666175499999952],[71.33782910000008,-6.66646099999997]]],[[[71.23849000000007,-6.378524299999981],[71.23888260000007,-6.378452899999957],[71.23941800000006,-6.37877409999993],[71.24052440000008,-6.37959509999996],[71.24116690000005,-6.38102269999996],[71.24116690000005,-6.38198639999996],[71.24180930000006,-6.383414099999925],[71.24188070000008,-6.384449199999949],[71.24173800000005,-6.385841099999936],[71.24130970000004,-6.386876199999961],[71.24116590000006,-6.38741159999995],[71.24113120000004,-6.388625099999956],[71.24138100000005,-6.390373999999952],[71.24180930000006,-6.391980199999978],[71.24155950000005,-6.393407799999977],[71.24138100000005,-6.394835499999942],[71.24081000000007,-6.39619179999994],[71.24031030000003,-6.39651299999997],[71.23970350000008,-6.396655799999962],[71.23927520000007,-6.396691499999974],[71.23877550000003,-6.395941999999934],[71.23831150000007,-6.394050299999947],[71.23813310000008,-6.393193699999927],[71.23795460000008,-6.391052199999933],[71.23788320000006,-6.389981399999954],[71.23734790000003,-6.38655499999993],[71.23738360000004,-6.384342099999969],[71.23777620000004,-6.382200599999976],[71.23791890000007,-6.379559399999948],[71.23809740000007,-6.378845499999954],[71.23849000000007,-6.378524299999981]]],[[[71.29506610000004,-6.232953699999939],[71.29577990000007,-6.233881699999927],[71.29663650000003,-6.2348453999999265],[71.29702910000003,-6.236201699999981],[71.29688640000006,-6.237308199999973],[71.29642240000004,-6.237736499999926],[71.29599410000003,-6.237986299999932],[71.29538730000007,-6.2381290999999806],[71.29420950000008,-6.237772199999938],[71.29338860000007,-6.236879899999963],[71.29271040000003,-6.235559299999977],[71.29235350000005,-6.234167299999967],[71.29246060000008,-6.2332035999999675],[71.29274610000004,-6.232097099999976],[71.29317440000005,-6.231597499999964],[71.29349560000003,-6.23141899999996],[71.29388830000005,-6.231561799999952],[71.29442360000007,-6.2323469999999475],[71.29506610000004,-6.232953699999939]]],[[[71.32303270000006,-6.189310499999976],[71.32396070000004,-6.187989899999934],[71.32535260000003,-6.186562199999969],[71.32674460000004,-6.184956099999965],[71.32781540000008,-6.183385599999951],[71.32856490000006,-6.182600399999956],[71.32920740000003,-6.181458299999974],[71.32956430000007,-6.180887199999972],[71.33117040000008,-6.178495899999973],[71.33206270000005,-6.177460799999949],[71.33349040000007,-6.176282999999955],[71.33441840000006,-6.175818999999933],[71.33545350000003,-6.1755690999999615],[71.33709530000004,-6.175426399999935],[71.33920110000008,-6.175640499999929],[71.34077150000007,-6.176140199999963],[71.34177090000003,-6.1768182999999794],[71.34191370000008,-6.177246599999933],[71.34166380000005,-6.177853399999947],[71.34148540000007,-6.1788170999999465],[71.34169950000006,-6.1796379999999544],[71.34169950000006,-6.180101999999977],[71.34073590000008,-6.181422599999962],[71.33677410000007,-6.184063799999933],[71.33309780000008,-6.186883499999965],[71.33142030000005,-6.18820409999995],[71.33006400000005,-6.1895602999999255],[71.32938580000007,-6.190452599999958],[71.32820800000007,-6.1917375999999535],[71.32717290000005,-6.192879699999935],[71.32549540000008,-6.194414399999971],[71.32396070000004,-6.196163399999932],[71.32156930000008,-6.199696899999935],[71.32042720000004,-6.201267299999927],[71.31939210000007,-6.20287339999993],[71.31796440000005,-6.204301099999952],[71.31560870000004,-6.20619279999994],[71.31435950000008,-6.2069779999999355],[71.31328880000007,-6.207299199999966],[71.31271770000006,-6.20758479999995],[71.31228940000005,-6.207870299999968],[71.31164690000003,-6.20758479999995],[71.31129000000004,-6.207370599999933],[71.31132570000005,-6.206870899999956],[71.31218230000007,-6.205300499999964],[71.31446660000006,-6.2030518999999344],[71.31543030000006,-6.202159599999959],[71.31653670000003,-6.200910399999941],[71.31789300000008,-6.198590399999944],[71.31921360000007,-6.196377499999926],[71.32114100000007,-6.192308599999933],[71.32303270000006,-6.189310499999976]]],[[[71.54332880000004,-6.170778899999959],[71.54411400000004,-6.171921099999963],[71.54482790000003,-6.173455799999942],[71.54486360000004,-6.174169699999936],[71.54463910000004,-6.1744875999999635],[71.54286480000007,-6.173919799999965],[71.53918860000005,-6.172313699999961],[71.53736830000008,-6.171064499999943],[71.53665440000003,-6.169957999999951],[71.53629750000005,-6.168994299999952],[71.53690430000006,-6.168637399999966],[71.53840330000008,-6.169029999999964],[71.53983100000005,-6.169529699999941],[71.54154420000003,-6.169993699999964],[71.54275770000004,-6.170314899999937],[71.54332880000004,-6.170778899999959]]],[[[71.52862370000008,-6.163711899999953],[71.52840960000003,-6.163247899999931],[71.52851670000007,-6.163033799999937],[71.52894500000008,-6.163069499999949],[71.52933760000008,-6.163354999999967],[71.52955170000007,-6.163604799999973],[71.52962310000004,-6.1642115999999305],[71.52923050000004,-6.164354399999979],[71.52898070000003,-6.164104499999951],[71.52862370000008,-6.163711899999953]]],[[[71.51673830000004,-6.154110799999955],[71.51741650000008,-6.154503399999953],[71.51784480000003,-6.155038799999943],[71.51784480000003,-6.155609899999945],[71.51745220000004,-6.156109499999957],[71.51691680000005,-6.1562165999999365],[71.51659560000007,-6.156502199999977],[71.51641710000007,-6.157287399999973],[71.51609590000004,-6.157608599999946],[71.51552480000004,-6.157180299999936],[71.51502510000006,-6.156502199999977],[71.51484670000008,-6.156145199999969],[71.51475580000005,-6.155655799999977],[71.51498940000005,-6.155288599999949],[71.51491810000005,-6.154610499999933],[71.51473960000004,-6.154324999999972],[71.51502510000006,-6.154003699999976],[71.51534640000006,-6.15375389999997],[71.51620300000008,-6.153932299999951],[71.51673830000004,-6.154110799999955]]],[[[71.50481720000005,-6.137371299999927],[71.50460310000005,-6.137870999999961],[71.50428190000008,-6.138192199999935],[71.50381270000008,-6.138407099999938],[71.50285420000006,-6.138549099999977],[71.50221170000003,-6.138227899999947],[71.50174770000007,-6.137549799999931],[71.50178340000008,-6.136728799999958],[71.50196190000008,-6.135979299999974],[71.50231880000007,-6.135515299999952],[71.50274710000008,-6.13533689999997],[71.50306830000005,-6.13533689999997],[71.50388930000008,-6.135408199999972],[71.50449600000007,-6.136157799999978],[71.50488860000007,-6.136942999999974],[71.50481720000005,-6.137371299999927]]],[[[71.75203180000005,-5.437100799999939],[71.75203140000008,-5.436333599999955],[71.75256680000007,-5.4362621999999305],[71.75299510000008,-5.436547699999949],[71.75345910000004,-5.436440699999935],[71.75399450000003,-5.436190799999963],[71.75413720000006,-5.4368332999999325],[71.75442280000004,-5.437761299999977],[71.75499380000008,-5.439510199999972],[71.75538650000004,-5.4413304999999355],[71.75481540000004,-5.44186579999996],[71.75424430000004,-5.4421870999999555],[71.75345910000004,-5.442543999999941],[71.75324490000008,-5.441651699999966],[71.75295940000007,-5.44129479999998],[71.75260250000008,-5.440259699999956],[71.75235260000005,-5.438867699999946],[71.75203180000005,-5.437100799999939]]],[[[71.74985420000007,-5.422021099999938],[71.74985420000007,-5.421164499999975],[71.75063940000007,-5.420914699999969],[71.75103200000007,-5.420878999999957],[71.75167450000004,-5.42066479999994],[71.75224560000004,-5.42066479999994],[71.75245970000003,-5.421378699999934],[71.75260250000008,-5.422734999999932],[71.75278090000006,-5.4249121999999375],[71.75299510000008,-5.426661099999933],[71.75281660000007,-5.427374899999961],[71.75213850000006,-5.427125099999955],[71.75178160000007,-5.426304199999947],[71.75135330000006,-5.424876499999925],[71.75100740000005,-5.42356239999998],[71.75085360000008,-5.423305999999968],[71.75067510000008,-5.42355589999994],[71.75003270000008,-5.423698699999932],[71.74971140000008,-5.422877699999958],[71.74985420000007,-5.422021099999938]]],[[[71.74892620000003,-5.412598499999945],[71.74835510000008,-5.412205899999947],[71.74831950000004,-5.407280399999934],[71.74878340000004,-5.403568399999926],[71.75021110000006,-5.3999277999999435],[71.75146030000008,-5.3971795999999586],[71.75231690000004,-5.395287899999971],[71.75317360000008,-5.395252199999959],[71.75363750000008,-5.396251599999971],[71.75403020000005,-5.4004988999999455],[71.75388740000005,-5.408208399999978],[71.75310220000006,-5.411813199999926],[71.75245970000003,-5.414632899999958],[71.75249540000004,-5.415239699999972],[71.75288800000004,-5.415525199999934],[71.75349480000006,-5.415775099999962],[71.75345910000004,-5.416096299999936],[71.75308750000005,-5.416020899999978],[71.75178160000007,-5.415418099999954],[71.75160310000007,-5.414168899999936],[71.75103200000007,-5.413169499999981],[71.75021110000006,-5.412455699999953],[71.74967570000007,-5.412098799999967],[71.74892620000003,-5.412598499999945]]],[[[71.75440780000008,-5.3536772999999584],[71.75483610000003,-5.353867599999944],[71.75507410000006,-5.35477179999998],[71.75588310000006,-5.35686579999998],[71.75616860000008,-5.359721099999945],[71.75621620000004,-5.361434299999928],[71.75635900000003,-5.363385499999936],[71.75659690000003,-5.365955299999939],[71.75669210000007,-5.368049199999973],[71.75669210000007,-5.36971479999994],[71.75654930000007,-5.370809399999928],[71.75650170000006,-5.371428099999946],[71.75673970000008,-5.37180879999994],[71.75678730000004,-5.372141899999974],[71.75638880000008,-5.3726058999999395],[71.75596590000004,-5.373240199999941],[71.75573240000006,-5.374127699999974],[71.75465810000003,-5.3741743999999585],[71.75405090000004,-5.373193499999957],[71.75414430000006,-5.3702976999999805],[71.75451800000008,-5.36600059999995],[71.75450300000006,-5.36371859999997],[71.75416990000008,-5.361243999999942],[71.75416990000008,-5.359578299999953],[71.75336080000005,-5.357056099999966],[71.75274220000006,-5.355818799999952],[71.75336080000005,-5.354914599999972],[71.75393190000005,-5.354295899999954],[71.75440780000008,-5.3536772999999584]]],[[[71.74684110000004,-5.333071099999927],[71.74741220000004,-5.333071099999927],[71.74803090000006,-5.334784399999933],[71.74874470000003,-5.3376872999999705],[71.75045790000007,-5.340257099999974],[71.75136210000005,-5.343873899999949],[71.75207590000008,-5.349156299999947],[71.75317050000007,-5.3521067999999445],[71.75407470000005,-5.353534499999967],[71.75345600000003,-5.353962799999977],[71.75174520000007,-5.35405529999997],[71.75131450000003,-5.353582099999926],[71.75098140000006,-5.352963399999965],[71.74998200000005,-5.350536399999953],[71.74926820000007,-5.348585199999945],[71.74855430000008,-5.345301599999971],[71.74841160000005,-5.342541399999959],[71.74760250000008,-5.340161899999941],[71.74698390000003,-5.337925199999972],[71.74646040000005,-5.336021699999947],[71.74674590000006,-5.334165699999971],[71.74684110000004,-5.333071099999927]]],[[[71.74427130000004,-5.332119399999954],[71.74431890000005,-5.331310299999927],[71.74479480000008,-5.330881999999974],[71.74541440000007,-5.33079349999997],[71.74584170000003,-5.331167599999958],[71.74588930000004,-5.331738599999937],[71.74603210000004,-5.332309699999939],[71.74546100000003,-5.332833199999925],[71.74460440000007,-5.332737999999949],[71.74427130000004,-5.332119399999954]]],[[[71.74379540000007,-5.3302633999999784],[71.74279600000006,-5.329168799999934],[71.74265330000003,-5.328407399999946],[71.74255810000005,-5.327455599999951],[71.74317670000005,-5.326884499999949],[71.74331950000004,-5.326551399999971],[71.74365640000008,-5.3265166999999565],[71.74412850000004,-5.328121899999928],[71.74474720000006,-5.329311599999926],[71.74493760000007,-5.329882699999928],[71.74446170000004,-5.3302633999999784],[71.74379540000007,-5.3302633999999784]]],[[[71.74174910000005,-5.323981599999968],[71.74212980000004,-5.324076799999943],[71.74251050000004,-5.324362299999962],[71.74284360000007,-5.325266499999941],[71.74289120000003,-5.325980399999935],[71.74189180000008,-5.326075499999945],[71.74117800000005,-5.325314099999957],[71.74117800000005,-5.324171999999976],[71.74174910000005,-5.323981599999968]]],[[[71.73798950000008,-5.315225199999929],[71.73794190000007,-5.315796299999931],[71.73700320000006,-5.315514699999937],[71.73656180000006,-5.315367999999978],[71.73580040000007,-5.315272799999946],[71.73565770000005,-5.314987199999962],[71.73570520000004,-5.314463799999942],[71.73580040000007,-5.314130599999942],[71.73618110000007,-5.313511999999946],[71.73689500000006,-5.313321599999938],[71.73732330000007,-5.313654699999972],[71.73756120000007,-5.314273399999934],[71.73798950000008,-5.315225199999929]]],[[[71.73598820000007,-5.303783799999962],[71.73594320000007,-5.309228899999937],[71.73622870000008,-5.310418699999957],[71.73641910000003,-5.3113228999999365],[71.73608600000006,-5.311465599999963],[71.73556250000007,-5.311037299999953],[71.73532450000005,-5.310275899999965],[71.73461070000008,-5.310323499999981],[71.73399200000006,-5.310275899999965],[71.73337340000006,-5.309799999999939],[71.73327820000003,-5.3090861999999674],[71.73313540000004,-5.307801299999937],[71.73342100000008,-5.306325999999956],[71.73337340000006,-5.30451759999994],[71.73342980000007,-5.303783799999962],[71.73351610000003,-5.302661599999965],[71.73446790000008,-5.301804999999945],[71.73518180000008,-5.300995999999941],[71.73556250000007,-5.298854499999948],[71.73522930000007,-5.297569599999974],[71.73437270000005,-5.296950899999956],[71.73451550000004,-5.29590399999995],[71.73489620000004,-5.294428699999969],[71.73551490000006,-5.2916684999999575],[71.73575280000006,-5.28919389999993],[71.73590760000008,-5.287874299999942],[71.73713290000006,-5.287623399999973],[71.73779920000004,-5.286957199999961],[71.73789430000005,-5.285053599999969],[71.73856060000003,-5.283625899999947],[71.73965510000005,-5.283340399999929],[71.74032140000008,-5.283435599999962],[71.74103520000006,-5.282721699999968],[71.74279600000006,-5.2815795999999295],[71.74417610000006,-5.280389899999932],[71.74584170000003,-5.279533299999969],[71.74627000000004,-5.280532599999958],[71.74593690000006,-5.28196029999998],[71.74579420000003,-5.282912099999976],[71.74417610000006,-5.283863899999972],[71.74331950000004,-5.285624699999971],[71.74284360000007,-5.286861999999928],[71.74127320000008,-5.289289099999962],[71.73960760000006,-5.292715499999929],[71.73765640000005,-5.2964273999999705],[71.73660940000008,-5.300900799999965],[71.73741850000005,-5.301614699999959],[71.73741850000005,-5.302233299999955],[71.73703770000003,-5.302804399999957],[71.73599080000008,-5.303470599999969],[71.73598820000007,-5.303783799999962]]],[[[71.74755500000003,-5.2723472999999785],[71.74826880000006,-5.272775599999932],[71.74912540000008,-5.272680399999956],[71.74974410000004,-5.273346699999934],[71.74988680000007,-5.273870199999976],[71.74941090000004,-5.274108099999978],[71.74869710000007,-5.273965299999929],[71.74803060000005,-5.2739208999999505],[71.74798330000004,-5.27391769999997],[71.74712670000008,-5.273584599999936],[71.74631760000005,-5.2731562999999255],[71.74641280000003,-5.2723472999999785],[71.74755500000003,-5.2723472999999785]]],[[[71.75041030000006,-5.262686699999961],[71.75107660000003,-5.262210799999934],[71.75174280000005,-5.262686699999961],[71.75269460000004,-5.263305299999956],[71.75340840000007,-5.263733699999932],[71.75369400000005,-5.264209499999936],[71.75321810000008,-5.26530409999998],[71.75226630000003,-5.266588999999954],[71.75164760000007,-5.267540799999949],[71.75107660000003,-5.267921499999943],[71.75064830000008,-5.267873899999927],[71.75041030000006,-5.267255299999931],[71.75002960000006,-5.2668268999999555],[71.74964890000007,-5.266684199999929],[71.74912540000008,-5.266779399999962],[71.74879230000005,-5.266969699999947],[71.74841160000005,-5.267017299999964],[71.74842390000003,-5.26678279999993],[71.74874470000003,-5.265637199999958],[71.75041030000006,-5.262686699999961]]],[[[71.81606270000003,-5.461639199999979],[71.81538460000007,-5.4619246999999405],[71.81360000000006,-5.462210199999959],[71.81267200000008,-5.462638499999969],[71.81085170000006,-5.4630310999999665],[71.80925230000008,-5.463483199999928],[71.80874590000008,-5.46342379999993],[71.80771080000005,-5.4633523999999625],[71.80760370000007,-5.462816999999973],[71.80842460000008,-5.462638499999969],[71.80910280000006,-5.46246009999993],[71.80978090000008,-5.462424399999975],[71.81124430000006,-5.462067499999932],[71.81238640000004,-5.461746199999936],[71.81381410000006,-5.4613535999999385],[71.81581290000008,-5.461139499999945],[71.81606270000003,-5.461639199999979]]],[[[71.79382660000005,-5.461567799999955],[71.79464760000008,-5.461746199999936],[71.79539710000006,-5.4619246999999405],[71.79564690000007,-5.462495799999942],[71.79529000000008,-5.462816999999973],[71.79489790000008,-5.462955699999952],[71.79400510000005,-5.462852699999928],[71.79297000000008,-5.4626027999999565],[71.79200640000005,-5.462388699999963],[71.79132820000007,-5.462816999999973],[71.79079280000008,-5.462388699999963],[71.79065010000005,-5.461603499999967],[71.79082850000003,-5.460996699999953],[71.79247040000007,-5.461246599999981],[71.79382660000005,-5.461567799999955]]],[[[71.76024060000003,-5.453751199999942],[71.75867010000007,-5.452787599999965],[71.75813470000008,-5.452037999999959],[71.75852730000008,-5.451573999999937],[71.75856300000004,-5.450788799999941],[71.75652860000008,-5.44911129999997],[71.75585040000004,-5.447683599999948],[71.75520800000004,-5.4459346999999525],[71.75520800000004,-5.444899699999951],[71.75606460000006,-5.444542699999943],[71.75692120000008,-5.444542699999943],[71.75831320000003,-5.447041199999944],[71.75952670000004,-5.447683599999948],[71.76041900000007,-5.4487543999999275],[71.76270330000006,-5.450146399999937],[71.76587990000007,-5.451538299999925],[71.76899870000005,-5.45274059999997],[71.77226870000004,-5.453429999999969],[71.77351790000006,-5.453858299999979],[71.77623050000005,-5.454714899999942],[71.77783670000008,-5.455285999999944],[71.77954990000006,-5.456249699999944],[71.78115600000007,-5.4574274999999375],[71.78115600000007,-5.45789149999996],[71.78072770000006,-5.458176999999978],[71.78019230000007,-5.458355499999925],[71.77801510000006,-5.458355499999925],[71.77433890000003,-5.458105699999976],[71.77405330000005,-5.458462599999962],[71.77358930000008,-5.458676699999955],[71.77259000000004,-5.458391199999937],[71.77159060000008,-5.457962899999927],[71.77034140000006,-5.457534599999974],[71.76909210000008,-5.456749399999978],[71.76352420000006,-5.455000499999926],[71.76024060000003,-5.453751199999942]]],[[[71.88209500000005,-5.427985999999976],[71.88161400000007,-5.428230999999926],[71.88140300000003,-5.428101999999967],[71.88116900000006,-5.427763999999968],[71.88071100000008,-5.427658999999949],[71.88071100000008,-5.427307999999925],[71.88121600000005,-5.427167999999938],[71.88147400000008,-5.42712199999994],[71.88147400000008,-5.426852999999937],[71.88177900000005,-5.426852999999937],[71.88182600000005,-5.427132999999969],[71.88207200000005,-5.427249999999958],[71.88209500000005,-5.427985999999976]]],[[[71.83112530000005,-5.42523609999995],[71.82932820000008,-5.425661699999978],[71.82794810000007,-5.425090599999976],[71.82769830000007,-5.4243410999999355],[71.82830500000006,-5.423591599999952],[71.82930440000007,-5.422734999999932],[71.83051790000007,-5.422449399999948],[71.83169580000003,-5.422378099999946],[71.83244530000007,-5.422806399999956],[71.83262380000008,-5.423484499999972],[71.83248100000003,-5.424269699999968],[71.83180280000005,-5.424805099999958],[71.83112530000005,-5.42523609999995]]],[[[71.96414560000005,-5.382452799999953],[71.96457390000006,-5.382595599999945],[71.96447870000003,-5.383119099999931],[71.96362210000007,-5.383642599999973],[71.96252750000008,-5.384927499999947],[71.96181370000005,-5.3851653999999485],[71.96176610000003,-5.384308799999928],[71.96281310000006,-5.382881099999963],[71.96414560000005,-5.382452799999953]]],[[[71.97171230000004,-5.3695085999999606],[71.97180740000005,-5.37184039999994],[71.97033220000003,-5.374600599999951],[71.96857140000003,-5.376837299999977],[71.96780990000008,-5.377789099999973],[71.96757200000008,-5.378835999999978],[71.96681060000003,-5.378693299999952],[71.96672110000003,-5.377889899999957],[71.96719130000008,-5.376980099999969],[71.96757200000008,-5.375695199999939],[71.96880930000003,-5.372792199999935],[71.96961830000004,-5.370793499999934],[71.97020920000006,-5.368413999999973],[71.97067240000007,-5.36660749999993],[71.97099840000004,-5.367033899999967],[71.97114120000003,-5.367985699999963],[71.97171230000004,-5.3695085999999606]]],[[[72.22157940000005,-5.358144299999935],[72.22187690000004,-5.358441699999958],[72.22199580000006,-5.358917599999927],[72.22157940000005,-5.359274599999935],[72.22110350000008,-5.359155599999951],[72.22098460000007,-5.358501199999978],[72.22114380000005,-5.3579173999999625],[72.22157940000005,-5.358144299999935]]],[[[72.21342980000003,-5.361475599999949],[72.21444100000008,-5.3622488999999405],[72.21485750000005,-5.362903199999948],[72.21485750000005,-5.363795499999981],[72.21450050000004,-5.364628299999936],[72.21378670000007,-5.365044799999964],[72.21258290000003,-5.365546299999949],[72.21140720000005,-5.365818099999956],[72.21051490000008,-5.36534219999993],[72.20974160000003,-5.36480679999994],[72.20843290000005,-5.363973999999928],[72.20724320000005,-5.363379099999975],[72.20605340000003,-5.3628437999999505],[72.20498270000007,-5.362546299999963],[72.20403090000008,-5.361951499999975],[72.20319810000007,-5.360761699999955],[72.20290070000004,-5.358977099999947],[72.20266270000008,-5.357370999999944],[72.20248430000004,-5.356121799999926],[72.20194890000005,-5.354694099999961],[72.20141350000006,-5.354337199999975],[72.20093760000003,-5.353444899999943],[72.20046170000006,-5.352493099999947],[72.19974790000003,-5.351719799999955],[72.19933150000003,-5.350886999999943],[72.19956940000003,-5.350113599999929],[72.19980740000005,-5.349518799999942],[72.20022380000006,-5.348864399999968],[72.20081860000005,-5.34821009999996],[72.20135400000004,-5.348507499999926],[72.20218680000005,-5.348923899999932],[72.20301960000006,-5.349518799999942],[72.20403090000008,-5.350351599999954],[72.20480420000007,-5.35076799999996],[72.20557760000008,-5.35076799999996],[72.20688630000006,-5.350411099999974],[72.20765960000006,-5.3505894999999555],[72.20748110000005,-5.352314599999943],[72.20742160000003,-5.354218199999934],[72.20748110000005,-5.35731149999998],[72.20831390000006,-5.359036599999968],[72.20902780000006,-5.359690999999941],[72.21015800000004,-5.360226299999965],[72.21164520000008,-5.361118599999941],[72.21342980000003,-5.361475599999949]]],[[[72.20433200000008,-5.345730999999944],[72.20430300000004,-5.34625699999998],[72.20381800000007,-5.346109999999953],[72.20381800000007,-5.345671999999979],[72.20433200000008,-5.345730999999944]]],[[[71.97492060000008,-5.337528599999928],[71.97539650000004,-5.338385199999948],[71.97530130000007,-5.340098399999931],[71.97520610000004,-5.341383299999961],[71.97439710000003,-5.342620599999975],[71.97306460000004,-5.342525499999965],[71.97287420000004,-5.341288199999951],[71.97225560000004,-5.340288799999939],[71.97182730000003,-5.339432199999976],[71.97192240000004,-5.33852799999994],[71.97183170000005,-5.338193399999966],[71.97151790000004,-5.337207399999954],[71.97194620000005,-5.336541099999977],[71.97275530000007,-5.33597009999994],[71.97384980000004,-5.336303199999975],[71.97492060000008,-5.337528599999928]]],[[[72.22062760000006,-5.329709799999932],[72.22080610000006,-5.328282099999967],[72.22122250000007,-5.3260810999999535],[72.22181740000008,-5.324593899999968],[72.22223380000008,-5.323047299999928],[72.22282860000007,-5.321679099999926],[72.22378040000007,-5.320013499999959],[72.22491070000007,-5.318526299999974],[72.22592190000006,-5.316979599999968],[72.22717120000004,-5.315313999999944],[72.22824190000006,-5.313826899999981],[72.22907470000007,-5.313767399999961],[72.23014550000005,-5.314540699999952],[72.23020500000007,-5.315611499999932],[72.22961010000006,-5.317098599999952],[72.22865830000006,-5.319418599999949],[72.22770650000007,-5.320667799999967],[72.22598140000008,-5.32340419999997],[72.22455380000008,-5.325188799999978],[72.22324510000004,-5.3281630999999265],[72.22209500000008,-5.33059929999996],[72.22110350000008,-5.332565099999954],[72.21973540000005,-5.334528199999966],[72.21902150000005,-5.335717899999963],[72.21824820000006,-5.337026599999945],[72.21759380000003,-5.338275799999963],[72.21655280000004,-5.339374699999951],[72.21586870000004,-5.339643999999964],[72.21533330000005,-5.339703499999928],[72.21491690000005,-5.339168099999938],[72.21622560000003,-5.337026599999945],[72.21664210000006,-5.336372199999971],[72.21664210000006,-5.3355988999999795],[72.21711790000006,-5.3351824999999735],[72.21777230000004,-5.334647099999927],[72.21830770000008,-5.334052299999939],[72.21914050000004,-5.332803099999978],[72.21967590000008,-5.332029699999964],[72.22015180000005,-5.33089949999993],[72.22062760000006,-5.329709799999932]]],[[[71.88881910000003,-5.269718399999931],[71.88856930000003,-5.270182399999953],[71.88799820000008,-5.270539299999939],[71.88753420000006,-5.271003299999961],[71.88692740000005,-5.271324499999935],[71.88654010000005,-5.271622699999966],[71.88528560000003,-5.272145399999943],[71.88396500000005,-5.272216799999967],[71.88317980000005,-5.271931299999949],[71.88296560000003,-5.271431599999971],[71.88339390000004,-5.270789099999945],[71.88407210000008,-5.270253799999978],[71.88478590000005,-5.2697897999999554],[71.88574960000005,-5.269397199999958],[71.88646340000008,-5.269147299999929],[71.88739140000007,-5.269075899999962],[71.88810530000006,-5.269075899999962],[71.88860500000004,-5.269254399999966],[71.88881910000003,-5.269718399999931]]],[[[71.89916980000004,-5.269575599999939],[71.89838450000008,-5.270182399999953],[71.89713530000006,-5.270610699999963],[71.89606460000005,-5.270682099999931],[71.89517180000007,-5.270785099999955],[71.89445840000008,-5.270539299999939],[71.89399440000005,-5.270289499999933],[71.89374460000005,-5.2697897999999554],[71.89356610000004,-5.269397199999958],[71.89363750000007,-5.269004499999937],[71.89392310000005,-5.268540499999972],[71.89481540000008,-5.2682192999999415],[71.89713530000006,-5.2682192999999415],[71.89813470000007,-5.268362099999933],[71.89895560000008,-5.268754699999931],[71.89916980000004,-5.269575599999939]]],[[[71.86997380000008,-5.2696469999999636],[71.86904580000004,-5.269861099999957],[71.86797500000006,-5.269932499999925],[71.86704700000007,-5.269932499999925],[71.86611910000005,-5.270039599999961],[71.86536770000004,-5.270026299999927],[71.86419170000005,-5.269932499999925],[71.86308520000006,-5.269754099999943],[71.86251420000008,-5.2694684999999595],[71.86251420000008,-5.269004499999937],[71.86301390000006,-5.268611899999939],[71.86419170000005,-5.268326399999978],[71.86565510000008,-5.268147899999974],[71.86733260000005,-5.268112199999962],[71.86883160000008,-5.2682192999999415],[71.86997380000008,-5.2682192999999415],[71.87165130000005,-5.268254999999954],[71.87243650000005,-5.268183599999929],[71.87347160000007,-5.268112199999962],[71.87472080000003,-5.268076599999972],[71.87518480000006,-5.268254999999954],[71.87557740000005,-5.268290699999966],[71.87664820000003,-5.2682192999999415],[71.87707650000004,-5.26846919999997],[71.87718350000006,-5.268933199999935],[71.87679090000006,-5.269325799999933],[71.87589860000008,-5.2694684999999595],[71.87507770000008,-5.2694684999999595],[71.87407830000006,-5.269575599999939],[71.87286480000006,-5.2694684999999595],[71.87143710000004,-5.269539899999927],[71.87097320000004,-5.269575599999939],[71.86997380000008,-5.2696469999999636]]],[[[71.84531070000008,-5.2622230999999715],[71.84570330000008,-5.2624728999999775],[71.84598880000004,-5.262794099999951],[71.84609590000008,-5.263186799999971],[71.84613160000004,-5.263722099999939],[71.84595310000003,-5.264257499999928],[71.84559620000005,-5.2647214999999505],[71.84513220000008,-5.265149799999961],[71.84452540000007,-5.26525689999994],[71.84374020000007,-5.265114099999948],[71.84309780000007,-5.2647214999999505],[71.84245530000004,-5.264079099999947],[71.84231250000005,-5.263543699999957],[71.84245530000004,-5.263008299999967],[71.84270520000007,-5.262651399999925],[71.84320410000004,-5.262289499999952],[71.84391870000007,-5.262187399999959],[71.84438270000004,-5.262044599999967],[71.84488240000007,-5.262151699999947],[71.84531070000008,-5.2622230999999715]]],[[[71.91869390000005,-5.2606362999999305],[71.91983600000003,-5.260112799999945],[71.91983600000003,-5.259303799999941],[71.91969330000006,-5.25858999999997],[71.92035950000007,-5.258066499999927],[71.92083540000004,-5.258494799999937],[71.92207270000006,-5.258018899999968],[71.92388110000007,-5.25725749999998],[71.92392870000003,-5.256591199999946],[71.92497570000006,-5.25597259999995],[71.92630820000005,-5.256162899999936],[71.92840210000003,-5.256971999999962],[71.92864000000003,-5.257876099999976],[71.92825930000004,-5.258542399999953],[71.92687920000003,-5.259113499999955],[71.92454740000005,-5.259541799999965],[71.92273900000004,-5.260065299999951],[71.92131130000007,-5.260445999999945],[71.91794440000007,-5.261909299999957],[71.91694040000004,-5.262274399999967],[71.91636200000005,-5.262159199999928],[71.91636200000005,-5.261397699999975],[71.91669520000005,-5.260731499999963],[71.91745660000004,-5.260303199999953],[71.91869390000005,-5.2606362999999305]]],[[[71.75612100000006,-5.257071199999928],[71.75693000000007,-5.256500099999926],[71.75735830000008,-5.255691099999979],[71.75864320000005,-5.2539778999999385],[71.75930950000003,-5.253311599999961],[71.75997570000004,-5.253168799999969],[71.76045160000007,-5.25421579999994],[71.76164140000003,-5.25421579999994],[71.76154620000005,-5.253739899999971],[71.76087990000008,-5.253549599999928],[71.76040400000005,-5.253026099999943],[71.76068960000003,-5.2518362999999795],[71.76102270000007,-5.250979699999959],[71.76173650000004,-5.250551399999949],[71.76235520000006,-5.251407999999969],[71.76321180000008,-5.250789399999974],[71.76392560000005,-5.249837599999978],[71.76387810000006,-5.249076199999934],[71.76349730000004,-5.248457499999972],[71.76468710000006,-5.24788639999997],[71.76706650000006,-5.247220199999958],[71.76911290000004,-5.247315399999934],[71.76939840000006,-5.24779129999996],[71.76916050000005,-5.24864789999998],[71.76958880000007,-5.248933399999942],[71.77125440000003,-5.248980999999958],[71.77244410000003,-5.249361699999952],[71.77230140000006,-5.249837599999978],[71.77039780000007,-5.250456299999939],[71.76806590000007,-5.2518362999999795],[71.76511540000007,-5.2534067999999365],[71.76230760000004,-5.256166999999948],[71.76016610000005,-5.25859399999996],[71.75788180000006,-5.260592799999927],[71.75669210000007,-5.261021099999937],[71.75669210000007,-5.260354799999959],[71.75664450000005,-5.258689199999935],[71.75569970000004,-5.258547499999963],[71.75545480000005,-5.258356099999958],[71.75559750000008,-5.257784999999956],[71.75612100000006,-5.257071199999928]]],[[[71.83428190000006,-5.2488742999999545],[71.83378220000003,-5.248124799999971],[71.83381790000004,-5.2474465999999325],[71.83410340000006,-5.247268199999951],[71.83446030000005,-5.247375199999965],[71.83481720000003,-5.247553699999969],[71.83503140000005,-5.247803499999975],[71.83531690000007,-5.248053399999947],[71.83542400000005,-5.2486244999999485],[71.83499570000004,-5.248945699999979],[71.83428190000006,-5.2488742999999545]]],[[[71.95971580000008,-5.242885499999943],[71.95976340000004,-5.2419812999999635],[71.95909710000006,-5.2414578999999435],[71.95895440000004,-5.240886799999942],[71.96004890000006,-5.240077799999938],[71.96123870000008,-5.239363899999944],[71.96304710000004,-5.238745299999948],[71.96418920000008,-5.23855489999994],[71.96523620000005,-5.238935599999934],[71.96590240000006,-5.239459099999976],[71.96571200000005,-5.239982599999962],[71.96509340000006,-5.240220499999964],[71.96495060000007,-5.240839199999925],[71.96609280000007,-5.244503599999973],[71.96899570000005,-5.250071499999933],[71.96809150000007,-5.250071499999933],[71.96675900000008,-5.248596199999952],[71.96471270000006,-5.246835399999952],[71.96290430000005,-5.245978799999932],[71.96100070000006,-5.245455399999969],[71.95876400000003,-5.245122199999969],[71.95776460000008,-5.245264999999961],[71.95728880000007,-5.244931899999926],[71.95776460000008,-5.244551199999933],[71.95885920000006,-5.243837299999939],[71.95971580000008,-5.242885499999943]]],[[[71.81479400000006,-5.241546999999969],[71.81513600000005,-5.241126999999949],[71.81511000000006,-5.240366999999935],[71.81542600000006,-5.239894999999933],[71.81666400000006,-5.238320999999928],[71.81732200000005,-5.238399999999956],[71.81737500000008,-5.239605999999981],[71.81748000000005,-5.240103999999974],[71.81816500000008,-5.240261999999973],[71.81874500000004,-5.240785999999957],[71.82003500000008,-5.240602999999965],[71.81903400000004,-5.241467999999941],[71.81842800000004,-5.241808999999932],[71.81503100000003,-5.245585999999946],[71.81479400000006,-5.2451659999999265],[71.81453100000004,-5.245113999999944],[71.81455700000004,-5.2432249999999385],[71.81484700000004,-5.243041999999946],[71.81471500000004,-5.242779999999925],[71.81471500000004,-5.242018999999971],[71.81479400000006,-5.241546999999969]]],[[[71.82356210000006,-5.238772399999959],[71.82288390000008,-5.239164999999957],[71.82238420000004,-5.239129299999945],[71.82213440000004,-5.238843799999927],[71.82192020000008,-5.238522599999953],[71.82152760000008,-5.237737299999935],[71.82099230000006,-5.23684499999996],[71.82131350000003,-5.236059799999964],[71.82327650000008,-5.236059799999964],[71.82399040000007,-5.235524399999974],[71.82484700000003,-5.235524399999974],[71.82648880000005,-5.235453099999972],[71.82809490000005,-5.235345999999936],[71.82923710000006,-5.2353102999999805],[71.83030780000007,-5.235488699999962],[71.83105740000008,-5.235524399999974],[71.83198540000006,-5.235595799999942],[71.83255640000004,-5.235809999999958],[71.83309180000003,-5.236309699999936],[71.83330600000005,-5.236595199999954],[71.83341300000006,-5.237023499999964],[71.83298470000005,-5.237308999999925],[71.83234230000005,-5.237130599999944],[71.83109310000003,-5.237344699999937],[71.83059340000005,-5.237665999999933],[71.82955830000003,-5.23770159999998],[71.82838050000004,-5.237558899999954],[71.82698850000008,-5.237665999999933],[71.82566790000004,-5.238022899999976],[71.82513250000005,-5.2383797999999615],[71.82452580000006,-5.238451199999929],[71.82406180000004,-5.238486899999941],[71.82356210000006,-5.238772399999959]]],[[[72.43420920000005,-7.44160039999997],[72.43430440000003,-7.441647899999964],[72.43435190000008,-7.441731199999936],[72.43435190000008,-7.44202869999998],[72.43417350000004,-7.4421237999999335],[72.43398310000003,-7.4420405999999275],[72.43388790000006,-7.441897799999936],[72.43381660000006,-7.441683599999976],[72.43404260000005,-7.441552799999954],[72.43410210000008,-7.441671699999972],[72.43420920000005,-7.44160039999997]]],[[[72.43641020000007,-7.439934699999981],[72.43632690000004,-7.440113199999928],[72.43617220000004,-7.440113199999928],[72.43602950000007,-7.4400655999999685],[72.43591050000003,-7.439922799999977],[72.43585100000007,-7.43978009999995],[72.43589860000003,-7.439601599999946],[72.43587480000008,-7.43935179999994],[72.43613650000003,-7.43918519999994],[72.43631500000004,-7.439304199999981],[72.43625550000007,-7.439458799999954],[72.43616030000004,-7.43961349999995],[72.43627930000008,-7.439815799999963],[72.43641020000007,-7.439934699999981]]],[[[72.42879590000007,-7.4392089999999484],[72.42891490000005,-7.439006699999936],[72.42912900000005,-7.439101899999969],[72.42912900000005,-7.4393874999999525],[72.42904570000007,-7.43961349999995],[72.42887920000004,-7.439696799999979],[72.42868880000003,-7.439672999999971],[72.42889110000004,-7.4393755999999485],[72.42879590000007,-7.4392089999999484]]],[[[72.42730870000008,-7.438316699999973],[72.42750420000004,-7.438153799999952],[72.42755860000005,-7.437971699999935],[72.42748720000003,-7.437924099999975],[72.42735630000004,-7.437900299999967],[72.42734440000004,-7.437650399999939],[72.42748720000003,-7.437460099999953],[72.42770130000008,-7.437293499999953],[72.42787980000003,-7.437341099999969],[72.42815340000004,-7.437019899999939],[72.42828430000003,-7.436900899999955],[72.42848660000004,-7.436924699999963],[72.42862930000007,-7.436769999999967],[72.42887920000004,-7.436865199999943],[72.42910520000004,-7.436996099999931],[72.42906950000008,-7.437186499999939],[72.42887920000004,-7.437364899999977],[72.42833190000005,-7.4378050999999346],[72.42808210000004,-7.438066899999967],[72.42784410000007,-7.438245299999949],[72.42768940000008,-7.438280999999961],[72.42760620000007,-7.438483299999973],[72.42740390000006,-7.438768799999934],[72.42723740000008,-7.4387925999999425],[72.42721360000007,-7.43859029999993],[72.42730870000008,-7.438316699999973]]],[[[72.43788540000008,-7.437281599999949],[72.43776650000007,-7.437352999999973],[72.43764970000007,-7.437364099999968],[72.43768320000004,-7.437453299999959],[72.43775300000004,-7.43753479999998],[72.43767150000008,-7.4377326999999696],[72.43748090000008,-7.437709899999959],[72.43736200000006,-7.437555299999929],[72.43738580000007,-7.437269699999945],[72.43744520000007,-7.437103199999967],[72.43764750000008,-7.436984199999927],[72.43779030000007,-7.436829499999931],[72.43789730000003,-7.436651099999949],[72.43806390000003,-7.436674899999957],[72.43806390000003,-7.436781899999971],[72.43799250000006,-7.437150799999927],[72.43788540000008,-7.437281599999949]]],[[[72.43071140000006,-7.435508899999945],[72.43088980000005,-7.435473199999933],[72.43103260000004,-7.435604099999978],[72.43104450000004,-7.435937199999955],[72.43099690000008,-7.436163299999976],[72.43083030000008,-7.436187099999927],[72.43044960000003,-7.4363060999999675],[72.43010460000005,-7.436222799999939],[72.42994990000005,-7.436056199999939],[72.42991420000004,-7.4359728999999675],[72.42993800000005,-7.435901499999943],[72.43016410000007,-7.435949099999959],[72.43037820000006,-7.435949099999959],[72.43054480000006,-7.435853999999949],[72.43065190000004,-7.435687399999949],[72.43071140000006,-7.435508899999945]]],[[[72.46722930000004,-7.394008199999973],[72.46730090000005,-7.393936599999961],[72.46739370000006,-7.393900899999949],[72.46745080000005,-7.393815199999949],[72.46755080000008,-7.3937009999999646],[72.46772210000006,-7.3936367999999675],[72.46780770000004,-7.39369389999996],[72.46788630000003,-7.393650999999977],[72.46804330000003,-7.393529699999931],[72.46817180000005,-7.393394099999966],[72.46830030000007,-7.393294099999935],[72.46849300000008,-7.393279799999959],[72.46866430000006,-7.393236999999942],[72.46884990000007,-7.39326559999995],[72.46899980000006,-7.393351199999927],[72.46902840000007,-7.3934796999999435],[72.46884990000007,-7.393622499999935],[72.46867150000008,-7.393822399999976],[72.46839310000007,-7.394007999999928],[72.46818610000008,-7.394043599999975],[72.46802900000006,-7.394007999999928],[72.46788630000003,-7.3940650999999775],[72.46775780000007,-7.394236399999954],[72.46765070000004,-7.394429099999968],[72.46766500000007,-7.394514799999968],[72.46745800000008,-7.394529099999943],[72.46724380000006,-7.394407699999931],[72.46722240000008,-7.394229199999927],[72.46722930000004,-7.394008199999973]]],[[[72.48053690000006,-7.382042599999977],[72.48063210000004,-7.381890299999952],[72.48076530000003,-7.381757099999959],[72.48097470000005,-7.381795099999977],[72.48103180000004,-7.381966499999976],[72.48131740000008,-7.382290099999977],[72.48167900000004,-7.382537499999955],[72.48202170000008,-7.382670799999971],[72.48223110000004,-7.382613699999979],[72.48276410000005,-7.382823099999939],[72.48285930000003,-7.382975299999941],[72.48259280000008,-7.382975299999941],[72.48247850000007,-7.383146699999941],[72.48220570000007,-7.38318229999993],[72.48196460000008,-7.383089599999948],[72.48171710000008,-7.383013399999925],[72.48162190000005,-7.38268979999998],[72.48120320000004,-7.38244229999998],[72.48053690000006,-7.382042599999977]]],[[[72.48205980000006,-7.379663099999959],[72.48230720000004,-7.380043799999953],[72.48276410000005,-7.380177099999969],[72.48320190000004,-7.380196099999978],[72.48354450000005,-7.380348399999946],[72.48386810000005,-7.380538799999954],[72.48424890000007,-7.380805299999963],[72.48449630000005,-7.38131919999995],[72.48443920000005,-7.381661899999926],[72.48438210000006,-7.381890299999952],[72.48447730000004,-7.382023599999968],[72.48430600000006,-7.3823090999999295],[72.48375390000007,-7.382575599999939],[72.48339230000005,-7.382404299999962],[72.48322090000005,-7.381985499999928],[72.48293540000003,-7.381604799999934],[72.48292590000005,-7.381105099999957],[72.48278310000006,-7.38046259999993],[72.48249760000004,-7.380272299999945],[72.48205980000006,-7.38025319999997],[72.48181230000006,-7.379948699999943],[72.48166000000003,-7.379663099999959],[72.48186940000005,-7.379548899999975],[72.48205980000006,-7.379663099999959]]],[[[72.38448200000005,-7.248608999999931],[72.38417600000008,-7.24883699999998],[72.38407400000006,-7.249097999999947],[72.38424600000008,-7.249257999999941],[72.38438500000007,-7.2496249999999804],[72.38394500000004,-7.24935899999997],[72.38334500000008,-7.249172999999928],[72.38358100000005,-7.248693999999944],[72.38416000000007,-7.248043999999936],[72.38527100000005,-7.247139999999945],[72.38551200000006,-7.247075999999936],[72.38579600000008,-7.247203999999954],[72.38575300000008,-7.247437999999931],[72.38578500000006,-7.2476559999999495],[72.38532400000008,-7.248001999999929],[72.38448200000005,-7.248608999999931]]],[[[72.40915070000005,-7.227763799999934],[72.40933150000006,-7.227811299999928],[72.40932200000003,-7.227925599999935],[72.40925540000006,-7.228049299999952],[72.40915070000005,-7.228096899999969],[72.40920780000005,-7.228306299999929],[72.40935050000007,-7.22838239999993],[72.40940760000007,-7.2284585999999535],[72.40937910000008,-7.228610799999956],[72.40925460000005,-7.22868909999994],[72.40909360000006,-7.2287059999999315],[72.40893170000004,-7.228820199999973],[72.40853200000004,-7.2289153999999485],[72.40843680000006,-7.229067699999973],[72.40837020000004,-7.22923899999995],[72.40836070000006,-7.229381799999942],[72.40849390000005,-7.229591199999959],[72.40837970000007,-7.229771999999969],[72.40811320000006,-7.229819599999928],[72.40789430000007,-7.229676799999936],[72.40778010000008,-7.229391299999975],[72.40768490000005,-7.229029599999933],[72.40767540000007,-7.228772599999957],[72.40778010000008,-7.228525199999979],[72.40798000000007,-7.228306299999929],[72.40810370000008,-7.228258699999969],[72.40847490000004,-7.228001699999936],[72.40878900000007,-7.227887499999952],[72.40896030000005,-7.227801799999952],[72.40915070000005,-7.227763799999934]]],[[[72.42087510000005,-7.225482599999964],[72.42154130000006,-7.225601599999948],[72.42206480000004,-7.225625399999956],[72.42258830000003,-7.225791999999956],[72.42292140000006,-7.226125099999933],[72.42289760000006,-7.226529599999935],[72.42242170000003,-7.226815099999953],[72.42168410000005,-7.22686269999997],[72.42113680000006,-7.22719589999997],[72.42058950000006,-7.227386199999955],[72.42006600000008,-7.227505199999939],[72.41978050000006,-7.227647999999931],[72.41947120000003,-7.2276716999999735],[72.41916180000004,-7.227790699999957],[72.41830520000008,-7.228028699999925],[72.41749620000007,-7.228195199999959],[72.41687760000008,-7.228218999999967],[72.41644930000007,-7.228361799999959],[72.41618750000004,-7.228337999999951],[72.41616370000008,-7.227862099999925],[72.41630650000008,-7.227314799999931],[72.41661580000005,-7.226815099999953],[72.41694890000008,-7.226696199999935],[72.41744860000006,-7.226505799999927],[72.41847180000008,-7.2259822999999415],[72.41930460000003,-7.22569679999998],[72.42004220000007,-7.225458799999956],[72.42049430000003,-7.225411299999962],[72.42087510000005,-7.225482599999964]]],[[[72.32047260000007,-5.683947199999977],[72.32033010000004,-5.683516399999974],[72.31936620000005,-5.683447499999943],[72.31829540000007,-5.683126299999969],[72.31772440000003,-5.682626599999935],[72.31740310000004,-5.682091299999968],[72.31661790000004,-5.682019899999943],[72.31494040000007,-5.681948499999976],[72.31347700000003,-5.682019899999943],[72.31219210000006,-5.682198299999925],[72.31133550000004,-5.682448199999953],[72.31037180000004,-5.682769399999927],[72.30976510000005,-5.682916999999975],[72.30909990000004,-5.682959699999969],[72.30844450000006,-5.682662299999947],[72.30787340000006,-5.682198299999925],[72.30794480000003,-5.681555899999978],[72.30862290000005,-5.6807706999999255],[72.30976510000005,-5.680128199999956],[72.31090720000003,-5.679949699999952],[72.31201370000008,-5.680163899999968],[72.31369120000005,-5.680592199999978],[72.31451210000006,-5.681020499999931],[72.31668930000006,-5.681020499999931],[72.31754590000008,-5.681127599999968],[72.31875940000003,-5.681234699999948],[72.32022280000007,-5.68130599999995],[72.32136490000005,-5.681520199999966],[72.32236430000006,-5.682091299999968],[72.32261420000003,-5.682840799999951],[72.32240000000007,-5.683411899999953],[72.32172190000006,-5.683733099999927],[72.32143630000007,-5.683947199999977],[72.32047260000007,-5.683947199999977]]],[[[72.22657630000003,-5.353332999999964],[72.22705220000006,-5.353147399999955],[72.22764710000007,-5.353742299999965],[72.22806350000008,-5.3545155999999565],[72.22794450000004,-5.35522949999995],[72.22734960000008,-5.355586399999936],[72.22669530000007,-5.35522949999995],[72.22625000000005,-5.35419399999995],[72.22657630000003,-5.353332999999964]]],[[[72.24507900000003,-5.349335599999961],[72.24587850000006,-5.349049999999977],[72.24599270000004,-5.349621099999979],[72.24639250000007,-5.34990659999994],[72.24639250000007,-5.350648999999976],[72.24565010000003,-5.350648999999976],[72.24525030000007,-5.350306399999965],[72.24507900000003,-5.3499636999999325],[72.24507900000003,-5.349335599999961]]],[[[72.25421610000006,-5.349107099999969],[72.25393060000005,-5.349335599999961],[72.25353080000008,-5.348992899999928],[72.25358790000007,-5.348307599999941],[72.25410190000008,-5.348307599999941],[72.25427320000006,-5.348707399999967],[72.25421610000006,-5.349107099999969]]],[[[72.26055500000007,-5.3456235999999535],[72.26164000000006,-5.344709899999941],[72.26249660000008,-5.34391039999997],[72.26310090000004,-5.34313979999996],[72.26420990000008,-5.34219719999993],[72.26495220000004,-5.340997899999934],[72.26546620000005,-5.339741599999968],[72.26626570000008,-5.338599399999964],[72.26677970000003,-5.337742799999944],[72.26695100000006,-5.336486499999978],[72.26723650000008,-5.335515599999951],[72.26792180000007,-5.335287199999925],[72.26894970000006,-5.336086699999953],[72.26917820000006,-5.33654359999997],[72.26963500000005,-5.33711459999995],[72.26986350000004,-5.3376285999999595],[72.26974920000004,-5.338370999999938],[72.26986350000004,-5.33894209999994],[72.27014900000006,-5.339455999999927],[72.27054870000006,-5.340027099999929],[72.27077720000005,-5.340598199999931],[72.27072010000006,-5.341454799999951],[72.27009190000007,-5.341626099999928],[72.26969210000004,-5.34122629999996],[72.26843580000008,-5.3420829999999455],[72.26700810000006,-5.3433963999999605],[72.26575170000007,-5.344424299999957],[72.26420990000008,-5.345509399999969],[72.26226820000005,-5.346594399999958],[72.26124030000005,-5.346994199999926],[72.26061210000006,-5.346594399999958],[72.26021240000006,-5.346251799999948],[72.26055500000007,-5.3456235999999535]]],[[[72.27614520000003,-5.332032099999935],[72.27711610000006,-5.3324318999999605],[72.27723030000004,-5.333059999999932],[72.27723030000004,-5.333802399999968],[72.27677340000008,-5.334487699999954],[72.27608810000004,-5.334944599999972],[72.27523150000007,-5.334487699999954],[72.27363250000008,-5.333916599999952],[72.27249040000004,-5.333688199999926],[72.27174800000006,-5.3337452999999755],[72.26917820000006,-5.3337452999999755],[72.26843580000008,-5.333573999999942],[72.26855000000006,-5.3324318999999605],[72.26900680000006,-5.330147599999975],[72.26923530000005,-5.328148799999951],[72.26894970000006,-5.326721199999952],[72.26917820000006,-5.325921699999981],[72.26980630000008,-5.325921699999981],[72.27037740000003,-5.32615009999995],[72.27077720000005,-5.32615009999995],[72.27140530000008,-5.326035899999965],[72.27197640000003,-5.326606899999945],[72.27266170000007,-5.32734929999998],[72.27323280000007,-5.3283201999999505],[72.27363250000008,-5.329233899999963],[72.27391810000006,-5.330147599999975],[72.27414650000003,-5.331061299999931],[72.27460330000008,-5.331917899999951],[72.27551710000006,-5.331746599999974],[72.27614520000003,-5.332032099999935]]],[[[72.26580890000008,-5.312215999999978],[72.26512360000004,-5.312215999999978],[72.26453240000006,-5.311728599999981],[72.26403850000008,-5.3111308999999665],[72.26363880000008,-5.3106740999999715],[72.26392430000004,-5.310160099999962],[72.26483800000005,-5.309988799999928],[72.26552330000004,-5.310045899999977],[72.26575170000007,-5.31044559999998],[72.26592310000007,-5.310845399999948],[72.26626570000008,-5.311245099999951],[72.26643700000005,-5.311816199999953],[72.26580890000008,-5.312215999999978]]],[[[72.24976180000004,-5.301708299999973],[72.24993310000008,-5.30102299999993],[72.25050420000008,-5.300965899999937],[72.25073260000005,-5.300508999999977],[72.25141790000004,-5.300109299999974],[72.25238870000004,-5.299880799999926],[72.25307400000008,-5.2995952999999645],[72.25421610000006,-5.2990241999999625],[72.25530120000008,-5.299081299999955],[72.25592930000005,-5.299423999999931],[72.25632910000007,-5.300109299999974],[72.25650040000005,-5.300851699999953],[72.25632910000007,-5.301422699999932],[72.25604350000003,-5.3020508999999265],[72.25570090000008,-5.3026790999999776],[72.25610070000005,-5.3031358999999725],[72.25649940000005,-5.303783799999962],[72.25655750000004,-5.303878299999951],[72.25684300000006,-5.304506499999945],[72.25581510000006,-5.30462069999993],[72.25473010000007,-5.30462069999993],[72.25364500000006,-5.304449399999953],[72.25261710000007,-5.304392299999961],[72.25164630000006,-5.304506499999945],[72.25141790000004,-5.3039353999999435],[72.25136740000005,-5.303783799999962],[72.25113230000005,-5.30307879999998],[72.25097080000006,-5.302163399999927],[72.25044710000003,-5.30187959999995],[72.24976180000004,-5.301708299999973]]]]}}]}
