{"type":"FeatureCollection","features":[{"type":"Feature","properties":{"place":"cyprus-buffer-zone","region":"area/cyprus-buffer-zone","donors":"CY;area/northern-cyprus","rank":3,"whose_line":"OpenStreetMap mappers","publisher":"OpenStreetMap contributors","source_url":"https://www.openstreetmap.org/relation/3263909","version_or_date":"snapshot 2026-10-04T06:57:51Z (Overpass attic query); relation 3263909 v166 (2026-03-28T14:40:11Z)","feature_id":"relation 3263909","licence":"ODbL 1.0","notes":"No party's or UN dataset of the 1974 ceasefire lines found (DoS World Polygons has the zone inside 'Cyprus'; the UNFICYP map is not open data). The relation runs into the sea at both ends and overlaps GADM's Akrotiri and Dhekelia by about 1.7 km²; the consumer's clip to the donors' land removes both.","input_sha256":"1838423be70b3ca5632ef5eaec9e63dbcc02882905378bd38723d4f9e6125ed7","operation":"assembled from the OSM element's member ways (outer minus inner)","crs":"WGS84 longitude/latitude, as in the source (no reprojection)","source_features":[{"id":"relation 3263909 v166","osm":"relation/3263909","version":166,"timestamp":"2026-03-28T14:40:11Z","name":"United Nations Buffer Zone","name:en":"United Nations Buffer Zone","boundary":"military","admin_level":"3"}]},"geometry":{"type":"MultiPolygon","coordinates":[[[[33.9233086,35.0683501],[33.9234437,35.0683189],[33.9235576,35.0682413],[33.9240158,35.0677735],[33.9241388,35.0676961],[33.9242656,35.0676508],[33.9250484,35.0675047],[33.9253238,35.0675039],[33.9261892,35.0676975],[33.9268554,35.0677814],[33.9276166,35.0678264],[33.9287425,35.0680888],[33.9290794,35.0681934],[33.9292075,35.0682164],[33.9293328,35.0682043],[33.9302118,35.0679503],[33.9316393,35.0675378],[33.9317697,35.0675157],[33.9319055,35.0675288],[33.9340064,35.068119],[33.9366126,35.0690412],[33.9373911,35.0692559],[33.9385841,35.0694136],[33.9395319,35.0697861],[33.939956,35.0699851],[33.9400069,35.0700964],[33.9399357,35.0703019],[33.9400604,35.0703967],[33.940358,35.0703441],[33.9405498,35.0703549],[33.941096,35.0705752],[33.9415291,35.0706086],[33.9420183,35.0705767],[33.9426645,35.0705656],[33.9435063,35.0706102],[33.9438193,35.0706711],[33.9464171,35.0718293],[33.9487165,35.0729437],[33.9487566,35.0730814],[33.9485858,35.0732605],[33.9486984,35.0733595],[33.9491875,35.0732248],[33.9495033,35.0733464],[33.9498109,35.0732675],[33.9499006,35.0732785],[33.9505207,35.0736369],[33.9509216,35.0740586],[33.9510273,35.0741291],[33.9525974,35.0747949],[33.952676,35.0748182],[33.9527568,35.0748128],[33.9543046,35.0744403],[33.9545316,35.074415],[33.955281,35.0743728],[33.9556609,35.0742767],[33.9557502,35.0742191],[33.9558088,35.0741162],[33.955803,35.0738229],[33.9558443,35.0736836],[33.9559668,35.0736042],[33.9563064,35.0734182],[33.9564734,35.0733268],[33.9566605,35.0733066],[33.957496,35.0734857],[33.9580866,35.0735895],[33.9586286,35.0738734],[33.9591425,35.0740808],[33.9597441,35.0742463],[33.959796,35.0742627],[33.9598821,35.0742764],[33.9616734,35.0744936],[33.9619768,35.0745892],[33.9622577,35.0748127],[33.9626156,35.0750469],[33.9633518,35.0753972],[33.963858,35.0755],[33.9645203,35.0754779],[33.9650111,35.0752604],[33.9652165,35.0752163],[33.9655846,35.075193],[33.9659536,35.0750815],[33.9663501,35.0747928],[33.9666911,35.0744284],[33.9669148,35.073816],[33.967153,35.073402],[33.9673812,35.07312],[33.9675062,35.0730692],[33.9679307,35.0729615],[33.9687132,35.0728432],[33.9713984,35.0719254],[33.9715205,35.0718684],[33.9716012,35.0717918],[33.9729875,35.0701261],[33.9730503,35.0700733],[33.9731688,35.0700429],[33.9759399,35.0696557],[33.9762008,35.0695933],[33.9776894,35.0688035],[33.9793987,35.0683144],[33.9817144,35.0675901],[33.9817985,35.0675792],[33.9818742,35.067592],[33.9853594,35.0688394],[33.9897792,35.0694247],[33.9930965,35.069789],[33.9949307,35.0700978],[33.9971099,35.0701811],[33.9989439,35.0701008],[33.9991186,35.0700994],[33.9991187,35.0700444],[33.9990733,35.0699931],[33.9990223,35.0699296],[33.9989801,35.0697693],[33.9989182,35.0697865],[33.9988939,35.0697401],[33.9989606,35.0696955],[33.9989987,35.0694988],[33.9990684,35.0691405],[33.9993744,35.0686245],[33.9994217,35.0680264],[33.9995252,35.0679459],[33.9996331,35.067941],[33.9997237,35.0680146],[33.9998033,35.0681124],[33.9999642,35.0682377],[34.0000313,35.0683693],[34.0001529,35.0684449],[34.0002395,35.0685975],[34.00042,35.0685662],[34.0005388,35.0686456],[34.0005652,35.0687514],[34.0005104,35.0689235],[34.0009151,35.0693133],[34.0010305,35.0695982],[34.0011624,35.0696085],[34.0012854,35.0695525],[34.0012988,35.0694721],[34.0012076,35.0694459],[34.0011908,35.0693131],[34.0015487,35.0690431],[34.0017673,35.068956],[34.0017316,35.0687737],[34.0018228,35.068654],[34.0018563,35.0685304],[34.0022046,35.0684896],[34.0023622,35.0683278],[34.0026175,35.0682835],[34.0026958,35.0679448],[34.0028959,35.0678435],[34.0029195,35.0676701],[34.0030844,35.0675289],[34.0033054,35.0673543],[34.0030505,35.067143],[34.0026623,35.0670705],[34.0025615,35.0669687],[34.0025318,35.0667972],[34.0025883,35.0665658],[34.0027459,35.0664368],[34.0031222,35.066557],[34.0036382,35.0664691],[34.0039714,35.0661934],[34.0036525,35.0657798],[34.0037063,35.0657182],[34.0038854,35.0657534],[34.0039678,35.0655892],[34.0042975,35.0654455],[34.0041757,35.0652754],[34.0042724,35.0651757],[34.0044158,35.0652666],[34.0045391,35.0652074],[34.0046845,35.0651375],[33.9998059,35.0637012],[33.9985974,35.0631947],[33.9959318,35.062638],[33.9912433,35.0587418],[33.9871556,35.0582614],[33.981892,35.0580768],[33.9779127,35.0600262],[33.9767593,35.0607815],[33.9763567,35.0613552],[33.9761103,35.0614695],[33.9745545,35.0620546],[33.9740658,35.0630465],[33.9727038,35.0634588],[33.9720263,35.0638325],[33.9689759,35.0655153],[33.9661864,35.0700113],[33.9654558,35.0706444],[33.9640825,35.0713469],[33.9627582,35.0725367],[33.9623011,35.0724456],[33.961501,35.0723441],[33.9606503,35.0728914],[33.9599208,35.072786],[33.9587603,35.07129],[33.9516748,35.0692793],[33.944973,35.0692796],[33.9428379,35.0693854],[33.9406745,35.0694038],[33.934257,35.0670061],[33.9309557,35.066409],[33.9263777,35.0656858],[33.9233868,35.0668561],[33.9203699,35.0661539],[33.9154544,35.0645154],[33.9110331,35.0637092],[33.9082543,35.0640319],[33.9047392,35.0650096],[33.9023985,35.0684166],[33.9021124,35.0709654],[33.8998048,35.0748829],[33.9024035,35.0770713],[33.9027634,35.0759987],[33.9032917,35.0741754],[33.9033271,35.0740827],[33.9034043,35.0739942],[33.9044521,35.0729655],[33.9055565,35.0722486],[33.9062656,35.071889],[33.906843,35.0717069],[33.9085154,35.0708006],[33.9088696,35.0706814],[33.909386,35.0705761],[33.9118752,35.0700682],[33.9127248,35.0701041],[33.915116,35.0696596],[33.9157975,35.0696544],[33.9160782,35.0694762],[33.9201167,35.068727],[33.9217009,35.0685044],[33.9221526,35.068461],[33.9233086,35.0683501]]],[[[33.1687337,35.1778122],[33.1657816,35.1772812],[33.1642753,35.1756996],[33.1637791,35.1744035],[33.1622991,35.1737435],[33.1610674,35.1719338],[33.1609226,35.1703943],[33.1585526,35.1697904],[33.1577742,35.1693988],[33.1574657,35.1689112],[33.1579984,35.1676325],[33.1568526,35.1670562],[33.1558864,35.1652464],[33.1549906,35.1647395],[33.1515713,35.1617977],[33.1505859,35.1617994],[33.1509694,35.1609026],[33.1504845,35.1585733],[33.1501068,35.1579032],[33.1492292,35.1572076],[33.1479407,35.1568576],[33.1472422,35.156948],[33.1458947,35.1572778],[33.1453588,35.1574102],[33.1433831,35.1568067],[33.1419894,35.1552436],[33.1404187,35.1540454],[33.1346552,35.1506927],[33.1332282,35.1497023],[33.1328221,35.1487272],[33.1316876,35.1434797],[33.131297,35.1429893],[33.1299184,35.1413821],[33.1291051,35.1413167],[33.1277592,35.1411496],[33.1273091,35.1410658],[33.1266246,35.1407223],[33.1260281,35.1403135],[33.1250925,35.1392712],[33.1245389,35.1388921],[33.1227638,35.1375831],[33.1206562,35.1369654],[33.1173699,35.1369725],[33.1130344,35.1375357],[33.1102513,35.1377279],[33.1064072,35.1383929],[33.090241,35.1378972],[33.0847746,35.1360073],[33.0827158,35.1360091],[33.0817802,35.1354265],[33.0793255,35.1345434],[33.0788255,35.1344166],[33.0776341,35.1339301],[33.0748709,35.1339147],[33.0743891,35.1343539],[33.0729477,35.1358735],[33.0722906,35.1363811],[33.0715599,35.136811],[33.070081,35.1380714],[33.0691948,35.1391681],[33.0684008,35.1397186],[33.0676584,35.1400722],[33.066593,35.1404266],[33.0656805,35.1408162],[33.0648142,35.1412711],[33.0639135,35.1418549],[33.0634801,35.1428367],[33.0559699,35.1439412],[33.0548058,35.1442237],[33.0541814,35.1442368],[33.0533831,35.1443439],[33.0464421,35.1464739],[33.0410546,35.1465617],[33.0406321,35.1465625],[33.0382094,35.1465669],[33.0347573,35.1460888],[33.0339715,35.1456839],[33.0314067,35.1429073],[33.0277584,35.1414277],[33.0259248,35.1402779],[33.0191645,35.1387376],[33.0182204,35.1380533],[33.0175981,35.137211],[33.0162892,35.1347192],[33.015742,35.1336312],[33.014755,35.132824],[33.0129096,35.1320518],[33.0110642,35.1309989],[33.0108366,35.1308598],[33.0106029,35.1307181],[33.0071053,35.1279804],[33.0043802,35.123979],[33.0039832,35.1233999],[32.9998848,35.1202583],[32.9992733,35.1197844],[32.9928038,35.1167304],[32.9873321,35.1152385],[32.9864094,35.1151332],[32.984961,35.1151332],[32.9835933,35.1153443],[32.9826865,35.1154842],[32.978749,35.1140098],[32.9741785,35.1118157],[32.9726657,35.1098848],[32.9684708,35.1056543],[32.9656169,35.102512],[32.9631814,35.0979213],[32.9613683,35.096903],[32.9561004,35.0946558],[32.9454038,35.0884931],[32.937164,35.0850517],[32.923474,35.082014],[32.9210708,35.0818559],[32.9182491,35.0823125],[32.9128096,35.0835943],[32.9090116,35.0854029],[32.906619,35.0876503],[32.8985831,35.098764],[32.8896138,35.1018888],[32.8864595,35.101292],[32.8832302,35.0995715],[32.8784344,35.1009935],[32.8762671,35.1008882],[32.874572,35.09987],[32.8731129,35.098448],[32.8709564,35.0922329],[32.8708276,35.0907932],[32.8708705,35.0886336],[32.8717718,35.0835241],[32.8733596,35.0806267],[32.8735313,35.0783264],[32.872909,35.0769391],[32.8713212,35.076465],[32.8699693,35.0767284],[32.8667936,35.0781683],[32.8630921,35.0801702],[32.8606352,35.0801175],[32.8519341,35.0792395],[32.8484687,35.0782737],[32.8415701,35.0776064],[32.835165,35.0805565],[32.8336378,35.0803748],[32.8207025,35.0788356],[32.8154561,35.0825407],[32.8086648,35.0847181],[32.8068301,35.0846654],[32.8036758,35.0871763],[32.8030965,35.0881595],[32.8024528,35.0911092],[32.8021631,35.0920398],[32.7987942,35.0961832],[32.7967772,35.097061],[32.7948986,35.0977283],[32.7937624,35.0981319],[32.790694,35.0997471],[32.7902648,35.100502],[32.788752,35.104487],[32.789031,35.1059089],[32.7899107,35.1073483],[32.7902755,35.1085771],[32.7905974,35.1102096],[32.7902541,35.1121053],[32.7897176,35.1134218],[32.7887949,35.114826],[32.7877006,35.1157387],[32.7864775,35.1165285],[32.7844712,35.1173359],[32.7836787,35.1174855],[32.7827975,35.1176519],[32.7787869,35.1177821],[32.7773902,35.1178274],[32.7748045,35.1178976],[32.7713928,35.1178098],[32.7550291,35.1174317],[32.7501282,35.1173184],[32.7421352,35.1206005],[32.7349898,35.1243739],[32.731857,35.1258832],[32.7299902,35.1266905],[32.7290568,35.1268836],[32.7235529,35.1270766],[32.7226088,35.1264799],[32.7204415,35.1253918],[32.7174696,35.1252514],[32.7132639,35.125269],[32.7077815,35.1256551],[32.7059898,35.1255673],[32.7017197,35.125971],[32.7012691,35.1261114],[32.7008614,35.1264273],[32.7001748,35.1267607],[32.6974604,35.1275505],[32.6964089,35.1277611],[32.6951644,35.1277611],[32.6941559,35.1276733],[32.6918063,35.1284806],[32.6928975,35.1312453],[32.693995,35.134026],[32.6944456,35.1346227],[32.6953253,35.1366582],[32.6961193,35.1375532],[32.6969347,35.1393956],[32.696999,35.1406415],[32.6974496,35.1420452],[32.6968274,35.1439051],[32.6963768,35.1460457],[32.696527,35.1474494],[32.6964411,35.1490811],[32.6975355,35.15359],[32.6977286,35.1541865],[32.6976857,35.155204],[32.6972351,35.1565023],[32.6959476,35.1589934],[32.6954112,35.1605371],[32.6945529,35.1625721],[32.6944241,35.1637298],[32.6932654,35.1674837],[32.6932654,35.1687466],[32.6936731,35.1710971],[32.6962051,35.1757451],[32.6966128,35.1762011],[32.6973638,35.1800421],[32.6964222,35.1835151],[32.6971558,35.1834698],[32.6974708,35.1834611],[32.6977934,35.1834317],[32.6981485,35.1834086],[32.6986478,35.1833911],[32.6991813,35.1833639],[32.6994157,35.1833696],[32.6996664,35.1833572],[32.6998721,35.1833554],[32.700058,35.1833566],[32.7002682,35.1833691],[32.7004926,35.1833915],[32.7007227,35.1834316],[32.7009064,35.183444],[32.7011406,35.1834994],[32.7014906,35.1835978],[32.7016093,35.1836535],[32.7017505,35.1837444],[32.7018651,35.1838435],[32.701876,35.1839399],[32.7018864,35.1840093],[32.7019927,35.1840778],[32.702211,35.1840338],[32.7023473,35.1840435],[32.7023904,35.1840093],[32.7024406,35.1839849],[32.7024921,35.1839751],[32.7026452,35.1838998],[32.7027325,35.1838607],[32.7028102,35.1838461],[32.7029334,35.1838148],[32.7030659,35.1838072],[32.7031652,35.1838399],[32.7032516,35.1838842],[32.7033578,35.1839503],[32.7034244,35.1839863],[32.7034952,35.1840505],[32.7035514,35.184092],[32.7035825,35.1841292],[32.703579,35.1841538],[32.7035952,35.1841788],[32.7036419,35.1841764],[32.70371,35.1841817],[32.7037555,35.184193],[32.7037722,35.1842154],[32.7037818,35.1842546],[32.7037782,35.1843133],[32.7038128,35.1843464],[32.703862,35.1843778],[32.7038943,35.1843739],[32.7039132,35.1843272],[32.703926,35.1843084],[32.7039808,35.1842935],[32.7040498,35.1842776],[32.7041125,35.1842707],[32.7042244,35.1842673],[32.7043057,35.184283],[32.7043859,35.1843201],[32.7045169,35.1842652],[32.7045876,35.1842394],[32.704648,35.1842438],[32.7046624,35.1842721],[32.7046803,35.1842907],[32.7047114,35.1842853],[32.7047585,35.1842658],[32.7048364,35.1842673],[32.7048903,35.1842501],[32.7049208,35.1842482],[32.704965,35.1842355],[32.7049955,35.1842369],[32.7050412,35.1842554],[32.7051233,35.1842575],[32.7051681,35.184234],[32.7051774,35.1842064],[32.7051983,35.1841988],[32.7052197,35.1842126],[32.7052265,35.1842409],[32.7052578,35.1842559],[32.7053681,35.1842297],[32.7053753,35.1842043],[32.7053559,35.1841669],[32.7053838,35.1841365],[32.7054887,35.184117],[32.7055592,35.1841346],[32.7055914,35.1841273],[32.7056782,35.1841522],[32.7057374,35.1841542],[32.7057888,35.1841652],[32.7058379,35.1841327],[32.7058917,35.1841131],[32.7059265,35.1840647],[32.7059395,35.1840136],[32.7060021,35.1839657],[32.7060038,35.1839319],[32.7059801,35.1838945],[32.7059928,35.1838662],[32.7059674,35.183851],[32.7059996,35.1838226],[32.7060545,35.1838123],[32.7060774,35.1837888],[32.7060731,35.1837701],[32.7061002,35.1837501],[32.7061459,35.1836782],[32.7061704,35.1836246],[32.7062034,35.1835745],[32.706222,35.1835358],[32.7062596,35.1835099],[32.7063514,35.1835053],[32.7064833,35.1835093],[32.706683,35.1835309],[32.7068289,35.1835325],[32.7069132,35.1835497],[32.7070083,35.1835698],[32.7071978,35.1836197],[32.707336,35.1836534],[32.7074778,35.1836786],[32.7075889,35.1837101],[32.7077294,35.1837677],[32.707853,35.1838486],[32.7079586,35.1839406],[32.7080619,35.1840436],[32.7080822,35.1840775],[32.7081519,35.184132],[32.7082605,35.1841576],[32.7083167,35.1841917],[32.708356,35.1842433],[32.7083467,35.1842976],[32.7082833,35.1843651],[32.7081625,35.1844023],[32.7080985,35.1844599],[32.7080345,35.184501],[32.7080291,35.184522],[32.7080351,35.1845401],[32.7080943,35.184544],[32.7081697,35.1845279],[32.7082558,35.1845489],[32.7083407,35.1845821],[32.7083559,35.1846294],[32.7085369,35.1845117],[32.7085931,35.184459],[32.7085907,35.1844199],[32.7086027,35.1843778],[32.7087008,35.184284],[32.708861,35.1841471],[32.708885,35.1840611],[32.7089448,35.1840132],[32.7089315,35.1839615],[32.7090014,35.183879],[32.7090325,35.1838511],[32.7090702,35.1838301],[32.7091341,35.1837543],[32.7091423,35.1837261],[32.7091582,35.1835992],[32.7092275,35.1835342],[32.7093409,35.1834665],[32.7094728,35.1834223],[32.7096538,35.1834029],[32.7098417,35.1834054],[32.7099972,35.1833573],[32.7101173,35.1833159],[32.7100212,35.1829413],[32.7068605,35.1706203],[32.706649,35.1701871],[32.7063224,35.1695184],[32.706167,35.1664467],[32.7060462,35.1640583],[32.70698,35.154928],[32.711374,35.1481378],[32.711733,35.147583],[32.7150086,35.1443079],[32.7180215,35.1421181],[32.7215489,35.1418284],[32.722114,35.141782],[32.7242475,35.141726],[32.7265253,35.1418018],[32.7277169,35.1418415],[32.7342871,35.1403437],[32.7368872,35.140263],[32.7421314,35.1407996],[32.7425257,35.14084],[32.7477117,35.1401422],[32.749973,35.13829],[32.7511936,35.1374404],[32.7562953,35.1293901],[32.7619464,35.1283282],[32.7711628,35.1295399],[32.7780025,35.1273499],[32.7789568,35.1270443],[32.7799059,35.1261978],[32.7817891,35.1255578],[32.7866302,35.1248195],[32.7919613,35.1180553],[32.7938642,35.1163471],[32.7991947,35.1115619],[32.7998449,35.1111799],[32.8029766,35.10934],[32.8059503,35.1065057],[32.8188823,35.0973967],[32.8216144,35.0954722],[32.8261753,35.0927245],[32.8270432,35.0912146],[32.8285238,35.0883351],[32.8348284,35.0833006],[32.8358203,35.0829696],[32.8397839,35.0823893],[32.839911,35.0823944],[32.8401604,35.082369],[32.8409616,35.0822874],[32.841835,35.081812],[32.8432976,35.0811839],[32.8455559,35.0820183],[32.847772,35.0830854],[32.8487899,35.08319],[32.8495251,35.0830692],[32.8494796,35.0824044],[32.8497355,35.0820504],[32.8529881,35.0811041],[32.8537467,35.0811955],[32.8564617,35.0827163],[32.85742,35.083127],[32.8606108,35.0856513],[32.862027,35.090804],[32.861977,35.09186],[32.8608891,35.0957078],[32.8600346,35.0987302],[32.8602399,35.0997299],[32.86065,35.1017267],[32.8607561,35.102243],[32.8615233,35.1024759],[32.8723868,35.1062274],[32.8742811,35.1068816],[32.8746866,35.1069174],[32.876858,35.107109],[32.8824904,35.1076059],[32.883228,35.107671],[32.8844935,35.1083261],[32.8875143,35.1084389],[32.88785,35.1084705],[32.8886451,35.1084717],[32.889242,35.1081521],[32.8919443,35.1072079],[32.8959582,35.1075338],[32.8960917,35.1075446],[32.8963885,35.1075687],[32.8971847,35.1076333],[32.8975336,35.1075864],[32.9076282,35.1035412],[32.9094282,35.1029424],[32.9115415,35.1004984],[32.9187439,35.0968844],[32.9203253,35.0968205],[32.921169,35.0969344],[32.9230242,35.0974278],[32.9240533,35.0978686],[32.9254535,35.0978291],[32.9268563,35.0986476],[32.9270481,35.0994387],[32.9274444,35.0999835],[32.9283238,35.1005675],[32.9293481,35.1008179],[32.9303002,35.1010134],[32.9337093,35.1017133],[32.9345239,35.1017823],[32.9361984,35.101924],[32.9403122,35.1016954],[32.9406061,35.1017176],[32.9433438,35.101924],[32.9434109,35.1019523],[32.9460592,35.10307],[32.9492323,35.1041357],[32.9533487,35.1039725],[32.9552099,35.1035741],[32.9556722,35.1040014],[32.9585144,35.1066286],[32.9617545,35.1106309],[32.9639861,35.112667],[32.9684922,35.1157212],[32.9781696,35.1202144],[32.9805718,35.1223837],[32.9810071,35.1230977],[32.9852292,35.1291299],[32.9876325,35.1302531],[32.9903739,35.1317139],[32.9905795,35.1334138],[32.9926394,35.1369178],[32.99319,35.1409573],[32.9991982,35.1454141],[33.005099,35.1479406],[33.0108389,35.1481341],[33.0119349,35.1491386],[33.0128667,35.1509584],[33.0137199,35.1527904],[33.0150589,35.1544159],[33.0160135,35.1553965],[33.0189328,35.1558809],[33.0210018,35.157237],[33.0228605,35.1582804],[33.0255887,35.1594329],[33.0267563,35.159956],[33.0324361,35.1628703],[33.0342718,35.1634711],[33.0375339,35.1642181],[33.0390096,35.164556],[33.043343,35.1655068],[33.0470209,35.1659594],[33.0484532,35.1661357],[33.0506588,35.1667771],[33.0527668,35.167259],[33.0556372,35.169293],[33.0590833,35.1700609],[33.0610059,35.1704893],[33.0635368,35.1721319],[33.0677812,35.1732931],[33.0735318,35.1733983],[33.0763224,35.1728704],[33.079158,35.1721021],[33.0819255,35.1707716],[33.0826588,35.1704191],[33.0844731,35.1701332],[33.0854578,35.1705435],[33.0885801,35.1718443],[33.0893463,35.1718993],[33.0954186,35.170976],[33.0970553,35.1691632],[33.0986661,35.1683909],[33.0994424,35.1675682],[33.0999264,35.165894],[33.100603,35.1650908],[33.101024,35.1641251],[33.1005088,35.1628779],[33.1006199,35.161272],[33.1011366,35.1606928],[33.101158,35.1594724],[33.1025279,35.1585374],[33.1039067,35.1573669],[33.1065681,35.1578259],[33.1078297,35.1567201],[33.1090149,35.1582415],[33.1093009,35.1583835],[33.1093939,35.158657],[33.1096126,35.1588407],[33.1096875,35.1589037],[33.1100612,35.1586761],[33.1105554,35.1582051],[33.1123094,35.1588537],[33.1141941,35.1597161],[33.1138149,35.1621383],[33.1154115,35.162436],[33.1175914,35.1623889],[33.1179184,35.1624561],[33.118279,35.162905],[33.1207802,35.1647703],[33.121473,35.165287],[33.121964,35.165887],[33.122141,35.166179],[33.122592,35.166671],[33.122828,35.166878],[33.1225717,35.166963],[33.1226485,35.1674903],[33.1226521,35.1679062],[33.123264,35.1680433],[33.123012,35.169099],[33.1235573,35.1705541],[33.1241178,35.1720598],[33.1245571,35.173222],[33.1273514,35.1759972],[33.1315289,35.1801458],[33.1323388,35.1809411],[33.140218,35.1853736],[33.1441136,35.1891194],[33.1457347,35.1933112],[33.1466521,35.1938719],[33.1489355,35.1956419],[33.1505989,35.196389],[33.1534453,35.1966012],[33.1558661,35.1979818],[33.1572491,35.1981919],[33.1575633,35.1982396],[33.1603838,35.1983202],[33.1607177,35.1983297],[33.1641905,35.1991997],[33.1695232,35.1991326],[33.1718465,35.1987834],[33.1725771,35.1986736],[33.1725875,35.198672],[33.1757072,35.198203],[33.1827977,35.1974623],[33.186857,35.1966407],[33.1877151,35.196467],[33.192697,35.1940751],[33.1950802,35.1932138],[33.199043,35.1922097],[33.2037707,35.1928332],[33.2045896,35.1926599],[33.2053598,35.1929251],[33.2064891,35.192687],[33.2066917,35.1921286],[33.2108213,35.1906979],[33.2131376,35.1893071],[33.2198101,35.1866532],[33.2198302,35.1857945],[33.2218187,35.1855569],[33.2251973,35.1842884],[33.2275003,35.1836812],[33.2289109,35.1835674],[33.229616,35.1835462],[33.2300951,35.1835674],[33.2313692,35.1836327],[33.2317242,35.1836394],[33.2317745,35.18363],[33.2323711,35.1835184],[33.2334773,35.182581],[33.2340684,35.1818418],[33.2341638,35.1817781],[33.2345555,35.1816655],[33.2346831,35.1815571],[33.2353323,35.1809973],[33.2372238,35.1802458],[33.2398502,35.1799442],[33.2407246,35.1797784],[33.2422223,35.178834],[33.2426515,35.1782543],[33.24338,35.1777685],[33.2462099,35.1742079],[33.2479653,35.1745569],[33.248433,35.1744022],[33.2515856,35.1736608],[33.2514666,35.1723808],[33.252719,35.1715019],[33.2555395,35.1709877],[33.2561071,35.1709289],[33.2593214,35.1709157],[33.2629031,35.1704414],[33.2642033,35.1708821],[33.2649399,35.1712407],[33.2649563,35.1717796],[33.2645889,35.1733272],[33.2653764,35.173598],[33.2659969,35.174112],[33.2664524,35.1742946],[33.2669118,35.1744164],[33.2674141,35.1744155],[33.2679645,35.1742737],[33.2690933,35.173517],[33.2694172,35.1731062],[33.2732915,35.1710886],[33.2737884,35.1702895],[33.2743504,35.1697694],[33.2755666,35.1696276],[33.2765198,35.1698109],[33.2781471,35.1692385],[33.2778491,35.1685563],[33.2781952,35.1683441],[33.2802167,35.1674732],[33.2808513,35.166965],[33.2814453,35.1667858],[33.2820448,35.1664004],[33.2822779,35.1663855],[33.2825391,35.1664469],[33.2830279,35.1668375],[33.2855287,35.1672795],[33.2875892,35.1665815],[33.2888681,35.1661675],[33.28944,35.1660482],[33.2909087,35.1660666],[33.2931747,35.1668437],[33.2944391,35.1674506],[33.2946896,35.1675708],[33.2955007,35.1677506],[33.2958665,35.1681102],[33.2967094,35.1681397],[33.2978181,35.1682347],[33.2994542,35.1687276],[33.3009584,35.1695608],[33.301659,35.169588],[33.3024701,35.1695608],[33.3034003,35.1690188],[33.3038209,35.1685206],[33.3041932,35.1683286],[33.3046459,35.1681795],[33.3056699,35.1681207],[33.3062762,35.1682229],[33.3091928,35.1696322],[33.3100372,35.1701813],[33.310667,35.1708167],[33.3117963,35.1722052],[33.3133186,35.1734547],[33.3134418,35.1737822],[33.3135713,35.173827],[33.313917,35.1746803],[33.3145869,35.1745268],[33.3147305,35.1744953],[33.3159171,35.1742791],[33.3165261,35.1740934],[33.3166549,35.1738759],[33.3166549,35.1733708],[33.3168265,35.1729358],[33.3173844,35.1726131],[33.3177052,35.1725326],[33.3180625,35.1724868],[33.3186976,35.172592],[33.3196246,35.1732305],[33.3201052,35.1738759],[33.3202439,35.1762158],[33.3184746,35.1767532],[33.3186577,35.1791957],[33.319662,35.1809323],[33.3203248,35.180911],[33.3204587,35.1809949],[33.3205796,35.1810707],[33.3207685,35.1810241],[33.3211539,35.1813273],[33.321277,35.1814241],[33.3216726,35.1814748],[33.3229082,35.1815037],[33.3229103,35.1816671],[33.3229113,35.1817432],[33.3229124,35.1818305],[33.3233258,35.1819086],[33.323411,35.1818297],[33.3235039,35.1818319],[33.3236064,35.1818344],[33.323664,35.1818357],[33.3238175,35.1818394],[33.3238447,35.1823251],[33.3245877,35.1823268],[33.3262493,35.1823306],[33.3275229,35.1823335],[33.3292108,35.1823838],[33.3309797,35.1824365],[33.3330832,35.182263],[33.333693,35.1821925],[33.3340791,35.1832818],[33.3346152,35.1832302],[33.3359944,35.1828214],[33.3365783,35.1826642],[33.3370955,35.1822236],[33.3374589,35.1820976],[33.3384001,35.1820681],[33.3390539,35.182546],[33.3396088,35.1824338],[33.3398021,35.1823339],[33.3403598,35.182282],[33.3410179,35.18277],[33.3417644,35.1828711],[33.3427009,35.1832207],[33.3431678,35.1833491],[33.343934,35.183271],[33.3441111,35.1833144],[33.346009,35.1829999],[33.3466898,35.1829799],[33.3469855,35.1830508],[33.3471931,35.1832059],[33.3474758,35.1832191],[33.3475756,35.183764],[33.3479144,35.1837537],[33.3483407,35.1837031],[33.348466,35.1835303],[33.3487481,35.1833791],[33.3490162,35.1835484],[33.3499867,35.1832932],[33.3501112,35.1832604],[33.3496437,35.1824443],[33.3495746,35.1823585],[33.3493129,35.1816577],[33.3491045,35.1812378],[33.348875,35.1804861],[33.3484996,35.1799562],[33.3481801,35.1797403],[33.3482448,35.1795532],[33.3484007,35.1794299],[33.3488832,35.1793524],[33.3492472,35.1790045],[33.3492656,35.1784982],[33.3493886,35.178314],[33.3497267,35.178046],[33.3501517,35.1781348],[33.3503814,35.1782063],[33.3507827,35.177952],[33.3521265,35.1785231],[33.3522767,35.1783312],[33.3523907,35.1783839],[33.3524443,35.1783718],[33.3544198,35.1790383],[33.3546451,35.1785527],[33.3550608,35.1786458],[33.3553051,35.1786301],[33.3553671,35.1785578],[33.3555302,35.1783269],[33.3558775,35.1786897],[33.3559018,35.1787476],[33.356174,35.1777016],[33.3562221,35.177665],[33.3562702,35.1776591],[33.356314,35.1776671],[33.3563745,35.1776815],[33.356411,35.1777076],[33.3564465,35.1777454],[33.3564922,35.1778608],[33.3566854,35.1778292],[33.3565659,35.1772878],[33.3563972,35.1763994],[33.3562881,35.1758449],[33.3562429,35.1755374],[33.3562219,35.1753948],[33.3559927,35.1754075],[33.3560047,35.1755173],[33.3559996,35.1755709],[33.3559747,35.1756064],[33.3559345,35.1756373],[33.3558785,35.175658],[33.3558024,35.1756498],[33.3557536,35.1756197],[33.3551102,35.1747078],[33.3559977,35.174009],[33.3560545,35.1739696],[33.3561199,35.1739677],[33.3562063,35.1739896],[33.3562484,35.1740287],[33.3562612,35.1740588],[33.356257,35.1741027],[33.3562036,35.1742364],[33.3563578,35.1742852],[33.3565564,35.1739486],[33.3572538,35.1741099],[33.357302,35.1744378],[33.3574107,35.1746064],[33.3574181,35.1746078],[33.3578151,35.174681],[33.357879,35.1746611],[33.3579213,35.1746083],[33.3581743,35.1742883],[33.358779,35.1744714],[33.3599294,35.1750212],[33.3601302,35.1750118],[33.3604086,35.1750688],[33.3604646,35.1749484],[33.360697,35.1750066],[33.3607056,35.1750374],[33.3608236,35.1750522],[33.3608512,35.1752014],[33.3610392,35.1751978],[33.3612837,35.1751932],[33.3612771,35.1750457],[33.3614482,35.1750287],[33.361491,35.1750893],[33.3615578,35.1751855],[33.3616872,35.1751177],[33.3619283,35.1750804],[33.3620999,35.1748789],[33.3622206,35.1748987],[33.3623676,35.1748671],[33.3624492,35.1749547],[33.3629667,35.1748642],[33.3632779,35.1748161],[33.3635682,35.1747528],[33.36365,35.1748021],[33.3638195,35.174762],[33.3640433,35.1747663],[33.3642405,35.1748031],[33.3647141,35.1749915],[33.3649682,35.175161],[33.3655875,35.1753187],[33.3658,35.1753414],[33.3659807,35.1754146],[33.3665252,35.1755867],[33.3669,35.1757912],[33.3671459,35.1758854],[33.3671941,35.1760384],[33.3673529,35.1761079],[33.367322,35.1762086],[33.3672983,35.176286],[33.3673101,35.1764279],[33.3673299,35.1765239],[33.3673587,35.1766641],[33.367463,35.1768495],[33.3676657,35.1768466],[33.3676867,35.1769829],[33.3678701,35.1769826],[33.3679206,35.1771408],[33.3682459,35.1771497],[33.3683338,35.1774724],[33.3684303,35.1775362],[33.3684781,35.1776548],[33.3685281,35.1776724],[33.368563,35.1777016],[33.3686461,35.1778557],[33.368729,35.1782173],[33.3687896,35.1783021],[33.3695767,35.1784082],[33.370171,35.1784152],[33.3704031,35.1787019],[33.3704858,35.1787505],[33.3705625,35.1787956],[33.3707187,35.1786525],[33.3709141,35.1787666],[33.3707576,35.1789264],[33.3707576,35.1789976],[33.3707888,35.1790473],[33.3708624,35.1790855],[33.370957,35.179068],[33.3713116,35.1788815],[33.3718155,35.1792394],[33.3718736,35.1792806],[33.3719565,35.1793394],[33.3720128,35.1794908],[33.3720506,35.1803259],[33.3721032,35.1811535],[33.3721437,35.1827041],[33.3723459,35.1830007],[33.3722852,35.1838953],[33.3720795,35.1839639],[33.3719093,35.1851777],[33.37212,35.1857046],[33.3719973,35.1859775],[33.3719289,35.1860424],[33.371807,35.1861983],[33.3717824,35.1863155],[33.371802,35.1864028],[33.3718299,35.1864881],[33.3719435,35.1868296],[33.3721562,35.1869712],[33.372318,35.1871419],[33.3723733,35.1872003],[33.3725562,35.1873047],[33.3726677,35.1873337],[33.3729438,35.1876531],[33.373944,35.1875599],[33.3743774,35.1877285],[33.3743901,35.1882763],[33.3739973,35.188652],[33.3737369,35.1887313],[33.3737193,35.1888977],[33.3736009,35.1890643],[33.3736735,35.1893418],[33.3739852,35.1898984],[33.374053,35.1903298],[33.3740496,35.1905695],[33.3745973,35.1909352],[33.3749961,35.1910989],[33.3758424,35.191773],[33.3761747,35.1921937],[33.3761882,35.1922108],[33.3762216,35.1927284],[33.376213,35.1940971],[33.3761925,35.1947013],[33.3763705,35.1952674],[33.3770956,35.1958255],[33.3784372,35.196296],[33.3797132,35.1971313],[33.3803169,35.1971691],[33.3831723,35.1995726],[33.3832832,35.199666],[33.3834994,35.2001013],[33.3850193,35.2012341],[33.3862054,35.2017784],[33.3871657,35.2016507],[33.3881951,35.2014563],[33.3883427,35.2014368],[33.3902138,35.2011893],[33.3906863,35.2011632],[33.3911712,35.2011575],[33.3945556,35.2010079],[33.3968989,35.2010304],[33.3980645,35.201018],[33.398476,35.2011926],[33.3996818,35.2015749],[33.400953,35.2017504],[33.4022538,35.2006987],[33.4028157,35.200613],[33.4034101,35.2007015],[33.4049132,35.200492],[33.4050689,35.1984749],[33.4057502,35.19698],[33.4057181,35.1966775],[33.4057008,35.1965097],[33.4058684,35.1955989],[33.406174,35.1951696],[33.4056059,35.1948974],[33.4055786,35.1937244],[33.405734,35.1934598],[33.4055895,35.1925877],[33.4051712,35.1922632],[33.4050632,35.1920612],[33.4044519,35.1913512],[33.4040665,35.1909772],[33.4042491,35.1903494],[33.4053269,35.1893237],[33.4056924,35.188125],[33.4059643,35.187082],[33.4061661,35.1866584],[33.4060989,35.1859456],[33.406351,35.1856957],[33.4066445,35.1854995],[33.4068142,35.1854104],[33.4074722,35.1851389],[33.4080354,35.1847267],[33.4094731,35.183521],[33.4102354,35.182752],[33.4110269,35.1819372],[33.4117304,35.1813411],[33.4125735,35.1800479],[33.4126247,35.1790876],[33.4128956,35.1786897],[33.4135071,35.17872],[33.4142595,35.1789075],[33.4149742,35.1790753],[33.4160739,35.1785387],[33.4163215,35.1782075],[33.4169307,35.1772809],[33.4173397,35.1767482],[33.4180105,35.1751823],[33.4182382,35.1743086],[33.4180368,35.1736965],[33.4179309,35.1723238],[33.4178694,35.1721086],[33.417854,35.1720547],[33.4175718,35.1710665],[33.4173911,35.1702872],[33.4167109,35.1694381],[33.4153469,35.1692315],[33.4143109,35.1684967],[33.4143301,35.1681571],[33.4145218,35.1677973],[33.4144469,35.1672608],[33.4143748,35.1670198],[33.4141701,35.1666605],[33.4140392,35.1658981],[33.4132897,35.164972],[33.4130118,35.1646285],[33.4111768,35.163446],[33.4121512,35.1631322],[33.4120837,35.1629653],[33.4122135,35.1618412],[33.4127687,35.1621127],[33.4132547,35.1622093],[33.4134938,35.1623426],[33.4136716,35.1625146],[33.413983,35.1623884],[33.4141666,35.162254],[33.4143657,35.1621083],[33.4146883,35.1622652],[33.4151969,35.1625118],[33.4157951,35.1627085],[33.4170151,35.1622417],[33.4179807,35.1617],[33.4194533,35.1610691],[33.4198164,35.160928],[33.4211809,35.1599764],[33.422444,35.158961],[33.423378,35.1580944],[33.423934,35.1572569],[33.4244286,35.1569227],[33.4249468,35.1564179],[33.4251565,35.1556684],[33.4263989,35.1525898],[33.4263305,35.1520761],[33.4265866,35.1515893],[33.4277706,35.1498068],[33.4278533,35.1492412],[33.4283609,35.148222],[33.4281365,35.1473127],[33.4286096,35.146007],[33.4312516,35.144405],[33.4341463,35.1429237],[33.4348023,35.1423639],[33.4351848,35.1419814],[33.4356393,35.1415317],[33.4356904,35.1412301],[33.4357695,35.1407635],[33.4359344,35.1403297],[33.4360125,35.139722],[33.4372386,35.1386281],[33.4379274,35.1381571],[33.4382243,35.1374473],[33.4389019,35.1364715],[33.4399654,35.1349093],[33.4401355,35.1342903],[33.4409778,35.1339548],[33.441481,35.1335889],[33.4415958,35.1332039],[33.4420026,35.1325224],[33.4424514,35.1312927],[33.4434442,35.1286294],[33.4445642,35.1274104],[33.4430301,35.1254976],[33.4428613,35.1252872],[33.4427745,35.1248706],[33.4431277,35.124393],[33.4435499,35.1239868],[33.4441469,35.1238964],[33.4460599,35.1241933],[33.4468992,35.1255893],[33.4483852,35.1259151],[33.4489076,35.125674],[33.4494179,35.125566],[33.4503899,35.1250165],[33.4509435,35.1243931],[33.4519135,35.1230663],[33.452748,35.121795],[33.4533629,35.1210283],[33.4540584,35.1202425],[33.4544027,35.119278],[33.4544144,35.1186572],[33.4544628,35.1182292],[33.4544743,35.1182136],[33.4548093,35.1177625],[33.4549857,35.1173283],[33.4552677,35.1169233],[33.4552814,35.116628],[33.4556259,35.1164193],[33.4558688,35.1161208],[33.4561729,35.1152634],[33.4559308,35.11375],[33.4563659,35.1130305],[33.4566838,35.1129284],[33.4575606,35.1123308],[33.4587845,35.1119841],[33.4594123,35.111324],[33.460351,35.1109027],[33.4612641,35.1104108],[33.461455,35.1100204],[33.462045,35.1091952],[33.4627286,35.1084029],[33.4631869,35.1081153],[33.4637334,35.1078575],[33.4642522,35.1076589],[33.4645487,35.1072627],[33.4646933,35.1068842],[33.4646286,35.1064987],[33.4648989,35.1058795],[33.4685223,35.0979663],[33.4689825,35.096699],[33.4696504,35.0948594],[33.4704857,35.0925589],[33.4752882,35.0791354],[33.4760318,35.0770569],[33.4762149,35.0765451],[33.4765578,35.0752085],[33.4777904,35.0704038],[33.4779555,35.0697601],[33.4789769,35.0657784],[33.4791299,35.0651818],[33.4779377,35.0572911],[33.4780652,35.0563836],[33.4781204,35.0559902],[33.4774293,35.0539861],[33.4773526,35.0537638],[33.4772184,35.0527486],[33.4770752,35.0459821],[33.4762355,35.0446283],[33.4735621,35.041222],[33.4704128,35.0358754],[33.4669582,35.0315815],[33.4579372,35.0246655],[33.4571709,35.0241166],[33.4542964,35.0240933],[33.4502605,35.0227802],[33.4502195,35.0224905],[33.4523699,35.0210879],[33.4527125,35.019803],[33.4516926,35.0188466],[33.4510242,35.0176788],[33.4493958,35.0076905],[33.4492104,35.0065535],[33.450206,35.005644],[33.4566102,35.0031624],[33.4576325,35.0030647],[33.4585235,35.0030286],[33.4589844,35.0032932],[33.4591227,35.0035704],[33.4595294,35.0043834],[33.4603799,35.0047548],[33.4632454,35.006006],[33.4635265,35.0060976],[33.4637506,35.006116],[33.4645326,35.0060195],[33.4653719,35.0060787],[33.4672888,35.0061335],[33.471226,35.0062196],[33.4724598,35.0063954],[33.4726958,35.0064481],[33.4757182,35.0076954],[33.4774747,35.0105329],[33.4771609,35.012367],[33.4782834,35.0143385],[33.4783285,35.019374],[33.4793062,35.0273717],[33.4847434,35.0447989],[33.4849911,35.0479251],[33.4848728,35.0483782],[33.4845763,35.0495142],[33.4841567,35.0536637],[33.4845217,35.0572165],[33.4849064,35.0609613],[33.4849702,35.0615823],[33.4861828,35.0619828],[33.4864557,35.0622492],[33.4868784,35.0626616],[33.4872609,35.0630349],[33.4877899,35.0641576],[33.4879375,35.0651035],[33.4924664,35.0684644],[33.4929182,35.0687996],[33.4962413,35.0701431],[33.4982846,35.0706269],[33.5020892,35.0714675],[33.5045106,35.0715228],[33.5088951,35.0706464],[33.5095418,35.0705736],[33.5091371,35.0697084],[33.5086056,35.0678965],[33.5085068,35.0677551],[33.5083554,35.0676316],[33.5082102,35.0672471],[33.5091641,35.0670756],[33.5095741,35.0681341],[33.5095033,35.0682247],[33.5096017,35.0688755],[33.5097028,35.0700793],[33.5101094,35.0704067],[33.5116587,35.0702938],[33.5128174,35.0705045],[33.5137121,35.0710045],[33.514298,35.071444],[33.5147065,35.0720923],[33.515038,35.0729144],[33.5155981,35.0733828],[33.5164294,35.0735826],[33.5179234,35.0734244],[33.5193785,35.0736087],[33.5208571,35.0743857],[33.5224215,35.0771998],[33.5259967,35.0797323],[33.5274344,35.0801802],[33.5285394,35.0804084],[33.5303188,35.0800355],[33.5321694,35.0807084],[33.5335892,35.0809708],[33.5340081,35.081104],[33.5350728,35.0820853],[33.5359393,35.0825416],[33.537013,35.0819521],[33.5378966,35.0813624],[33.5383194,35.0808976],[33.5386874,35.0804239],[33.5391522,35.0796447],[33.5396357,35.0788808],[33.5397576,35.0786292],[33.53986,35.0780716],[33.5400875,35.0777051],[33.5403782,35.0774523],[33.5407114,35.0772574],[33.5413408,35.0767102],[33.5417946,35.0761575],[33.5422171,35.0751728],[33.5424081,35.074963],[33.5442672,35.0748712],[33.5455219,35.0743881],[33.5479781,35.0744148],[33.5489126,35.0745565],[33.5492158,35.0745636],[33.5493902,35.0745984],[33.5514961,35.0744717],[33.5522133,35.0745719],[33.5540226,35.0753628],[33.5542456,35.0753586],[33.5558551,35.0747543],[33.5567528,35.0743195],[33.5573508,35.0739087],[33.5573835,35.073797],[33.5573207,35.0735037],[33.5573385,35.0733343],[33.5575049,35.0730645],[33.5576184,35.0728146],[33.5579291,35.0724754],[33.5581716,35.0720606],[33.5585488,35.0711776],[33.5585559,35.0710019],[33.5583422,35.0706083],[33.5583855,35.0704627],[33.558592,35.0701989],[33.5590413,35.0699086],[33.5613911,35.0670706],[33.5630513,35.0661395],[33.5675602,35.0644274],[33.56903,35.063277],[33.5695879,35.0621179],[33.570178,35.0589827],[33.5698455,35.0583327],[33.5680816,35.055918],[33.5671418,35.0547846],[33.5667814,35.0543038],[33.5663849,35.0541524],[33.5658171,35.0533751],[33.5650948,35.0522191],[33.5650182,35.051868],[33.5654091,35.0512759],[33.5657899,35.0499892],[33.5668199,35.0489439],[33.5692296,35.0480485],[33.577302,35.0460278],[33.5785573,35.0452285],[33.5804241,35.0433312],[33.5860138,35.0389303],[33.586435,35.0385324],[33.5886105,35.0382814],[33.5914246,35.0384073],[33.5935562,35.0390534],[33.5953016,35.0404161],[33.5976266,35.0427608],[33.5996823,35.0458346],[33.6003098,35.0470781],[33.6019447,35.0493648],[33.6067876,35.0512012],[33.6084864,35.0517065],[33.6094493,35.0517299],[33.616451,35.0519003],[33.6185866,35.0511184],[33.6188382,35.0510263],[33.6212518,35.0501426],[33.6226421,35.0488534],[33.6247098,35.046936],[33.6259493,35.0445858],[33.6284603,35.0433417],[33.6292239,35.0409554],[33.6301908,35.0402868],[33.6328119,35.0397784],[33.6386888,35.0386355],[33.644907,35.0390728],[33.6501468,35.0399337],[33.6520082,35.0412374],[33.6600881,35.0384813],[33.6612555,35.0368888],[33.6615515,35.0364621],[33.662281,35.0363391],[33.6624194,35.035715],[33.6628497,35.033774],[33.6644475,35.0335053],[33.6649123,35.0332929],[33.6659396,35.0327813],[33.6670017,35.0325441],[33.6708105,35.0310067],[33.6819255,35.0263065],[33.6867213,35.0252785],[33.6895537,35.0244526],[33.6902296,35.0244966],[33.6914742,35.0239431],[33.6915171,35.0229502],[33.6964789,35.0205223],[33.6958977,35.020432],[33.6957221,35.0182151],[33.6963397,35.0175575],[33.6976196,35.017461],[33.6973563,35.0158396],[33.6981242,35.0139947],[33.70124,35.0122854],[33.7066564,35.0101199],[33.707868,35.0096355],[33.7099053,35.0086888],[33.7117426,35.0085185],[33.7135283,35.0035265],[33.7102193,34.9964276],[33.705376,34.9982383],[33.7027962,34.9988618],[33.7014823,34.9996941],[33.7006627,35.0003872],[33.6985606,35.0021647],[33.6985928,35.0024722],[33.6982066,35.003272],[33.6978203,35.0033423],[33.6970586,35.0032632],[33.695379,35.0034956],[33.6945373,35.0038081],[33.693915,35.0037817],[33.6936468,35.0037026],[33.6922306,35.0033159],[33.6887437,35.0032983],[33.6853336,35.0035844],[33.683878,35.0037946],[33.680949,35.0042867],[33.6788611,35.0047608],[33.6774771,35.0057978],[33.6770265,35.0062812],[33.6765437,35.0063075],[33.6764901,35.0065975],[33.6772893,35.0074016],[33.6772947,35.0078014],[33.6771928,35.0084737],[33.6759483,35.0086099],[33.6754762,35.008399],[33.6743443,35.0083551],[33.6737328,35.0086011],[33.6729817,35.008566],[33.672338,35.0084078],[33.6711608,35.0078149],[33.6707501,35.0076081],[33.668776,35.0067996],[33.6650488,35.0072043],[33.6598003,35.0064903],[33.6575912,35.0075466],[33.6542599,35.0080563],[33.6481123,35.0116152],[33.6459773,35.0158945],[33.6457627,35.0163954],[33.6451297,35.0168171],[33.6437135,35.0174937],[33.6405914,35.0186623],[33.6390679,35.0196288],[33.6388104,35.0198134],[33.637877,35.020033],[33.6358063,35.0202],[33.633446,35.0206745],[33.6319654,35.0208238],[33.6309312,35.0208242],[33.6294334,35.0209204],[33.6268692,35.0218166],[33.6261611,35.0215794],[33.6253994,35.0214915],[33.6244147,35.0212858],[33.6235983,35.0212507],[33.6224932,35.0213034],[33.6218065,35.0218569],[33.62068,35.0224192],[33.6197788,35.0227794],[33.61803,35.0229464],[33.6154229,35.0228937],[33.613717,35.0229727],[33.6119038,35.023289],[33.6106378,35.0240798],[33.6102838,35.0245103],[33.6098332,35.0247124],[33.6092109,35.0246245],[33.6084813,35.0245806],[33.6076874,35.0245806],[33.6069471,35.0242819],[33.6065823,35.0237547],[33.6061532,35.0234999],[33.6037177,35.0225598],[33.6012179,35.0212682],[33.5976345,35.0197218],[33.5960681,35.0188695],[33.5931782,35.0178349],[33.5921032,35.0174501],[33.5916156,35.0174285],[33.5911022,35.0175639],[33.590297,35.0179346],[33.5896147,35.0182127],[33.5891984,35.0185198],[33.5888636,35.0188783],[33.5882561,35.0192247],[33.5872905,35.0197606],[33.5869901,35.0200682],[33.5866468,35.0201033],[33.5860138,35.0200857],[33.5855589,35.0200774],[33.5849516,35.0201648],[33.584501,35.020279],[33.5835676,35.0204635],[33.5832779,35.0205251],[33.5831277,35.0236178],[33.5833423,35.0343097],[33.583117,35.035276],[33.582072,35.036682],[33.579834,35.0378938],[33.578965,35.0384999],[33.5774951,35.0391236],[33.5755961,35.039352],[33.5737937,35.0386932],[33.5716479,35.03756],[33.5708647,35.0365058],[33.5698712,35.0351722],[33.5691679,35.0346012],[33.566689,35.0341281],[33.5661655,35.0337574],[33.5660981,35.0330952],[33.5662816,35.0321983],[33.5666638,35.0316321],[33.5676187,35.0309688],[33.5682726,35.029763],[33.569651,35.0265146],[33.5700158,35.0253197],[33.5699527,35.0234219],[33.569438,35.0229558],[33.5683316,35.0223017],[33.5664482,35.0217306],[33.5642874,35.0209921],[33.5629127,35.0202675],[33.5600884,35.0191863],[33.5586271,35.0183788],[33.5552523,35.016911],[33.552307,35.0157518],[33.5503646,35.0149166],[33.5473143,35.0143143],[33.5452472,35.0141212],[33.543747,35.014055],[33.5421286,35.0140963],[33.5410356,35.0140594],[33.5389676,35.0138721],[33.5366966,35.0138455],[33.5350296,35.0139057],[33.5320298,35.013829],[33.5305752,35.0138547],[33.5292038,35.0137552],[33.5274416,35.0138892],[33.5263843,35.0141071],[33.5253044,35.0146642],[33.5248688,35.0152411],[33.5244912,35.0161035],[33.5245411,35.0167656],[33.524607,35.0171254],[33.5244563,35.0174505],[33.5239536,35.0176421],[33.5234027,35.0174057],[33.522722,35.0170002],[33.5215203,35.0161215],[33.5211127,35.0159695],[33.5204646,35.0161391],[33.5099847,35.0220972],[33.5085208,35.0231341],[33.5074425,35.0238979],[33.506559,35.0247774],[33.5058686,35.0261721],[33.50547,35.0275967],[33.5051562,35.0291996],[33.5046434,35.0305574],[33.5046112,35.03119],[33.5047925,35.0321256],[33.5049727,35.0336463],[33.5052474,35.0341716],[33.5052109,35.0346592],[33.5055102,35.0373244],[33.505955,35.0398605],[33.5068336,35.0421962],[33.5074967,35.0431844],[33.5082794,35.0441133],[33.5083089,35.044765],[33.5078695,35.0455174],[33.5071947,35.0460264],[33.506074,35.0461717],[33.5034085,35.0457703],[33.5001517,35.04552],[33.4986154,35.0455037],[33.4977541,35.0460107],[33.4955483,35.0469852],[33.4944325,35.0476264],[33.4924583,35.0480392],[33.4908383,35.0479075],[33.4903984,35.0476703],[33.4901838,35.0473014],[33.4900765,35.0466778],[33.4905915,35.0444468],[33.4910958,35.042444],[33.4928851,35.040767],[33.4944261,35.0392614],[33.4937057,35.0355519],[33.4935505,35.0344086],[33.4928665,35.0339286],[33.4918929,35.0334755],[33.4906516,35.033184],[33.489841,35.0332227],[33.490098,35.0281864],[33.4954732,35.0095326],[33.4952693,35.0084869],[33.4940462,35.0061054],[33.4933596,35.0054902],[33.4916494,35.0046119],[33.490952,35.0043482],[33.4896474,35.0041193],[33.4867721,35.0039523],[33.4822123,35.0036623],[33.4816008,35.0035832],[33.4807317,35.0035393],[33.4800022,35.0032405],[33.479219,35.0026165],[33.478071,35.0016059],[33.4772156,35.0009231],[33.4762726,35.0003162],[33.4744709,35.0001616],[33.472935,35.0001705],[33.4721626,35.000175],[33.4714406,35.0003195],[33.4709199,35.0006012],[33.4708467,35.0010582],[33.4708502,35.0016866],[33.4702695,35.0019381],[33.4697615,35.0018254],[33.4689617,35.0011743],[33.46875,35.001002],[33.4682659,35.0011784],[33.4677742,35.0015721],[33.4676359,35.0027411],[33.4675645,35.0033447],[33.4661513,35.0038645],[33.4652822,35.0038996],[33.464881,35.0038385],[33.4644883,35.0040138],[33.4640055,35.0044884],[33.4632223,35.0046114],[33.4622567,35.0044708],[33.4615593,35.0041193],[33.4607796,35.0037124],[33.4602183,35.0031594],[33.4595959,35.0025462],[33.4590273,35.0020805],[33.4585659,35.0017729],[33.4556372,35.0008613],[33.4533065,35.0003484],[33.4523181,35.0001309],[33.451336,34.9975062],[33.4511451,34.9956101],[33.4515532,34.9946515],[33.4521246,34.9937441],[33.452115,34.9931782],[33.4519358,34.9924161],[33.4527212,34.9913323],[33.451998,34.9910345],[33.4511376,34.9906802],[33.4461927,34.9889424],[33.4436649,34.9879026],[33.4429826,34.9880222],[33.4424547,34.9882243],[33.4407338,34.9888967],[33.4397489,34.9895929],[33.4387018,34.9905228],[33.4348383,34.9950115],[33.434362,34.9956892],[33.4336582,34.9967289],[33.4321078,34.9980349],[33.4309148,34.9989982],[33.4300629,35.0001574],[33.4292658,35.0026023],[33.4285963,35.0052405],[33.4278249,35.0087345],[33.4281282,35.0089175],[33.4284034,35.0090234],[33.4344475,35.0084254],[33.4380739,35.0078981],[33.4389751,35.0078454],[33.4403763,35.0083907],[33.4407733,35.0086367],[33.4415608,35.010341],[33.4415286,35.0122391],[33.4409492,35.0149807],[33.4396617,35.0179067],[33.4395545,35.0183899],[33.4406595,35.0189435],[33.4397368,35.0234684],[33.4406381,35.0265435],[33.4406917,35.0277471],[33.4407668,35.0283182],[33.4409385,35.0288365],[33.4421401,35.0306814],[33.4422045,35.031437],[33.4423654,35.0318587],[33.4431121,35.0328342],[33.4431593,35.0332379],[33.4430091,35.0334927],[33.4534805,35.040248],[33.4639304,35.0485399],[33.4645805,35.0484701],[33.4652393,35.0485223],[33.4653788,35.0487068],[33.4652822,35.0494182],[33.465411,35.0499628],[33.4656577,35.0504371],[33.4615915,35.0566992],[33.4602075,35.0602209],[33.4563451,35.0702318],[33.4469788,35.0878534],[33.4462814,35.0950432],[33.4499185,35.0976942],[33.4515922,35.0997482],[33.4539418,35.1031978],[33.4568064,35.1081745],[33.4568493,35.1084466],[33.4567421,35.1087099],[33.4542852,35.1114921],[33.4537916,35.1126418],[33.4534268,35.1128963],[33.4528475,35.1131245],[33.4523861,35.113853],[33.4519677,35.1140197],[33.4507017,35.1139056],[33.44891,35.1148447],[33.4473007,35.115538],[33.4466462,35.1159856],[33.4457085,35.1171093],[33.4450905,35.1177847],[33.4447794,35.1184341],[33.4437172,35.1198119],[33.4427517,35.1213476],[33.4422259,35.1220672],[33.4395545,35.1229008],[33.4387498,35.1230412],[33.4376447,35.1234361],[33.4351782,35.1241887],[33.4333999,35.1249082],[33.4303923,35.1259174],[33.4285169,35.1272468],[33.4280115,35.127634],[33.4270237,35.1283908],[33.4259186,35.129379],[33.424783,35.130464],[33.4233429,35.1314255],[33.4230884,35.1321064],[33.4229814,35.1332176],[33.4225535,35.1336162],[33.4216571,35.133793],[33.4208951,35.1337923],[33.4202045,35.1341124],[33.4199894,35.1345905],[33.4195737,35.1349992],[33.4195175,35.1350545],[33.4188204,35.1352973],[33.4180628,35.1381132],[33.4174487,35.1387265],[33.4167586,35.139371],[33.4164419,35.1396991],[33.416095,35.1400934],[33.415835,35.1404507],[33.4156457,35.1407554],[33.4155481,35.141045],[33.4154939,35.1413494],[33.4154866,35.1417011],[33.4154722,35.1420292],[33.4154902,35.1424164],[33.4155352,35.1427563],[33.4156322,35.1430779],[33.4157589,35.1433196],[33.4159709,35.1436422],[33.4161222,35.1438148],[33.4163906,35.1440699],[33.416918,35.1444851],[33.4171661,35.1447254],[33.4174169,35.144997],[33.4177195,35.1453946],[33.4180404,35.1458855],[33.4183246,35.1464677],[33.4184508,35.1468186],[33.4185317,35.1476498],[33.4185457,35.1479794],[33.4185521,35.1484255],[33.4185906,35.1489618],[33.418668,35.1498378],[33.4184925,35.1502002],[33.4172318,35.1502589],[33.4161503,35.151033],[33.4157855,35.1514269],[33.4158917,35.1516945],[33.4161562,35.1519282],[33.4183234,35.1519699],[33.418825,35.1522247],[33.4194274,35.1530796],[33.4193942,35.1534125],[33.4192665,35.1536406],[33.4194092,35.1536673],[33.4215259,35.1535477],[33.4212802,35.1553464],[33.4178995,35.1553284],[33.4171496,35.156171],[33.4163449,35.1568464],[33.4155617,35.1571709],[33.41377,35.1567499],[33.4117412,35.1564951],[33.4097038,35.1559867],[33.4090279,35.1561008],[33.4064315,35.1576271],[33.4061311,35.1581972],[33.4056161,35.1582674],[33.4050475,35.1584516],[33.4044788,35.1587761],[33.4039424,35.1591796],[33.4037707,35.1594427],[33.4034274,35.1599427],[33.4029661,35.1604076],[33.4025262,35.1606532],[33.4018073,35.1612233],[33.4015123,35.1616356],[33.4020219,35.1620697],[33.4026066,35.1630389],[33.4025991,35.1635041],[33.4024779,35.1638371],[33.4013353,35.1640915],[33.4009866,35.1643327],[33.4009705,35.1648501],[33.4002785,35.165201],[33.4002409,35.1656614],[33.4001122,35.1663982],[33.4002195,35.1676129],[33.4002624,35.1679944],[33.4002495,35.1680638],[33.4002034,35.1688177],[33.4001921,35.1696685],[33.400198,35.1699765],[33.4001949,35.1701377],[33.4001873,35.1705246],[33.3996723,35.1708974],[33.3996026,35.1711999],[33.3996026,35.1723094],[33.3995972,35.1733705],[33.3998386,35.1739932],[33.4004072,35.1742431],[33.4009319,35.17465],[33.401346,35.175123],[33.4023223,35.1762382],[33.4032504,35.1760891],[33.406748,35.1762075],[33.4066925,35.1778808],[33.4061434,35.1779413],[33.4016215,35.18321],[33.401041,35.1835649],[33.4005014,35.1841526],[33.4001819,35.1846132],[33.3999011,35.1853511],[33.3998869,35.1858228],[33.3997689,35.1862481],[33.3994577,35.1868049],[33.3990983,35.1871819],[33.398818,35.1870372],[33.3983516,35.1872079],[33.3979439,35.1874332],[33.3969058,35.1878151],[33.3964296,35.1880774],[33.3959081,35.1884452],[33.3957774,35.1887483],[33.3956008,35.1888868],[33.3956236,35.1889897],[33.395514,35.1891259],[33.3950115,35.1897964],[33.3948604,35.1900164],[33.3943776,35.1902916],[33.3941647,35.1903271],[33.3938158,35.1905439],[33.393589,35.19075],[33.393311,35.1910397],[33.3931,35.1912987],[33.3930204,35.1914871],[33.3929721,35.1918203],[33.392844,35.1921318],[33.3926837,35.1922833],[33.3922374,35.1922968],[33.3917385,35.1923611],[33.3913536,35.1926213],[33.3911096,35.192648],[33.3910302,35.1928242],[33.3908049,35.1929732],[33.390424,35.1929426],[33.3899466,35.1932494],[33.3897267,35.193587],[33.3897589,35.194512],[33.3894692,35.1951783],[33.3887343,35.1961515],[33.38725,35.1954814],[33.3866017,35.1952736],[33.3864415,35.1951943],[33.3861499,35.1951741],[33.3860744,35.1951352],[33.3860285,35.1950573],[33.3860055,35.1949303],[33.3859985,35.1947457],[33.3859397,35.1946566],[33.385829,35.1945625],[33.3855684,35.1945635],[33.3853772,35.1945221],[33.3851854,35.1944856],[33.3849849,35.1944395],[33.3848828,35.1944221],[33.3848299,35.1943355],[33.3848687,35.1942865],[33.3848722,35.1941422],[33.3848554,35.1939565],[33.3847275,35.1937153],[33.3846357,35.1936056],[33.384498,35.1934614],[33.3842862,35.1933402],[33.3841614,35.1933949],[33.3839384,35.1934801],[33.3838572,35.1934138],[33.3837407,35.193294],[33.3836126,35.193253],[33.3834644,35.193295],[33.383273,35.1933633],[33.3830947,35.1933388],[33.3828639,35.193307],[33.3825687,35.1932883],[33.382378,35.1933243],[33.3822597,35.1932839],[33.3821385,35.1932619],[33.3820479,35.1932392],[33.3819261,35.1931815],[33.3816971,35.1930801],[33.3813324,35.1928365],[33.3808436,35.1922055],[33.3807495,35.1921735],[33.3798862,35.1916612],[33.3789917,35.191132],[33.3785871,35.1908926],[33.3784189,35.1908732],[33.3783995,35.1908692],[33.3783862,35.190845],[33.3783724,35.1907566],[33.378454,35.1907425],[33.3783959,35.1906469],[33.3782118,35.1906837],[33.3781236,35.1907014],[33.3778392,35.1907231],[33.3776706,35.190701],[33.3774955,35.1905356],[33.3773543,35.1904589],[33.3772117,35.1904188],[33.3770916,35.1904432],[33.3766024,35.1904363],[33.376448,35.1904421],[33.3763666,35.1905301],[33.3763206,35.1905557],[33.3762075,35.1906103],[33.3761527,35.1906103],[33.3761501,35.1906009],[33.376015,35.1905988],[33.3760056,35.1906065],[33.3759538,35.1906073],[33.3759484,35.1905962],[33.3758626,35.1905983],[33.3758336,35.1906116],[33.3758083,35.1906103],[33.3757694,35.190624],[33.3757404,35.1906204],[33.3757249,35.1906317],[33.3756954,35.1906321],[33.3756748,35.1906257],[33.3756641,35.1906129],[33.3755233,35.1905945],[33.3755204,35.1906026],[33.3753552,35.1905979],[33.3753352,35.1906125],[33.3752784,35.1906421],[33.3751768,35.1906106],[33.3750462,35.1906031],[33.374981,35.1905559],[33.3748675,35.1905574],[33.3748518,35.1905328],[33.3748119,35.1905352],[33.3748101,35.1905431],[33.3747713,35.1905406],[33.3747434,35.1905381],[33.3747417,35.1904989],[33.3747314,35.1904989],[33.374732,35.1904523],[33.3747653,35.1904493],[33.3747369,35.1904099],[33.3747092,35.1903921],[33.3746939,35.1903688],[33.37466,35.1903482],[33.3746267,35.1903398],[33.3746014,35.1903179],[33.3745663,35.1903169],[33.3745333,35.1902615],[33.3744937,35.190276],[33.3744843,35.1902409],[33.3744973,35.1902255],[33.3744826,35.1902176],[33.3744846,35.190203],[33.3744662,35.1901269],[33.3744687,35.1900673],[33.3744027,35.1899406],[33.3743345,35.1897456],[33.3743486,35.1896705],[33.3743914,35.1896704],[33.3744021,35.1896781],[33.3744979,35.1896657],[33.3745373,35.1896798],[33.3745838,35.1896592],[33.3745057,35.1894806],[33.3744652,35.1892554],[33.3744906,35.1892097],[33.3745795,35.1891918],[33.3745221,35.1890155],[33.3746276,35.1889826],[33.3745897,35.1888862],[33.374617,35.1888729],[33.3746153,35.1888066],[33.3745952,35.1888002],[33.3745739,35.1887482],[33.3748579,35.1886952],[33.3748282,35.1884579],[33.3749274,35.1883697],[33.3750478,35.1882066],[33.3752061,35.1881181],[33.3750224,35.1879247],[33.3749617,35.1877562],[33.3751206,35.1875137],[33.3750992,35.1872419],[33.375062,35.1871705],[33.3747748,35.1870138],[33.3747184,35.1869831],[33.3745355,35.1868776],[33.3740657,35.1867202],[33.3738367,35.1870132],[33.3736761,35.1870125],[33.372347,35.1865823],[33.3721857,35.1865123],[33.3721903,35.186368],[33.3725762,35.1857331],[33.3733904,35.185964],[33.3734441,35.1858438],[33.3726347,35.1856201],[33.3734072,35.1847103],[33.3731415,35.1847114],[33.3731384,35.1846402],[33.3731272,35.184381],[33.3731054,35.1843797],[33.3729105,35.1843729],[33.3728809,35.1843702],[33.3728707,35.1842732],[33.3728492,35.1840701],[33.3728113,35.1836109],[33.3727036,35.1836028],[33.3727356,35.1833715],[33.3732377,35.1834038],[33.3733105,35.1830111],[33.3734639,35.1830108],[33.3734805,35.1828886],[33.3740324,35.1828535],[33.3740565,35.1827888],[33.3740497,35.182663],[33.3738225,35.1824694],[33.3736121,35.1824635],[33.3726401,35.1823745],[33.3726319,35.1820773],[33.3728411,35.1818663],[33.3727712,35.1813436],[33.3724307,35.1813623],[33.372426,35.1811018],[33.3725412,35.1810931],[33.3725698,35.180942],[33.3727217,35.1809275],[33.3727294,35.1808814],[33.3727708,35.1808633],[33.372765,35.1808051],[33.37274,35.1807429],[33.3726724,35.1805211],[33.3726307,35.1802285],[33.3726084,35.1799754],[33.3725805,35.1796834],[33.3728164,35.1796649],[33.3728405,35.1796046],[33.3728022,35.1795262],[33.3735004,35.179478],[33.3741814,35.179419],[33.3744447,35.179387],[33.3745422,35.1793194],[33.3746163,35.179206],[33.3746352,35.179041],[33.3746155,35.1789217],[33.3745216,35.1788289],[33.3742867,35.1785665],[33.374155,35.1785307],[33.3741052,35.1785015],[33.3740257,35.1784867],[33.3739535,35.1785047],[33.3737962,35.178493],[33.3737466,35.178454],[33.3736883,35.1784443],[33.3736152,35.1784449],[33.3734713,35.1784139],[33.3734616,35.178366],[33.3731726,35.1782634],[33.3732442,35.1779967],[33.372936,35.1779292],[33.3724566,35.1778497],[33.3723613,35.1774489],[33.3717508,35.177562],[33.3717267,35.1775091],[33.3716779,35.1774818],[33.3716026,35.1774893],[33.3715619,35.1775199],[33.371524,35.1776864],[33.3712792,35.1776573],[33.3713188,35.1774057],[33.3711432,35.1773864],[33.3711077,35.1773986],[33.3710559,35.177454],[33.3710012,35.177445],[33.3709448,35.1774325],[33.3708343,35.1775781],[33.3708088,35.1776757],[33.3707392,35.177663],[33.3707165,35.1777065],[33.3702744,35.1775836],[33.3698609,35.1774375],[33.3697924,35.1774599],[33.3697285,35.1776602],[33.3696737,35.1777307],[33.3691252,35.1778286],[33.3687692,35.177368],[33.3684684,35.1773279],[33.368435,35.1771627],[33.3683912,35.1770388],[33.3683717,35.1769038],[33.3683967,35.1768557],[33.3682266,35.1767439],[33.3681086,35.1768029],[33.3680379,35.1768564],[33.367924,35.1767392],[33.3679665,35.176681],[33.3679964,35.1766168],[33.3679691,35.1765931],[33.3679509,35.176573],[33.3678889,35.1765049],[33.3674689,35.1763693],[33.367538,35.1761274],[33.3676896,35.1760397],[33.3675999,35.1760135],[33.3674694,35.1759847],[33.3673632,35.1759612],[33.3674904,35.1757061],[33.3674438,35.1756672],[33.3670677,35.1755558],[33.3666809,35.1754532],[33.3667727,35.1752712],[33.3666567,35.1752453],[33.3666041,35.1752924],[33.3665463,35.1754107],[33.3661863,35.1752857],[33.3662424,35.1751816],[33.3662689,35.1751159],[33.3663004,35.1750326],[33.3662418,35.1750322],[33.3662163,35.1750976],[33.3661503,35.1752671],[33.3657004,35.1751593],[33.3656992,35.1750618],[33.365697,35.1746784],[33.3654782,35.1746612],[33.3651367,35.1746739],[33.3649695,35.1746359],[33.3649604,35.174635],[33.3647917,35.1746182],[33.3647255,35.1745767],[33.364721,35.1745221],[33.3646706,35.1742782],[33.3644187,35.1743833],[33.3642693,35.1744008],[33.3641492,35.1744033],[33.3641554,35.1743466],[33.3640585,35.1743315],[33.3639553,35.1743097],[33.363843,35.1742878],[33.3638564,35.1745017],[33.3635736,35.1745515],[33.3635449,35.174453],[33.3634242,35.1744763],[33.3634259,35.1745467],[33.3630537,35.1745427],[33.362979,35.1743133],[33.3623092,35.1742892],[33.3623104,35.1746843],[33.3618313,35.1745769],[33.361822,35.1747488],[33.3615091,35.1747503],[33.361472,35.1745437],[33.3614414,35.1745421],[33.3609068,35.1745816],[33.3609107,35.1747834],[33.3607082,35.1747771],[33.3604714,35.1747771],[33.3602495,35.1740929],[33.3600168,35.1741108],[33.3598039,35.1741103],[33.3596152,35.1741321],[33.3595427,35.1741229],[33.3594314,35.1742261],[33.3593238,35.1739482],[33.3589227,35.1738127],[33.3588844,35.1737321],[33.3588369,35.1737371],[33.3587484,35.173797],[33.358718,35.1742477],[33.3581682,35.1741505],[33.3580673,35.1742918],[33.3576519,35.1741804],[33.3571783,35.1740513],[33.3569938,35.1740176],[33.3568462,35.173987],[33.3565396,35.1739163],[33.3562619,35.1738418],[33.3561344,35.1738079],[33.3560571,35.1738119],[33.3559469,35.1738988],[33.3558399,35.1739858],[33.355659,35.1741477],[33.3554174,35.1743439],[33.3551172,35.1746296],[33.3548897,35.1749679],[33.3547806,35.175255],[33.3546983,35.1754494],[33.3546465,35.1755861],[33.3548191,35.1755836],[33.3551331,35.1756344],[33.3553429,35.1757325],[33.3554439,35.1760388],[33.3556117,35.1770128],[33.3556728,35.1770152],[33.3557433,35.1775483],[33.3557321,35.1777343],[33.3556677,35.1779405],[33.3554501,35.1779365],[33.3553278,35.1778942],[33.3552964,35.1778183],[33.3551352,35.1773607],[33.3543614,35.1774188],[33.3542978,35.1771874],[33.3542617,35.1771501],[33.3538366,35.1769764],[33.3531897,35.1777274],[33.3529586,35.1776029],[33.351977,35.1773578],[33.3518484,35.1772747],[33.3518189,35.1770748],[33.3516495,35.1770133],[33.3502557,35.1765631],[33.3498016,35.1764588],[33.3495083,35.1764435],[33.3491688,35.1767658],[33.3490246,35.1769844],[33.3489362,35.1773479],[33.3489203,35.1776228],[33.3490919,35.1779316],[33.3490874,35.1780852],[33.3490435,35.1782053],[33.3488977,35.1783879],[33.3485311,35.1787731],[33.3481963,35.1791077],[33.347815,35.1790577],[33.3477776,35.1791846],[33.3478159,35.1796062],[33.3477908,35.1803],[33.3478016,35.1819142],[33.3478911,35.1819243],[33.3478863,35.1823997],[33.3477304,35.1824108],[33.3477316,35.1825925],[33.3475074,35.1826056],[33.3475491,35.1818126],[33.3475508,35.1813013],[33.3474688,35.1812398],[33.3473149,35.1812136],[33.3472211,35.181231],[33.3471166,35.1813037],[33.3470326,35.1814326],[33.346696,35.1812396],[33.3464983,35.1815067],[33.3462781,35.181706],[33.3459131,35.182034],[33.3458356,35.1819173],[33.345811,35.1817723],[33.3455321,35.1815252],[33.3454567,35.1813941],[33.3452987,35.1812969],[33.3417947,35.1812514],[33.3417502,35.1813106],[33.3415734,35.1817377],[33.3400955,35.181261],[33.3396534,35.1811305],[33.3380145,35.1806464],[33.3378069,35.1805851],[33.3377281,35.1801821],[33.3369618,35.1801495],[33.3365034,35.1801461],[33.3364489,35.1803383],[33.3364961,35.1804633],[33.3368091,35.1808006],[33.3369351,35.1810161],[33.3370167,35.181219],[33.3369821,35.1813861],[33.3368258,35.1815486],[33.336667,35.1815927],[33.3367584,35.1817839],[33.3362492,35.1818982],[33.3358641,35.1819854],[33.3355052,35.1818739],[33.3351788,35.1818146],[33.3350433,35.1814588],[33.3348637,35.1814324],[33.3346709,35.1814277],[33.3342445,35.1813516],[33.3339939,35.1812272],[33.3338743,35.1811134],[33.3336361,35.1811854],[33.3334432,35.1813085],[33.3326399,35.1814398],[33.3318053,35.1815739],[33.3315444,35.181603],[33.3313254,35.1816212],[33.3309352,35.1817055],[33.3308051,35.1817044],[33.3305042,35.1817455],[33.3303248,35.1815692],[33.3301987,35.1815616],[33.329942,35.1814888],[33.3286342,35.1816706],[33.3280992,35.181669],[33.3281008,35.1814972],[33.3263238,35.181507],[33.32593,35.1815083],[33.3255213,35.1813751],[33.3253588,35.181406],[33.3248657,35.1814228],[33.3247971,35.1810626],[33.3246716,35.180945],[33.3245796,35.1803119],[33.3237751,35.1803192],[33.3237439,35.180518],[33.3234984,35.1804984],[33.3234828,35.1806939],[33.3231824,35.1806788],[33.3229816,35.1806818],[33.3225564,35.1806529],[33.3223831,35.1807457],[33.3218486,35.1803785],[33.3215447,35.1801697],[33.3213634,35.1801722],[33.3210174,35.1805227],[33.3197538,35.1784196],[33.3200595,35.1782868],[33.3199724,35.1780965],[33.3201011,35.1779371],[33.3202441,35.1779075],[33.3202317,35.1778198],[33.3198114,35.1776302],[33.3198592,35.1774179],[33.3196591,35.1772092],[33.3196218,35.1769021],[33.3205839,35.1765805],[33.3213017,35.1763342],[33.3217477,35.1761652],[33.321825,35.1761027],[33.3218456,35.1760034],[33.3218588,35.17586],[33.3216254,35.1750203],[33.3216694,35.1746917],[33.3216485,35.1745663],[33.3213331,35.1743205],[33.3212386,35.174183],[33.3212437,35.1739592],[33.321299,35.1738496],[33.3214774,35.1736643],[33.3217139,35.173497],[33.3218097,35.1734312],[33.321792,35.1730853],[33.3217413,35.1720094],[33.3215259,35.1719735],[33.3204326,35.1719469],[33.3184837,35.1719925],[33.3177059,35.172191],[33.3175104,35.1721381],[33.3174026,35.1718884],[33.3171314,35.1717095],[33.316828,35.1717286],[33.3164501,35.1718612],[33.3163968,35.1716467],[33.3163726,35.1715014],[33.3162218,35.1714742],[33.3157254,35.1715953],[33.3156412,35.1714777],[33.3154118,35.1709619],[33.3153507,35.1702893],[33.3148985,35.1700637],[33.3153338,35.1692512],[33.3154183,35.1691455],[33.3149671,35.1689995],[33.3144578,35.1688346],[33.3139983,35.1687675],[33.3138371,35.1678115],[33.3134048,35.1677723],[33.3130172,35.1676911],[33.3129227,35.1673676],[33.3130722,35.1671594],[33.3132881,35.1669171],[33.3139676,35.1668471],[33.3139548,35.1664367],[33.313936,35.1653703],[33.3138375,35.1652095],[33.3137679,35.1651122],[33.3136876,35.1649796],[33.3135439,35.1648478],[33.3133581,35.1647045],[33.3131428,35.1646002],[33.3127699,35.1643536],[33.312413,35.1641152],[33.3121121,35.1638072],[33.3117793,35.1634247],[33.3115027,35.1630482],[33.3114311,35.1629713],[33.3114111,35.1629139],[33.3113119,35.1627771],[33.3111409,35.1625413],[33.3110044,35.162338],[33.3109069,35.16225],[33.3103821,35.1621064],[33.3099303,35.1624867],[33.3092311,35.162287],[33.3090523,35.1618889],[33.3089661,35.1617111],[33.3087717,35.1614307],[33.3086431,35.1610904],[33.30854,35.1606682],[33.3083414,35.1606044],[33.3075449,35.1606985],[33.3070561,35.1604511],[33.3065891,35.1602867],[33.3060844,35.1600072],[33.3049988,35.1598266],[33.3043443,35.1597985],[33.3038493,35.1595726],[33.3032692,35.1592009],[33.3028837,35.1589417],[33.3026727,35.158818],[33.3024292,35.1587731],[33.3022548,35.1587045],[33.3018241,35.1585987],[33.3010344,35.1573478],[33.3016658,35.156546],[33.3010634,35.1565568],[33.3006199,35.1562476],[33.3002565,35.1557266],[33.2995474,35.1551546],[33.2988428,35.15472],[33.2974831,35.153865],[33.297059,35.1535627],[33.2964629,35.1530812],[33.2956603,35.1521152],[33.2953982,35.1515309],[33.2951526,35.1508476],[33.2950573,35.1502493],[33.2951499,35.1491845],[33.2951768,35.1486917],[33.2958375,35.1481257],[33.2963788,35.1480594],[33.2973327,35.1472873],[33.2975179,35.1470554],[33.2974355,35.1468422],[33.2973779,35.1466626],[33.2972727,35.1465287],[33.296626,35.1457864],[33.29498,35.1444986],[33.2939892,35.1434609],[33.2935258,35.142535],[33.2931147,35.1416583],[33.2927327,35.1411607],[33.2924292,35.1404173],[33.2925438,35.1391934],[33.2927999,35.1381901],[33.2931879,35.1376797],[33.2936058,35.1372637],[33.2941555,35.1364752],[33.293659,35.1361015],[33.2929176,35.1354519],[33.2918165,35.1344214],[33.2895409,35.1312755],[33.2823085,35.1360362],[33.2807345,35.1368148],[33.2785365,35.1379981],[33.2759611,35.1393041],[33.2737296,35.140787],[33.2710768,35.1424781],[33.2669982,35.1444104],[33.2640096,35.1451633],[33.2602338,35.1455486],[33.2578678,35.146009],[33.2577114,35.1469676],[33.2576001,35.1472389],[33.2570755,35.147646],[33.2564607,35.1482482],[33.2562692,35.1487044],[33.2579064,35.1491601],[33.2581998,35.149311],[33.2581167,35.1495641],[33.2578206,35.1498924],[33.2545338,35.1505591],[33.2537291,35.1510927],[33.2537932,35.151696],[33.2535339,35.1524076],[33.2529827,35.1524204],[33.2505244,35.1521503],[33.2496011,35.1521073],[33.247296,35.1516236],[33.2439009,35.1509959],[33.2432245,35.1511468],[33.2427025,35.1513126],[33.242144,35.1515211],[33.241974,35.1519801],[33.2408056,35.1523547],[33.2393744,35.1529657],[33.2382334,35.1535973],[33.2379121,35.1539087],[33.2378831,35.154803],[33.2386486,35.1563951],[33.2386465,35.1575959],[33.2375741,35.1608659],[33.23694,35.1622276],[33.2357599,35.1639046],[33.2341028,35.1651904],[33.2331442,35.1653601],[33.2309705,35.1649707],[33.2294465,35.1653391],[33.2286491,35.1655137],[33.2281899,35.1659746],[33.2275985,35.1663697],[33.2264157,35.1667534],[33.2247495,35.1674375],[33.2242101,35.1678381],[33.223583,35.1684681],[33.2232906,35.1688823],[33.2222376,35.169241],[33.2201511,35.1698378],[33.2188341,35.1708251],[33.2170279,35.1719854],[33.2164311,35.1722259],[33.214173,35.1737389],[33.2127383,35.1743296],[33.2117043,35.174562],[33.2100384,35.1741213],[33.2095328,35.1733752],[33.2114752,35.1703381],[33.2112663,35.1699937],[33.2019762,35.1693249],[33.2020693,35.1696637],[33.2019582,35.1700855],[33.2019284,35.1701987],[33.2018604,35.1706493],[33.2018551,35.1706841],[33.2017989,35.1710564],[33.2012826,35.1712222],[33.2007652,35.1711722],[33.2002306,35.1712967],[33.1995804,35.171981],[33.198665,35.1734355],[33.1968092,35.1726486],[33.1967323,35.1726803],[33.1958232,35.1730553],[33.1933129,35.1731138],[33.1909695,35.173795],[33.1893556,35.1749413],[33.1888975,35.1762311],[33.1875692,35.1776022],[33.1872382,35.1788257],[33.1863443,35.1793402],[33.1848028,35.1798603],[33.1834499,35.1793429],[33.1828566,35.1794354],[33.1813192,35.1797563],[33.1799829,35.1790798],[33.1797713,35.1790639],[33.1793869,35.1790351],[33.1788451,35.1792052],[33.1779181,35.1794284],[33.1730057,35.1793867],[33.1706187,35.1792398],[33.1687337,35.1778122]]],[[[32.6284661,35.1891621],[32.6285682,35.1890753],[32.6286376,35.1890075],[32.6287438,35.1889051],[32.6288607,35.1888528],[32.6290392,35.1888194],[32.6290659,35.188812],[32.6292176,35.1887699],[32.6295713,35.1887165],[32.6300033,35.1887069],[32.6300716,35.1887037],[32.6304961,35.1886835],[32.6308188,35.1886719],[32.6311288,35.1887402],[32.6312775,35.1888204],[32.6314735,35.1889372],[32.6315798,35.1890112],[32.6318523,35.189123],[32.6318522,35.1891755],[32.6318011,35.1892244],[32.6319669,35.1893112],[32.6321375,35.1893283],[32.6322396,35.189405],[32.632317,35.1895149],[32.6323757,35.1895084],[32.6324315,35.1894803],[32.6324465,35.1893802],[32.632507,35.1893223],[32.6325697,35.1892728],[32.6326704,35.1892722],[32.6328065,35.1892472],[32.6329209,35.1891176],[32.6329549,35.1890873],[32.6330607,35.189033],[32.6330554,35.1889861],[32.6330977,35.1889413],[32.6331709,35.1889059],[32.6333403,35.1888209],[32.6334138,35.188731],[32.6336629,35.1886455],[32.6338122,35.1886109],[32.6339004,35.1885982],[32.6341386,35.1886107],[32.6348388,35.1888056],[32.6350756,35.1889267],[32.6353094,35.188638],[32.6353626,35.1882253],[32.634962,35.1872345],[32.632926,35.1869406],[32.6311509,35.1855095],[32.6302335,35.1846896],[32.6270411,35.1837764],[32.6264281,35.183129],[32.6239348,35.1791486],[32.6215648,35.1762087],[32.621459,35.1753386],[32.6210819,35.1745443],[32.6198921,35.1732624],[32.6131229,35.1682923],[32.6110271,35.1673719],[32.6062374,35.1666144],[32.6047929,35.1666136],[32.6020567,35.1674],[32.5994863,35.1691616],[32.5926501,35.1688374],[32.5905326,35.1726135],[32.5895377,35.1746752],[32.5910851,35.1756473],[32.5906125,35.1775381],[32.5904128,35.1783373],[32.5904725,35.178314],[32.5905412,35.1783357],[32.5905365,35.1784097],[32.5905024,35.1784704],[32.5906337,35.178523],[32.5907935,35.1785489],[32.5909637,35.1786187],[32.5910717,35.1786111],[32.5911126,35.1785639],[32.5911913,35.1785071],[32.5912907,35.1784845],[32.5914086,35.1784398],[32.5915337,35.1783737],[32.5916251,35.1783438],[32.592046,35.178117],[32.5924194,35.1779441],[32.5925742,35.1778688],[32.5926846,35.1778042],[32.5928772,35.1777399],[32.5929813,35.1777812],[32.5930593,35.1778813],[32.5930509,35.1779963],[32.5929843,35.1781182],[32.5929874,35.1783014],[32.5930786,35.1784787],[32.5931878,35.1785928],[32.5933395,35.178602],[32.5935172,35.1787043],[32.5935931,35.178769],[32.5936818,35.178905],[32.5937849,35.178962],[32.5939012,35.1789707],[32.5940802,35.1789732],[32.5942377,35.1790168],[32.5943647,35.1791181],[32.5945192,35.1791693],[32.5945636,35.1791212],[32.5945743,35.179048],[32.5946707,35.1790143],[32.5947735,35.1788944],[32.5949877,35.1787218],[32.5951756,35.1786078],[32.5953931,35.1785426],[32.5955169,35.1785288],[32.5957782,35.1785366],[32.5961342,35.1785008],[32.5964709,35.1785209],[32.5966798,35.178593],[32.5968151,35.1785033],[32.5969788,35.1784833],[32.5971331,35.178505],[32.5973722,35.1785302],[32.5975408,35.1785798],[32.5975886,35.1785938],[32.5977422,35.1786911],[32.5978073,35.1788158],[32.5979546,35.178933],[32.598162,35.1790271],[32.598381,35.1790621],[32.5985258,35.179118],[32.5996822,35.1764972],[32.6002468,35.1753468],[32.6011716,35.17422],[32.6013777,35.1738068],[32.6019349,35.1731616],[32.6022173,35.1731428],[32.602576,35.1729057],[32.6032132,35.1728777],[32.6035995,35.1727911],[32.6064035,35.1731516],[32.6094801,35.1732712],[32.6106577,35.1736106],[32.6114767,35.1736318],[32.6123214,35.1740224],[32.6142521,35.1742719],[32.6161014,35.1746283],[32.6176092,35.1749816],[32.6200408,35.1761214],[32.6210227,35.17717],[32.6222606,35.1784617],[32.6223491,35.1790563],[32.6235807,35.1806491],[32.6235778,35.1811334],[32.6242265,35.1828736],[32.6242426,35.1844202],[32.6243715,35.1848321],[32.624341,35.1850005],[32.6243333,35.1852999],[32.6241731,35.1855743],[32.6242978,35.1864136],[32.6246682,35.1871592],[32.6254212,35.1880625],[32.6264112,35.1886045],[32.6282058,35.1894036],[32.6283528,35.1893165],[32.6284661,35.1891621]]]]}}]}
