{"type":"FeatureCollection","features":[{"type":"Feature","properties":{"place":"demchok","region":"area/indian-jammu-kashmir-ladakh","donors":"CN;rule/cn-tibet","rank":3,"whose_line":"OpenStreetMap mappers: the part of the Demchok sector controlled by India (west of the Line of Actual Control)","publisher":"OpenStreetMap contributors","source_url":"https://www.openstreetmap.org/relation/9823095","version_or_date":"snapshot 2026-10-04T06:57:51Z (Overpass attic query); relation 9823095 v6 (2026-09-11T06:59:38Z)","feature_id":"relation 9823095","licence":"ODbL 1.0","notes":"Contradiction with the canon's input: custom_assignments gives Natural Earth's whole 'Demchok' (2,268 km², 'Admin. by India') to India's region, but the register says each side holds its side of the LAC, and DoS (fid 78) and OSM (relation 2713466) draw the whole disputed sector at about 1,474 km². This file takes OSM's India-controlled 'Demchok Western Sector' (claimed_by CN, controlled_by IN). The LAC is not a line both parties state (R047). Alternative: relation 2713466 (whole sector).","input_sha256":"1838423be70b3ca5632ef5eaec9e63dbcc02882905378bd38723d4f9e6125ed7","operation":"assembled from the OSM element's member ways (outer minus inner)","crs":"WGS84 longitude/latitude, as in the source (no reprojection)","source_features":[{"id":"relation 9823095 v6","osm":"relation/9823095","version":6,"timestamp":"2026-09-11T06:59:38Z","name":"Demchok Western Sector","name:en":"Demchok Western Sector","boundary":"disputed","claimed_by":"CN","controlled_by":"IN"}]},"geometry":{"type":"Polygon","coordinates":[[[79.268313,32.683891],[79.269342,32.684755],[79.270306,32.685187],[79.271701,32.686017],[79.273262,32.686781],[79.274525,32.68718],[79.275654,32.687678],[79.276817,32.687977],[79.278112,32.687844],[79.278444,32.688642],[79.27974,32.690236],[79.280504,32.6911],[79.281202,32.691831],[79.282763,32.693159],[79.283859,32.694422],[79.284158,32.695518],[79.284358,32.697544],[79.2844981,32.698959],[79.284756,32.701564],[79.284623,32.702959],[79.28376,32.703657],[79.282099,32.704188],[79.280006,32.705052],[79.279607,32.705816],[79.279441,32.706879],[79.279076,32.707975],[79.27964,32.709105],[79.280305,32.710101],[79.280836,32.711098],[79.281434,32.712061],[79.281733,32.713124],[79.2818,32.714154],[79.282962,32.714154],[79.284158,32.714121],[79.28542,32.714154],[79.286616,32.714354],[79.287348,32.714586],[79.287912,32.71525],[79.288809,32.716579],[79.289507,32.717443],[79.290337,32.718373],[79.291666,32.719469],[79.293261,32.720101],[79.29552,32.722094],[79.295353,32.722758],[79.294789,32.723821],[79.294589,32.72505],[79.294822,32.72608],[79.295619,32.72701],[79.296184,32.72794],[79.296848,32.728804],[79.294988,32.729934],[79.294357,32.730465],[79.293726,32.730764],[79.292363,32.730897],[79.291234,32.731296],[79.289972,32.732093],[79.288909,32.733355],[79.288444,32.734518],[79.288277,32.735448],[79.288244,32.736511],[79.288875,32.73774],[79.289473,32.73877],[79.289806,32.739866],[79.290005,32.74073],[79.289241,32.741095],[79.288477,32.741594],[79.287879,32.741992],[79.286916,32.742192],[79.285653,32.743554],[79.285254,32.744218],[79.285055,32.745181],[79.284922,32.746178],[79.285055,32.74754],[79.284391,32.748071],[79.283627,32.74857],[79.282929,32.749267],[79.282497,32.749799],[79.282132,32.750629],[79.282032,32.751526],[79.282265,32.752191],[79.282962,32.75332],[79.28273,32.754051],[79.282597,32.754682],[79.282497,32.755513],[79.281966,32.756642],[79.281932,32.757373],[79.282198,32.758204],[79.28283,32.759134],[79.28263,32.760296],[79.282132,32.76116],[79.281301,32.761426],[79.280438,32.761924],[79.279906,32.762323],[79.279707,32.762887],[79.279408,32.76302],[79.278644,32.763286],[79.278112,32.763652],[79.277315,32.764382],[79.276817,32.76601],[79.276319,32.767571],[79.275754,32.768933],[79.275322,32.770129],[79.275289,32.771159],[79.275388,32.77282],[79.275388,32.77385],[79.275056,32.775046],[79.274624,32.777006],[79.273893,32.77777],[79.273063,32.7787],[79.2719,32.780228],[79.27087,32.781358],[79.270339,32.781524],[79.269276,32.781657],[79.268744,32.782188],[79.26818,32.782919],[79.267549,32.783417],[79.266751,32.783783],[79.266153,32.784148],[79.26529,32.78468],[79.264492,32.785211],[79.263496,32.785942],[79.2624,32.786573],[79.26127,32.787138],[79.260174,32.787736],[79.259509,32.787935],[79.259177,32.788234],[79.258446,32.788467],[79.257882,32.788932],[79.257217,32.789164],[79.256121,32.789197],[79.254261,32.789197],[79.252633,32.78933],[79.250573,32.789629],[79.249676,32.789862],[79.248912,32.790061],[79.24848,32.790294],[79.247451,32.790427],[79.246288,32.790626],[79.245059,32.790925],[79.244095,32.790958],[79.243331,32.790825],[79.243032,32.790692],[79.242268,32.789995],[79.241637,32.789297],[79.240592,32.788047],[79.240085,32.787657],[79.239395,32.787397],[79.238693,32.787111],[79.237899,32.786707],[79.237041,32.786057],[79.236729,32.785966],[79.236222,32.78568],[79.235441,32.785381],[79.234856,32.785108],[79.233399,32.783911],[79.232632,32.783846],[79.232086,32.784054],[79.231474,32.784457],[79.230408,32.784678],[79.22925,32.784782],[79.228834,32.784899],[79.227338,32.785745],[79.225687,32.786356],[79.223892,32.787006],[79.222942,32.787228],[79.223841,32.788156],[79.224306,32.788588],[79.224605,32.789319],[79.224506,32.790216],[79.224672,32.790814],[79.224938,32.791279],[79.225569,32.791611],[79.225834,32.791844],[79.225635,32.792508],[79.225203,32.793704],[79.224605,32.794999],[79.223708,32.795697],[79.222878,32.796195],[79.223044,32.796893],[79.22321,32.797491],[79.223642,32.79882],[79.223941,32.799683],[79.224672,32.800448],[79.225203,32.801278],[79.225569,32.802507],[79.225901,32.803404],[79.225867,32.803902],[79.225403,32.805032],[79.224373,32.806294],[79.223077,32.808852],[79.223476,32.809151],[79.224938,32.809749],[79.225701,32.81038],[79.226266,32.811344],[79.226864,32.81244],[79.227429,32.813005],[79.228758,32.813968],[79.229522,32.814832],[79.22992,32.815895],[79.230087,32.817057],[79.229787,32.817722],[79.229223,32.818386],[79.228691,32.819084],[79.228691,32.819947],[79.228525,32.820446],[79.229256,32.820745],[79.23002,32.821177],[79.230884,32.821608],[79.231648,32.82204],[79.232379,32.823369],[79.232179,32.823867],[79.231548,32.8241],[79.230585,32.824432],[79.229522,32.825362],[79.228525,32.826126],[79.227728,32.826758],[79.226532,32.827256],[79.225901,32.827787],[79.225668,32.828219],[79.225436,32.828518],[79.225203,32.829448],[79.224971,32.831707],[79.224971,32.832239],[79.225536,32.832837],[79.226333,32.833833],[79.227927,32.834929],[79.228226,32.836092],[79.228426,32.837089],[79.229256,32.837853],[79.229522,32.838717],[79.229622,32.839647],[79.229721,32.841474],[79.229954,32.842105],[79.230618,32.842504],[79.231847,32.842769],[79.233076,32.843633],[79.233774,32.844198],[79.23404,32.845161],[79.234305,32.845792],[79.235036,32.846357],[79.235302,32.847121],[79.235667,32.847586],[79.235867,32.848284],[79.235236,32.848583],[79.234671,32.848948],[79.233608,32.84928],[79.233043,32.849878],[79.232312,32.850709],[79.231947,32.851274],[79.230385,32.852536],[79.229182,32.853381],[79.229087,32.853974],[79.228874,32.854874],[79.228495,32.855372],[79.228329,32.856249],[79.22795,32.857434],[79.227973,32.858192],[79.228021,32.85914],[79.228163,32.860136],[79.22821,32.860728],[79.228234,32.862364],[79.228329,32.862814],[79.228518,32.863549],[79.228827,32.864497],[79.229253,32.865374],[79.229751,32.86599],[79.23032,32.866559],[79.231126,32.866938],[79.231908,32.867839],[79.23205,32.868455],[79.232216,32.869047],[79.232382,32.869948],[79.232429,32.870612],[79.232263,32.871062],[79.231931,32.871536],[79.231599,32.871915],[79.231173,32.872365],[79.230841,32.872934],[79.230651,32.873479],[79.230865,32.873645],[79.231481,32.873882],[79.232334,32.874427],[79.233187,32.874854],[79.233495,32.875541],[79.233638,32.876039],[79.233661,32.876892],[79.233709,32.877627],[79.233685,32.878291],[79.233922,32.87867],[79.234136,32.87957],[79.234302,32.880376],[79.233898,32.880803],[79.233638,32.881395],[79.233116,32.882438],[79.23288,32.882983],[79.232476,32.883457],[79.232097,32.884097],[79.231765,32.884642],[79.231457,32.885259],[79.230628,32.885804],[79.229229,32.886633],[79.2284,32.887107],[79.227878,32.8877],[79.227357,32.887961],[79.226907,32.888127],[79.226788,32.888458],[79.226741,32.889193],[79.226788,32.88988],[79.226528,32.890639],[79.226172,32.891042],[79.225674,32.891658],[79.225579,32.89199],[79.225485,32.89225],[79.225413,32.892701],[79.225817,32.892962],[79.226077,32.893127],[79.226124,32.893388],[79.226717,32.893862],[79.227902,32.894383],[79.228258,32.895071],[79.228613,32.895853],[79.228755,32.896351],[79.229111,32.896706],[79.230201,32.897299],[79.230249,32.897868],[79.230415,32.898484],[79.23032,32.899029],[79.230177,32.89955],[79.230011,32.899858],[79.230249,32.900072],[79.230343,32.900498],[79.23032,32.900925],[79.230272,32.901423],[79.230415,32.901636],[79.230557,32.901849],[79.231173,32.902205],[79.231789,32.902703],[79.231908,32.90339],[79.231837,32.904077],[79.231884,32.904978],[79.232003,32.905784],[79.232073,32.90621],[79.232216,32.90685],[79.232192,32.907751],[79.231386,32.908249],[79.231007,32.908391],[79.230845,32.9129728],[79.2310809,32.9135312],[79.233582,32.9161504],[79.244728,32.93356],[79.2523811,32.9461113],[79.2471227,32.9497192],[79.2424959,32.9528936],[79.2358675,32.9574411],[79.2325307,32.9597303],[79.2272578,32.9633476],[79.2250215,32.9638966],[79.2226614,32.964476],[79.2232684,32.96512],[79.2240203,32.9665909],[79.2240576,32.9674954],[79.2237237,32.9685264],[79.2237324,32.9694911],[79.2241255,32.9702505],[79.2249749,32.9709456],[79.2261869,32.9710018],[79.2283461,32.9717164],[79.2308735,32.9736371],[79.2330217,32.9747997],[79.2353974,32.9750777],[79.2372676,32.974825],[79.2390115,32.9737635],[79.2396433,32.9726009],[79.2401488,32.9707054],[79.2416146,32.9686836],[79.2436365,32.9666364],[79.2436365,32.9657013],[79.2438892,32.964842],[79.2441672,32.9642355],[79.2438134,32.9632498],[79.2436112,32.9628707],[79.2436112,32.9620367],[79.2442683,32.961784],[79.245355,32.9620114],[79.2464418,32.9630476],[79.2471494,32.9637806],[79.2486153,32.9644629],[79.2506624,32.9649684],[79.251825,32.9647662],[79.2537801,32.9648067],[79.2566673,32.9658985],[79.2571863,32.9660756],[79.2580343,32.9667513],[79.2606025,32.9662689],[79.2613742,32.9665293],[79.2636323,32.9659442],[79.2643351,32.9651973],[79.2647952,32.964103],[79.2654018,32.9631326],[79.2666634,32.9627929],[79.2692654,32.9627956],[79.2706182,32.9617011],[79.271807,32.9597116],[79.2737965,32.9574794],[79.2761743,32.9558296],[79.2794254,32.9551745],[79.2822641,32.9540584],[79.2838411,32.9526512],[79.2851028,32.9500552],[79.2855395,32.946343],[79.2856123,32.9430676],[79.2852726,32.9419758],[79.2846418,32.9402047],[79.2847631,32.9385063],[79.2855638,32.9360801],[79.2874805,32.9346243],[79.2908287,32.9336781],[79.2929153,32.9322466],[79.2945894,32.9307909],[79.2965546,32.9300873],[79.3000241,32.9292624],[79.3024018,32.9280492],[79.3044922,32.9279858],[79.3062838,32.9279279],[79.3075212,32.9269089],[79.3078366,32.9253076],[79.3075212,32.9245069],[79.306672,32.9232453],[79.3055074,32.9229056],[79.3046825,32.9221292],[79.3031297,32.9216925],[79.3021835,32.9208433],[79.3019166,32.9193633],[79.3018923,32.9182958],[79.3011644,32.9177135],[79.301213,32.91684],[79.301771,32.9149233],[79.301868,32.914341],[79.3024503,32.9136859],[79.3021107,32.9126427],[79.3021835,32.9116237],[79.3046825,32.9092945],[79.3079094,32.9079358],[79.3103599,32.9063345],[79.3118641,32.9044905],[79.3133684,32.9018459],[79.3138051,32.9002446],[79.3133684,32.8992499],[79.3122038,32.8980125],[79.3092681,32.8961686],[79.3078123,32.8961928],[79.306672,32.8960958],[79.3052405,32.8943974],[79.3050464,32.8935967],[79.3028385,32.8922381],[79.3024261,32.8909036],[79.3021592,32.8885987],[79.3024018,32.8869489],[79.3036149,32.8856872],[79.3055559,32.8848623],[79.3080549,32.8846925],[79.3100202,32.8849351],[79.3123251,32.8858085],[79.314533,32.8860997],[79.3169107,32.8856872],[79.3191913,32.8845469],[79.3209382,32.8828728],[79.3217874,32.8812958],[79.3218602,32.8793548],[79.3215933,32.874381],[79.3219087,32.8731194],[79.3219572,32.8712026],[79.3226366,32.8698925],[79.3246018,32.8679272],[79.3277074,32.8649187],[79.3290176,32.8631233],[79.3304976,32.8623469],[79.3329723,32.860042],[79.3345251,32.8591685],[79.3378491,32.8563056],[79.3407363,32.8531515],[79.3418766,32.8521567],[79.3437448,32.8522052],[79.3468019,32.8523508],[79.3491068,32.8516229],[79.3506353,32.8500216],[79.3512176,32.8484446],[79.3513389,32.8472072],[79.3517999,32.8456301],[79.3532799,32.8441744],[79.3541048,32.8431797],[79.3554392,32.8423062],[79.3569192,32.8421364],[79.3579868,32.8422092],[79.3595881,32.8415541],[79.3610196,32.8405836],[79.3613107,32.8394918],[79.3613593,32.8383029],[79.3623297,32.8370655],[79.3634105,32.8354261],[79.3644648,32.8348577],[79.3658191,32.833506],[79.3677449,32.8314776],[79.3695599,32.8281128],[79.3694401,32.8273743],[79.3694143,32.827215],[79.3691475,32.8268268],[79.3696327,32.8255409],[79.3696812,32.8248859],[79.3702393,32.8244006],[79.3701665,32.8238183],[79.3707245,32.8222413],[79.3711144,32.8214948],[79.3718648,32.8200577],[79.3719134,32.8188688],[79.3728111,32.81768],[79.3743153,32.8165639],[79.3750675,32.8154721],[79.3752584,32.8132272],[79.3765475,32.8110806],[79.3782216,32.809916],[79.3798471,32.8091639],[79.3805507,32.808339],[79.3811816,32.8065193],[79.3823704,32.8052091],[79.3833167,32.8051363],[79.3848209,32.8035593],[79.3852576,32.8027101],[79.3863009,32.8020065],[79.3869895,32.8009989],[79.3872957,32.8005508],[79.3879022,32.7981003],[79.3879508,32.7960137],[79.3888485,32.7940485],[79.3909108,32.7919376],[79.3924878,32.7911612],[79.3935553,32.7903848],[79.394914,32.7904334],[79.397874,32.7896085],[79.4015862,32.787813],[79.4043278,32.7867212],[79.4054924,32.7866727],[79.4062445,32.7859448],[79.4069967,32.7854596],[79.4076518,32.7841252],[79.4078944,32.7829848],[79.4085252,32.7826209],[79.4087436,32.7813593],[79.4092531,32.7806314],[79.4100052,32.7785448],[79.4113462,32.7752197],[79.4112979,32.774206],[79.4107428,32.7737234],[79.4108393,32.772227],[79.4105015,32.7701514],[79.4112255,32.7689447],[79.4112496,32.7682931],[79.4122392,32.7661933],[79.4135907,32.7644798],[79.4147974,32.762911],[79.4153767,32.7612699],[79.4151353,32.7585426],[79.415618,32.7564188],[79.4168006,32.7543432],[79.4193589,32.7523642],[79.4197933,32.7511092],[79.4212414,32.7497335],[79.4226895,32.7472476],[79.4235583,32.7450514],[79.4238479,32.7433861],[79.4235048,32.7427166],[79.4223731,32.7423672],[79.4211984,32.7426972],[79.4207354,32.7432059],[79.4200417,32.7442024],[79.4191703,32.7442604],[79.4181718,32.7438738],[79.4170155,32.7430245],[79.4162402,32.7424811],[79.4153891,32.7413675],[79.4155697,32.7400072],[79.4151595,32.7383902],[79.4150146,32.7374489],[79.414725,32.7369904],[79.4152077,32.7356871],[79.416149,32.7347217],[79.4173798,32.7343597],[79.4194072,32.7349872],[79.4216276,32.7349872],[79.4231562,32.7349501],[79.4243306,32.7336598],[79.426265,32.7332768],[79.4279652,32.7328696],[79.428699,32.7325737],[79.4310159,32.7323324],[79.4361084,32.7292431],[79.4371944,32.7288087],[79.4385317,32.7283162],[79.4397771,32.7278151],[79.4404521,32.7270237],[79.4408268,32.7252078],[79.4412646,32.7236433],[79.4427805,32.7220937],[79.445558,32.7204515],[79.4474242,32.7191711],[79.4502342,32.718736],[79.4517115,32.7178784],[79.4538719,32.7146855],[79.4563401,32.712683],[79.460728,32.7098224],[79.4604604,32.7075593],[79.4593174,32.7035199],[79.4578643,32.7010375],[79.456228,32.6988386],[79.4549921,32.6977575],[79.4532033,32.6963206],[79.4520532,32.6951705],[79.4508913,32.694056],[79.4504713,32.6935835],[79.4491216,32.6924339],[79.4489233,32.6922403],[79.4479019,32.6912432],[79.446975,32.6905453],[79.4459668,32.6901894],[79.444552,32.6895599],[79.4435112,32.6888892],[79.4423404,32.6886839],[79.4413809,32.6883281],[79.4402426,32.6878901],[79.4388603,32.6868363],[79.4376407,32.6857824],[79.4364698,32.6847011],[79.4362422,32.6833051],[79.4354128,32.682128],[79.4348274,32.681074],[79.4341932,32.680376],[79.4332662,32.6795273],[79.4328597,32.6782818],[79.4325344,32.6764749],[79.431884,32.6744901],[79.4313636,32.6726832],[79.430892,32.6709448],[79.4305505,32.6702877],[79.4303391,32.6688777],[79.4295585,32.667276],[79.4289894,32.6661398],[79.4278836,32.6647161],[79.4266477,32.6637441],[79.4254443,32.662909],[79.4246637,32.662156],[79.424436,32.660609],[79.4244529,32.6588005],[79.4232617,32.6569277],[79.4230375,32.6553243],[79.4225334,32.6536402],[79.4217528,32.652805],[79.4207446,32.6521204],[79.4192565,32.6506307],[79.418058,32.6487463],[79.4171179,32.6471435],[79.4157737,32.6441103],[79.415131,32.6426598],[79.4145381,32.6413219],[79.4138363,32.6397381],[79.4139959,32.6385644],[79.4144512,32.6373867],[79.4149716,32.6360173],[79.4157359,32.6352915],[79.4164515,32.6344835],[79.416549,32.6336208],[79.416175,32.6325663],[79.4152806,32.6314707],[79.4149066,32.6301696],[79.414126,32.6297451],[79.4120689,32.6277981],[79.4105344,32.626128],[79.4095045,32.6250071],[79.4083627,32.6237643],[79.4078652,32.6229109],[79.4074424,32.6222123],[79.4064667,32.6217604],[79.4053121,32.6209797],[79.4042388,32.620062],[79.4034989,32.6190526],[79.4033382,32.6178701],[79.4038432,32.6154156],[79.4028419,32.6144171],[79.4023655,32.6131937],[79.4018217,32.6129364],[79.4016223,32.6122447],[79.4008822,32.6109809],[79.4003395,32.6103109],[79.4005689,32.6090238],[79.400543,32.6077577],[79.400619,32.6054436],[79.3989632,32.6039276],[79.3996303,32.602668],[79.3993326,32.6014599],[79.4005617,32.597302],[79.4003072,32.5960854],[79.4002984,32.5946159],[79.3997804,32.5921644],[79.3998509,32.5889657],[79.4002284,32.586485],[79.3997803,32.5853566],[79.3988209,32.5852479],[79.3982553,32.5849641],[79.3983614,32.5828822],[79.3975151,32.5807216],[79.3976574,32.5794614],[79.3993867,32.5762526],[79.4004404,32.5742037],[79.4005073,32.5714608],[79.399524,32.5715737],[79.3991313,32.5713412],[79.3995088,32.5699013],[79.3991791,32.5689548],[79.3988766,32.5674246],[79.3993646,32.565753],[79.4004164,32.5643211],[79.4020869,32.5629032],[79.4028196,32.5620592],[79.4096154,32.5562234],[79.4094634,32.5549968],[79.4095125,32.5537521],[79.4104533,32.5525348],[79.4115658,32.551643],[79.4119603,32.5507892],[79.4112179,32.5488012],[79.4113795,32.5477984],[79.4143339,32.5434143],[79.4147871,32.5422215],[79.4137479,32.5405566],[79.4138235,32.538938],[79.4135942,32.5380911],[79.4145901,32.5364396],[79.4152868,32.5358423],[79.4165612,32.534122],[79.4177855,32.5335297],[79.4182689,32.530919],[79.4183272,32.5298122],[79.4179724,32.5270191],[79.415812,32.5250164],[79.4132225,32.5234539],[79.4131164,32.5214707],[79.4134929,32.520205],[79.4101069,32.5190682],[79.4078261,32.5188403],[79.40536,32.5195479],[79.403853,32.5208203],[79.4031936,32.5231767],[79.401611,32.5244485],[79.3995384,32.5258165],[79.3973864,32.5257625],[79.3944796,32.5242664],[79.3923494,32.5244666],[79.390248,32.5250916],[79.3866264,32.5254602],[79.3826995,32.5269405],[79.3782332,32.5277694],[79.3759788,32.5293181],[79.3725014,32.5297767],[79.3692068,32.5311714],[79.3668851,32.532417],[79.3615385,32.5319381],[79.3589742,32.5288916],[79.3566236,32.52574],[79.3522626,32.5275372],[79.3496351,32.5292777],[79.3470104,32.5320891],[79.343332,32.5341392],[79.3391999,32.5376868],[79.3358059,32.5396818],[79.3338032,32.5426919],[79.3335211,32.5459897],[79.3344966,32.5497648],[79.3374296,32.5510415],[79.3394233,32.5523682],[79.3399125,32.5541691],[79.3359429,32.5570759],[79.3335644,32.5583368],[79.3327631,32.5628482],[79.3311208,32.5653288],[79.3263715,32.563711],[79.3249975,32.5611613],[79.3242932,32.5600193],[79.3220959,32.5590286],[79.318921,32.5584352],[79.3147573,32.5586281],[79.3107495,32.5596519],[79.3083217,32.5572451],[79.3081771,32.551164],[79.304551,32.5500564],[79.3034091,32.5482249],[79.2994743,32.5456586],[79.2986359,32.5427816],[79.2946687,32.5406079],[79.293563,32.5394697],[79.2923507,32.53942],[79.2892611,32.5428217],[79.2861954,32.5440635],[79.2827463,32.5461895],[79.2824455,32.5473016],[79.2829088,32.5489123],[79.2834622,32.550024],[79.2825247,32.5513253],[79.2805386,32.552662],[79.2760549,32.5559977],[79.2756125,32.5566093],[79.272548,32.5568518],[79.2678413,32.5587966],[79.2657304,32.5621965],[79.2716024,32.5654295],[79.2730045,32.5692003],[79.2776042,32.5732142],[79.2782064,32.5770454],[79.2803941,32.5778196],[79.2830424,32.5837817],[79.2861344,32.5852884],[79.2894937,32.5871019],[79.2915558,32.5904095],[79.2885752,32.5930493],[79.2893172,32.596229],[79.2934242,32.5981366],[79.295572,32.5999664],[79.3002366,32.6002379],[79.3037472,32.6010334],[79.3057228,32.6030204],[79.3036631,32.6069135],[79.302607,32.6109502],[79.301022,32.6130166],[79.2988247,32.6157326],[79.2974786,32.6204727],[79.296449,32.620907],[79.295586,32.621571],[79.294755,32.622368],[79.294191,32.623465],[79.293692,32.624262],[79.292696,32.625391],[79.291799,32.626155],[79.291002,32.627119],[79.290503,32.627783],[79.290404,32.628614],[79.29057,32.629577],[79.29047,32.630308],[79.290968,32.630939],[79.291633,32.631869],[79.292397,32.6326],[79.293393,32.633364],[79.294357,32.63456],[79.295054,32.63549],[79.29532,32.636321],[79.29542,32.637483],[79.295253,32.639178],[79.295253,32.640772],[79.293825,32.641104],[79.292762,32.641603],[79.292098,32.6424],[79.291533,32.643064],[79.290769,32.643762],[79.290104,32.643895],[79.289075,32.644459],[79.288643,32.645124],[79.287979,32.645655],[79.287879,32.646087],[79.28748,32.646718],[79.286616,32.647848],[79.286417,32.648446],[79.28665,32.649642],[79.28665,32.651137],[79.286085,32.651535],[79.285288,32.651635],[79.284092,32.652166],[79.283029,32.652731],[79.282331,32.653229],[79.281102,32.654758],[79.280205,32.655488],[79.279441,32.65602],[79.278909,32.656751],[79.278577,32.657083],[79.278278,32.657482],[79.278179,32.658312],[79.278112,32.65891],[79.277946,32.659873],[79.278112,32.660471],[79.278511,32.661036],[79.278843,32.662166],[79.278876,32.662863],[79.278677,32.663527],[79.278245,32.664159],[79.277381,32.665022],[79.276817,32.665222],[79.275986,32.665919],[79.274857,32.667381],[79.273893,32.668876],[79.273428,32.67067],[79.272996,32.671434],[79.272299,32.67263],[79.271801,32.673726],[79.27107,32.674125],[79.270173,32.674324],[79.269907,32.675354],[79.269508,32.677048],[79.269143,32.679174],[79.26911,32.680868],[79.268313,32.683891]]]}}]}
