{"type":"FeatureCollection","features":[{"type":"Feature","properties":{"place":"dokdo","region":"KR","donors":"","rank":2,"whose_line":"the coastline (uncontested), as drawn by the US Department of State","publisher":"US Department of State, Office of the Geographer and Global Issues (World Polygons, high-resolution layer DoS_WP_11_4)","source_url":"https://data.geodata.state.gov/WorldPolygons.zip","version_or_date":"World Polygons 11.4 BETA, 2025-02-24; read 2026-10-04","feature_id":"DoS_WP_11_4 fid 173","licence":"US government work, not subject to US copyright (17 U.S.C. § 105)","notes":"DoS 'Liancourt Rocks'.","input_sha256":"55fab422ef09e35eb48d68141b9ece0ace86d4276dfe332a04dfd401c0bfc80c","operation":"none (the source feature's geometry as published)","crs":"WGS84 longitude/latitude, as in the source (no reprojection)","source_features":[{"id":"DoS_WP_11_4 fid 173","WP_Name":"Liancourt Rocks","WP_ID":"46a6c144-9d62-4652-bb97-c56ae1e2d8c9","Map_Label":null,"NOTES":null,"US_Recog":null,"Show_Disp":null,"GENC_3":"QX2"}]},"geometry":{"type":"MultiPolygon","coordinates":[[[[131.87026830000002,37.24127800000008],[131.8710416,37.24133750000004],[131.8717554000001,37.24062370000007],[131.8724098,37.239374500000054],[131.87139850000005,37.23919600000005],[131.87080360000004,37.23895810000005],[131.87044670000012,37.238125300000036],[131.86985190000007,37.23747090000006],[131.86913800000002,37.23806580000007],[131.8687000000001,37.238887100000056],[131.86866210000005,37.23996930000004],[131.8694355,37.24092110000004],[131.87026830000002,37.24127800000008]]],[[[131.86497400000007,37.24234880000006],[131.86556880000012,37.24300320000003],[131.86574730000007,37.24359800000008],[131.86646110000004,37.24300320000003],[131.86652980000008,37.24196470000004],[131.8670787000001,37.24141570000006],[131.86696890000007,37.24075710000005],[131.86631020000004,37.24061070000005],[131.8659077000001,37.24009840000008],[131.86499290000006,37.23995200000007],[131.86392160000003,37.24032020000004],[131.86354630000005,37.24050470000003],[131.86408170000004,37.24109960000004],[131.86437910000006,37.24175390000005],[131.86497400000007,37.24234880000006]]],[[[131.86346000000003,37.24545000000006],[131.86349000000007,37.245340000000056],[131.86344000000008,37.245330000000024],[131.86338000000012,37.24526000000003],[131.86329000000012,37.245220000000074],[131.86323000000004,37.245330000000024],[131.86323000000004,37.24541000000005],[131.86329000000012,37.24545000000006],[131.86331000000007,37.24554000000006],[131.86346000000003,37.24545000000006]]],[[[131.86373000000003,37.245580000000075],[131.86387000000002,37.245670000000075],[131.86392,37.245600000000024],[131.86387000000002,37.24556000000007],[131.86383,37.24545000000006],[131.86367000000007,37.245330000000024],[131.8636100000001,37.245240000000024],[131.86363000000006,37.24517000000003],[131.8635700000001,37.24511000000007],[131.86351000000002,37.24511000000007],[131.86349000000007,37.245240000000024],[131.86355000000003,37.245240000000024],[131.8636100000001,37.245330000000024],[131.8637000000001,37.24541000000005],[131.86373000000003,37.245580000000075]]],[[[131.86367000000007,37.245780000000025],[131.86373000000003,37.24573000000004],[131.8636600000001,37.245520000000056],[131.86362700000006,37.24551400000007],[131.86346000000003,37.245670000000075],[131.8635200000001,37.24573000000004],[131.8635200000001,37.245840000000044],[131.86360000000002,37.24586000000005],[131.86367000000007,37.245780000000025]]],[[[131.8636600000001,37.246200000000044],[131.86389000000008,37.246200000000044],[131.86378000000002,37.24618000000004],[131.8637000000001,37.246140000000025],[131.8636600000001,37.246200000000044]]],[[[131.86434000000008,37.246140000000025],[131.86425000000008,37.246200000000044],[131.86425000000008,37.24625000000003],[131.86439000000007,37.24625000000003],[131.86439000000007,37.246140000000025],[131.86434000000008,37.246140000000025]]],[[[131.86439000000007,37.246890000000064],[131.86431000000005,37.246980000000065],[131.86431000000005,37.24706000000003],[131.86436500000002,37.24707700000005],[131.86444000000006,37.24704000000003],[131.86445000000003,37.24715000000003],[131.8645100000001,37.24715000000003],[131.86454000000003,37.24700000000007],[131.86450000000002,37.24691000000007],[131.86450000000002,37.24678000000006],[131.86444000000006,37.24666000000008],[131.86431000000005,37.246530000000064],[131.86423700000012,37.246575000000064],[131.8642400000001,37.246740000000045],[131.86439000000007,37.246890000000064]]],[[[131.86409000000003,37.24740000000003],[131.86407000000008,37.24730000000005],[131.86396000000002,37.24725600000005],[131.8640200000001,37.247190000000046],[131.8640200000001,37.24711000000008],[131.86396000000002,37.246980000000065],[131.86381000000006,37.24682000000007],[131.86373000000003,37.24682000000007],[131.86359800000002,37.24694100000005],[131.86349000000007,37.24706000000003],[131.86349000000007,37.24713000000003],[131.86344000000008,37.24723000000006],[131.8637000000001,37.24723000000006],[131.86376000000007,37.24721000000005],[131.86386000000005,37.24723000000006],[131.86376000000007,37.24730000000005],[131.86363000000006,37.24730000000005],[131.86360000000002,37.24747000000008],[131.86373000000003,37.24745000000007],[131.86381000000006,37.24749000000003],[131.8635700000001,37.24756000000008],[131.86349000000007,37.24764000000005],[131.86349000000007,37.24771000000004],[131.86355000000003,37.24771000000004],[131.86360000000002,37.24764000000005],[131.8636120000001,37.24769100000003],[131.86373100000003,37.24766900000003],[131.86386000000005,37.24762000000004],[131.86389000000008,37.24756000000008],[131.86399000000006,37.24753000000004],[131.86398000000008,37.24745000000007],[131.86409000000003,37.24740000000003]]]]}}]}
