{"type":"FeatureCollection","features":[{"type":"Feature","properties":{"place":"doumeira-island","region":"ER","donors":"","rank":2,"whose_line":"the coastline (uncontested), as drawn by the US Department of State","publisher":"US Department of State, Office of the Geographer and Global Issues (World Polygons, high-resolution layer DoS_WP_11_4)","source_url":"https://data.geodata.state.gov/WorldPolygons.zip","version_or_date":"World Polygons 11.4 BETA, 2025-02-24; read 2026-10-04","feature_id":"DoS_WP_11_4 fid 86","licence":"US government work, not subject to US copyright (17 U.S.C. § 105)","notes":"DoS 'Doumeira Islands' has two parts (the island and an islet).","input_sha256":"55fab422ef09e35eb48d68141b9ece0ace86d4276dfe332a04dfd401c0bfc80c","operation":"none (the source feature's geometry as published)","crs":"WGS84 longitude/latitude, as in the source (no reprojection)","source_features":[{"id":"DoS_WP_11_4 fid 86","WP_Name":"Doumeira Islands","WP_ID":"ec7baaa2-aa9c-4830-87c4-2a6764281816","Map_Label":null,"NOTES":null,"US_Recog":null,"Show_Disp":null,"GENC_3":"XQV"}]},"geometry":{"type":"MultiPolygon","coordinates":[[[[43.15071720000003,12.713413400000036],[43.15079530000003,12.71210700000006],[43.150617400000044,12.711616500000048],[43.14918510000007,12.71178580000003],[43.14852970000004,12.711746700000049],[43.147058300000026,12.712358700000038],[43.14583440000007,12.713730300000066],[43.14464510000005,12.713658700000053],[43.14333430000005,12.71373680000005],[43.14258350000006,12.715368700000056],[43.14214080000005,12.716803200000072],[43.141346500000054,12.717512900000031],[43.140248400000075,12.719242500000064],[43.14333870000007,12.719524600000057],[43.144358700000055,12.718969000000072],[43.145934200000056,12.718482900000026],[43.14685870000005,12.718986400000063],[43.14836480000008,12.719450800000061],[43.15014860000008,12.720835400000055],[43.151090500000066,12.720325400000036],[43.15100800000005,12.718990700000063],[43.152657300000044,12.716983300000038],[43.15071720000003,12.713413400000036]]],[[[43.15613838300004,12.718860907000021],[43.15694003700003,12.718377718000056],[43.15733537400007,12.718092197000033],[43.15776365500005,12.717861584000048],[43.15811506500006,12.717488211000045],[43.15855432800004,12.71721367200007],[43.15867512500006,12.716609686000027],[43.15856530900004,12.716291221000063],[43.15812604700005,12.716873244000055],[43.15744518900004,12.717609008000068],[43.157038871000054,12.71803729000004],[43.155797954000036,12.718322810000075],[43.15580893600003,12.71887188900007],[43.15534771000006,12.719344096000043],[43.154491148000034,12.719453912000063],[43.154084830000045,12.719431948000022],[43.153722438000045,12.719640598000069],[43.15375538300003,12.720002990000069],[43.15406286700005,12.72010182400004],[43.15457900100006,12.719959064000022],[43.155226913000035,12.719915137000044],[43.15576501000004,12.719640598000069],[43.155797954000036,12.719508819000055],[43.156116420000046,12.719300170000054],[43.15613838300004,12.718860907000021]]]]}}]}
