{"type":"FeatureCollection","features":[{"type":"Feature","properties":{"place":"gazakh-exclaves","region":"area/gazakh-exclaves","donors":"AM AZ","rank":2,"whose_line":"the US State Department's international boundaries (World Polygons 11.4)","publisher":"US Department of State, Office of the Geographer and Global Issues (World Polygons, high-resolution layer DoS_WP_11_4)","source_url":"https://data.geodata.state.gov/WorldPolygons.zip","version_or_date":"World Polygons 11.4 BETA, 2025-02-24; read 2026-10-04","feature_id":"DoS_WP_11_4 fid 20: the Azerbaijani exclaves of Yukhari Askipara and Barkhudarli (with Sofulu), parts of Azerbaijan's polygon (fid 20)","licence":"US government work, not subject to US copyright (17 U.S.C. § 105)","notes":"Held by Armenia since 1992; Azerbaijan claims them. Sofulu lies inside the Barkhudarli exclave, so there are two polygons. GADM's exclave parts overlap these outlines by only 6-7 km² each.","input_sha256":"55fab422ef09e35eb48d68141b9ece0ace86d4276dfe332a04dfd401c0bfc80c","operation":"none (the source feature's geometry as published); only the parts that contain the points [[45.0134, 41.0648], [45.2086, 40.996]]","crs":"WGS84 longitude/latitude, as in the source (no reprojection)","source_features":[{"id":"DoS_WP_11_4 fid 20","WP_Name":"Azerbaijan","WP_ID":"4aeb6821-a913-436a-a695-35686ac02655","Map_Label":"AZERBAIJAN","NOTES":null,"US_Recog":"Independent","Show_Disp":null,"GENC_3":"AZE"}]},"geometry":{"type":"MultiPolygon","coordinates":[[[[45.183374300000025,41.003117700000075],[45.18287810000004,41.00419450000004],[45.18274000000008,41.004782800000044],[45.18272880000006,41.00483060000005],[45.182767700000056,41.00532110000006],[45.18294660000004,41.00575310000005],[45.18321960000003,41.00610020000005],[45.183493000000055,41.006347600000026],[45.18355720000005,41.00639040000004],[45.18382820000005,41.00657080000008],[45.18419280000006,41.00671210000007],[45.18449450000003,41.00682910000006],[45.187729500000046,41.00784740000006],[45.190156900000034,41.00861990000004],[45.19231990000003,41.00936660000008],[45.19298070000008,41.00959470000004],[45.194758800000045,41.01025000000004],[45.19510870000005,41.01041230000004],[45.19826870000003,41.011877500000026],[45.198374400000034,41.01192170000007],[45.20090090000008,41.012976500000036],[45.20335870000008,41.014022200000056],[45.20419870000006,41.01439300000004],[45.204598900000065,41.01451640000005],[45.20493110000007,41.01461880000005],[45.205616200000065,41.014715100000046],[45.20595400000008,41.014754700000026],[45.20664750000003,41.01474810000008],[45.20723810000004,41.014684000000045],[45.207421700000054,41.01464000000004],[45.20780350000007,41.01454860000007],[45.20818450000007,41.01438950000005],[45.20851520000008,41.014230800000064],[45.20863520000006,41.01417320000007],[45.209259200000076,41.013788900000065],[45.20937410000005,41.01371160000008],[45.21063520000007,41.01286270000003],[45.212407400000075,41.01158300000003],[45.21270780000003,41.01139020000005],[45.213400000000036,41.01094580000006],[45.21379020000006,41.01073190000005],[45.21404000000007,41.01059500000008],[45.21481720000003,41.010264300000074],[45.215959800000064,41.00984880000004],[45.21690970000003,41.00954070000006],[45.21752610000004,41.00934750000005],[45.21765170000003,41.00930820000008],[45.21843820000004,41.00912640000007],[45.21882460000006,41.00905830000005],[45.219219200000055,41.00898870000003],[45.22025690000004,41.00887170000004],[45.22179710000006,41.00875440000004],[45.222580900000025,41.00873790000003],[45.22480970000004,41.00879850000007],[45.22516220000006,41.00880810000007],[45.22622170000005,41.00879250000003],[45.22680850000006,41.00873840000003],[45.22718240000006,41.008667100000025],[45.22745540000005,41.00857700000006],[45.227728100000036,41.00844080000007],[45.22806140000006,41.008092300000044],[45.22829070000006,41.007603000000074],[45.23026450000003,41.00507060000007],[45.23072350000007,41.00483040000006],[45.231142100000056,41.00457340000003],[45.23136350000004,41.00436990000003],[45.23160340000004,41.004016300000046],[45.23181570000003,41.00357690000004],[45.23188430000005,41.00326970000003],[45.23185100000006,41.00303180000003],[45.23176380000007,41.00285360000004],[45.23164810000003,41.002692600000046],[45.23157680000003,41.00259330000006],[45.231422500000065,41.002316000000064],[45.23128930000007,41.002028100000075],[45.23122560000007,41.001717400000075],[45.231264700000054,41.001325500000064],[45.23136990000006,41.00103410000003],[45.231560700000045,41.000733600000046],[45.231600900000046,41.00067020000006],[45.23102230000006,40.999711500000046],[45.23046410000006,40.998849000000064],[45.23044100000004,40.99883310000007],[45.22964110000004,40.99828020000007],[45.22956390000007,40.998226800000054],[45.22735680000005,40.99706420000007],[45.22720950000007,40.996986700000036],[45.22720900000007,40.99698560000007],[45.22719220000005,40.99695040000006],[45.22707420000006,40.99670290000006],[45.227041900000074,40.996591300000034],[45.22704680000004,40.996537500000045],[45.22708230000006,40.99647730000004],[45.22716280000003,40.99642460000007],[45.22728540000003,40.99638120000003],[45.22732760000008,40.99634190000006],[45.22734450000007,40.99627950000007],[45.227396300000066,40.99622080000006],[45.22756810000004,40.99613530000005],[45.22778900000003,40.99599200000006],[45.228026800000066,40.99592900000005],[45.22808630000003,40.995907000000045],[45.228121800000054,40.995851800000025],[45.22815540000005,40.99573570000007],[45.228152100000045,40.99556600000005],[45.22816760000006,40.995405600000026],[45.22831110000004,40.995198800000026],[45.22851480000003,40.99500160000008],[45.22872170000005,40.99479310000004],[45.22880340000006,40.994687500000055],[45.22884670000008,40.994566200000065],[45.22891340000007,40.99440640000006],[45.22896590000005,40.99427790000004],[45.229066000000046,40.994170100000076],[45.22915040000004,40.99412460000008],[45.22928260000003,40.99411090000007],[45.22941040000006,40.99407820000005],[45.229476900000066,40.99401350000005],[45.22950130000004,40.99395050000004],[45.22947080000006,40.993891000000076],[45.22937340000004,40.993795900000066],[45.22930100000008,40.99371890000003],[45.229292000000044,40.99362640000004],[45.22931140000003,40.993554000000074],[45.22937330000008,40.99350500000003],[45.22945080000005,40.99350020000003],[45.22963070000003,40.993499600000064],[45.22971730000006,40.993495100000075],[45.229756200000054,40.993473900000026],[45.229862800000035,40.99341040000007],[45.229903000000036,40.99333150000007],[45.22988980000008,40.99325490000007],[45.22984310000004,40.99319620000006],[45.229791600000055,40.993144200000074],[45.22978910000006,40.993085800000074],[45.22982200000007,40.99303280000004],[45.22994280000006,40.99297470000005],[45.230057000000045,40.99291060000007],[45.23011150000008,40.99289280000005],[45.23015370000007,40.99290550000006],[45.23019010000007,40.99289850000008],[45.23023940000007,40.99286700000005],[45.23027710000008,40.99278940000005],[45.230288200000075,40.992688300000054],[45.230231100000026,40.992586000000074],[45.230222500000025,40.99251780000003],[45.23032830000005,40.99236720000005],[45.23046910000005,40.99212380000006],[45.23053020000003,40.99191060000004],[45.23057950000003,40.991809800000055],[45.230740300000036,40.99169400000005],[45.23091500000004,40.99162760000007],[45.23121710000004,40.99155580000007],[45.23140260000008,40.99152390000006],[45.23141440000006,40.991521900000066],[45.23151670000004,40.99147330000005],[45.231579400000044,40.99136740000006],[45.23159270000008,40.991252200000076],[45.23156020000005,40.99106630000006],[45.23152760000005,40.99087970000005],[45.23144890000003,40.99071500000008],[45.23130360000005,40.99057970000007],[45.23120940000007,40.990463600000055],[45.23118210000007,40.99033270000007],[45.23126180000003,40.99012440000007],[45.23138450000005,40.98992000000004],[45.231532300000026,40.989823200000046],[45.23180940000003,40.98974570000007],[45.23190070000004,40.98970880000007],[45.231920100000025,40.989653600000054],[45.23191790000004,40.98946520000004],[45.23190260000007,40.98937040000004],[45.231979600000045,40.98924750000003],[45.23195980000003,40.98910980000005],[45.231826100000035,40.988968500000055],[45.23175260000005,40.988918400000045],[45.23170860000005,40.98886700000003],[45.23168930000003,40.98877440000007],[45.23171370000006,40.988680000000045],[45.23183300000005,40.98852060000007],[45.23212760000007,40.988270500000056],[45.232339300000035,40.98802120000005],[45.23249480000004,40.987788100000046],[45.23262260000007,40.98765090000006],[45.23270740000004,40.98756000000003],[45.23280090000003,40.987428700000066],[45.23278870000007,40.987283700000035],[45.23280630000005,40.98712120000005],[45.232867500000054,40.98700350000007],[45.23290530000003,40.986950000000036],[45.23290790000004,40.98689260000003],[45.23287320000003,40.98683730000005],[45.23279620000005,40.98679660000005],[45.23277760000008,40.98678840000008],[45.23269390000007,40.98675160000005],[45.232640100000026,40.98669980000005],[45.232625400000074,40.98659150000003],[45.23267340000007,40.98638140000003],[45.23266950000004,40.98628530000008],[45.23256580000003,40.986032400000056],[45.23252190000005,40.98594060000005],[45.232565100000045,40.98580270000008],[45.23265760000004,40.98570060000003],[45.23284840000008,40.98560680000003],[45.23293690000003,40.98553500000003],[45.23296680000004,40.985445500000026],[45.23293360000008,40.98536670000004],[45.23278080000006,40.98523710000006],[45.23269510000006,40.985158400000046],[45.23267430000004,40.98504540000005],[45.23272430000003,40.98490480000004],[45.23281950000006,40.984793300000035],[45.23293380000007,40.984748000000025],[45.23316020000004,40.984658300000035],[45.233241700000065,40.984549300000026],[45.233282700000075,40.984461700000054],[45.233251100000075,40.984353500000054],[45.23327590000008,40.98426390000003],[45.23336640000008,40.98417280000007],[45.23340660000008,40.984097200000065],[45.23339450000003,40.98398060000005],[45.23330500000003,40.98390400000005],[45.23315500000007,40.98381500000005],[45.23302770000004,40.98375790000006],[45.23298620000003,40.983712500000024],[45.23300390000003,40.98366130000005],[45.233060400000056,40.983615400000076],[45.23319040000007,40.98357910000004],[45.233274100000074,40.98350750000003],[45.23330750000008,40.98341730000004],[45.23330070000003,40.98329280000007],[45.23324270000006,40.98316950000003],[45.23313040000005,40.98310340000006],[45.23297430000008,40.98309420000004],[45.23288340000005,40.98314700000003],[45.23282180000007,40.98320710000007],[45.23272190000006,40.983204400000034],[45.232590800000025,40.98310610000004],[45.23254310000004,40.98307040000003],[45.232342800000026,40.98278440000007],[45.23227540000005,40.98259790000003],[45.23228780000005,40.98237970000008],[45.232390000000066,40.98214520000005],[45.23239970000003,40.98212310000008],[45.23249890000005,40.981917200000055],[45.232492800000045,40.98178020000006],[45.23237160000008,40.98155790000004],[45.23235170000004,40.98137570000006],[45.23240340000007,40.981159200000036],[45.23242380000005,40.98086470000004],[45.23229050000003,40.98035370000008],[45.23220560000004,40.98006620000007],[45.232151300000055,40.97990120000003],[45.232191500000056,40.97967060000008],[45.23229800000007,40.97934760000004],[45.232373600000074,40.979135900000074],[45.232345500000065,40.97895620000003],[45.23222770000007,40.97871260000005],[45.23209460000004,40.97853010000006],[45.23207660000003,40.97847440000004],[45.232047900000055,40.97838580000007],[45.23209620000006,40.97822170000006],[45.232109200000025,40.97817750000007],[45.232125100000076,40.97799270000007],[45.23211520000007,40.977975600000036],[45.23208930000004,40.97793090000005],[45.23187290000004,40.977800400000035],[45.23169770000004,40.97764790000008],[45.23167120000005,40.97752790000004],[45.23164570000006,40.97746070000005],[45.231605700000046,40.977355200000034],[45.23141090000007,40.97721450000006],[45.23098280000005,40.97717110000008],[45.23078950000007,40.97725380000003],[45.230223100000046,40.977672400000074],[45.23000090000005,40.97783670000007],[45.229198100000076,40.97830840000006],[45.22849430000008,40.97867570000005],[45.228156600000034,40.97882340000007],[45.22776180000005,40.978805600000044],[45.22688670000008,40.97867680000007],[45.225981800000056,40.97842270000007],[45.22590120000007,40.97840000000008],[45.22548820000003,40.97838340000004],[45.225162400000045,40.97847390000004],[45.22473970000004,40.97869710000003],[45.224552800000026,40.97899430000007],[45.22451860000007,40.97904870000008],[45.22396500000008,40.97992880000004],[45.223636000000056,40.98016080000008],[45.22280500000005,40.98042400000003],[45.22151530000008,40.980663700000036],[45.22121000000004,40.98072040000005],[45.21962510000003,40.98111520000003],[45.21863410000003,40.98152860000005],[45.21855060000007,40.98156350000005],[45.21735910000007,40.98197680000004],[45.216876100000036,40.98219070000005],[45.21615330000003,40.98226370000003],[45.21547140000007,40.982192600000076],[45.21474830000005,40.98220920000006],[45.21474260000008,40.982209400000045],[45.213812500000074,40.982451000000026],[45.213401600000054,40.98284650000005],[45.21317340000007,40.98306610000003],[45.21237110000004,40.984527600000035],[45.21175940000006,40.98632090000007],[45.21172800000005,40.98641280000004],[45.21161600000005,40.98678090000004],[45.211528600000065,40.987765000000024],[45.211344100000076,40.98863490000008],[45.21122820000005,40.98894960000007],[45.21093890000003,40.98964890000008],[45.21056910000004,40.99028850000008],[45.21016800000007,40.99071550000008],[45.209815700000036,40.99093480000005],[45.20956910000007,40.99102520000008],[45.20884840000008,40.99099460000008],[45.208730100000025,40.99101370000005],[45.20816170000006,40.99183020000004],[45.207888300000036,40.99233730000003],[45.20760900000005,40.99277950000004],[45.20750940000005,40.99293710000006],[45.20731120000005,40.99303660000004],[45.20700380000005,40.99308690000004],[45.206643100000065,40.99313590000003],[45.20631060000005,40.99312070000008],[45.20597390000006,40.993012100000044],[45.20550390000005,40.99288360000003],[45.20516950000007,40.992782000000034],[45.20478480000003,40.992593000000056],[45.204398000000026,40.992512300000044],[45.20401780000003,40.99251410000005],[45.20308400000005,40.99246050000005],[45.202737100000036,40.99248190000003],[45.20197390000004,40.99256380000003],[45.20125950000005,40.99252420000005],[45.200249400000075,40.992288400000064],[45.199146400000075,40.992031000000054],[45.19828920000003,40.991828000000055],[45.196955900000034,40.99119940000003],[45.19559250000003,40.99063330000007],[45.19443320000005,40.99007350000005],[45.19427840000003,40.99037990000005],[45.19423120000005,40.990683500000046],[45.19420300000007,40.99102350000004],[45.19422140000006,40.99144400000006],[45.19416800000005,40.991665900000044],[45.193695700000035,40.991882700000076],[45.19325300000003,40.99203540000008],[45.19277100000005,40.99203660000006],[45.19226830000008,40.99212740000007],[45.19164180000007,40.992411600000025],[45.19152470000006,40.99252830000006],[45.19140520000008,40.99282430000005],[45.19110230000007,40.99302560000007],[45.19100170000007,40.99313020000005],[45.19089000000008,40.99344160000004],[45.19036390000008,40.99377940000005],[45.19008370000006,40.99404050000004],[45.190036200000065,40.99426790000007],[45.18999450000007,40.99458690000006],[45.18994410000005,40.99479000000008],[45.18980360000006,40.99510810000004],[45.18958980000008,40.99531840000003],[45.189356700000076,40.99557720000007],[45.18925900000005,40.99581150000006],[45.189153600000054,40.99597890000007],[45.18606920000008,40.99958390000006],[45.18576740000003,41.00017830000007],[45.18493840000008,41.001044500000035],[45.18400710000003,41.00177350000007],[45.18379180000005,41.00226550000008],[45.183374300000025,41.003117700000075]]],[[[45.00890300000003,41.09634840000007],[45.00996640000005,41.09622260000003],[45.01048350000008,41.09602660000007],[45.01099680000004,41.09564190000003],[45.011591200000055,41.09538250000003],[45.012140300000056,41.094951700000024],[45.01263800000004,41.094600300000025],[45.01268090000008,41.094552400000055],[45.01305570000005,41.09413370000004],[45.01355110000003,41.09358620000006],[45.01401700000008,41.09313970000005],[45.014309000000026,41.09290190000007],[45.01450310000007,41.09274370000003],[45.014550400000076,41.092705100000046],[45.01527400000003,41.092029600000046],[45.01569610000007,41.091603500000076],[45.01607290000004,41.09101520000007],[45.01638520000006,41.09059620000005],[45.01676640000005,41.09045100000003],[45.01695890000008,41.09042540000007],[45.01717770000005,41.09039640000003],[45.017912100000046,41.09010480000006],[45.018320000000074,41.08975010000006],[45.01849030000005,41.08938530000006],[45.01869940000006,41.088955500000054],[45.019039500000076,41.08856560000004],[45.019323600000064,41.088154700000075],[45.019742800000074,41.08779080000005],[45.01983380000007,41.08763970000007],[45.01992770000004,41.087483700000064],[45.019976400000076,41.08729020000004],[45.02001730000006,41.08699470000005],[45.02005430000003,41.086723300000074],[45.020425300000056,41.08623750000004],[45.021011000000044,41.08562910000006],[45.02154600000006,41.08513970000007],[45.021650600000044,41.08504410000006],[45.022006400000066,41.08470360000007],[45.022142700000074,41.084573300000045],[45.022652900000026,41.084087700000055],[45.022853800000064,41.08399070000007],[45.023725400000046,41.084018600000036],[45.02465130000007,41.084034200000076],[45.02536250000003,41.08384330000007],[45.026578200000074,41.083234900000036],[45.02780110000003,41.08274970000008],[45.02801740000007,41.08268430000004],[45.029184100000066,41.082331400000044],[45.02969520000005,41.08213550000005],[45.03058640000006,41.081990500000074],[45.03157420000008,41.081814000000065],[45.03253870000003,41.08167940000004],[45.03325980000005,41.08152340000004],[45.03423430000004,41.081094000000064],[45.03450430000004,41.080633300000045],[45.03484740000005,41.080219800000066],[45.03518420000006,41.079971700000044],[45.03595450000006,41.079390200000034],[45.03669750000006,41.07872540000005],[45.03723260000004,41.07823650000006],[45.037676900000065,41.07769310000003],[45.03826900000007,41.076944000000026],[45.03890270000005,41.076178500000026],[45.039292500000045,41.07569170000005],[45.039786700000036,41.075224400000025],[45.04025870000004,41.074792100000025],[45.040661200000045,41.074412100000075],[45.04109090000003,41.073848600000076],[45.04134890000006,41.07362960000006],[45.04172730000005,41.073447900000076],[45.04204280000005,41.07311030000005],[45.04227400000008,41.07267760000008],[45.04280070000004,41.07189590000007],[45.043251800000064,41.07122720000007],[45.043840500000044,41.070434900000066],[45.04427960000004,41.06973220000003],[45.04481180000005,41.06910600000003],[45.045285300000046,41.06865600000003],[45.045538100000044,41.068404300000054],[45.045843500000046,41.06831850000003],[45.04646040000006,41.06792560000008],[45.04685290000003,41.06763410000008],[45.047313700000075,41.06706410000004],[45.047686200000044,41.06655650000005],[45.04797400000007,41.06611010000006],[45.04808920000005,41.065832500000056],[45.048400300000026,41.065351400000054],[45.04843660000006,41.06523720000007],[45.04829130000007,41.06488740000003],[45.047982700000034,41.06449710000004],[45.04735660000006,41.06395580000003],[45.046429200000034,41.062919900000054],[45.045750500000054,41.061934800000074],[45.045269000000076,41.06145930000008],[45.04433490000008,41.060819700000025],[45.04365820000004,41.06051160000004],[45.04311720000004,41.060293400000035],[45.04233920000007,41.06007850000003],[45.04197410000006,41.05991130000007],[45.041758800000025,41.059657300000026],[45.04150980000003,41.05907220000006],[45.041180600000075,41.058289700000046],[45.04119130000004,41.058038500000066],[45.04132500000003,41.057483500000046],[45.04130340000006,41.05670610000004],[45.041102600000045,41.05581550000005],[45.04075820000003,41.055015300000036],[45.04051700000008,41.054230000000075],[45.039978000000076,41.05313110000003],[45.03969010000003,41.052386700000056],[45.039570000000026,41.05200800000006],[45.03938810000005,41.051434200000074],[45.03940520000003,41.05098220000008],[45.039827100000025,41.05029730000007],[45.04018220000006,41.04965620000007],[45.04090750000006,41.04869250000007],[45.041259600000046,41.048135700000046],[45.04166420000007,41.04778580000004],[45.04216840000004,41.04754770000005],[45.04275420000005,41.04732930000006],[45.043372300000044,41.04708960000005],[45.04399920000003,41.04697670000007],[45.04436270000008,41.04687420000005],[45.04481690000006,41.04657180000004],[45.04551060000006,41.046013800000026],[45.04537040000008,41.04593330000006],[45.04500340000004,41.04579080000008],[45.04460060000008,41.045610200000056],[45.04426490000003,41.04540650000007],[45.043895200000065,41.04513460000004],[45.04341630000005,41.044660400000055],[45.04298290000003,41.044022400000074],[45.04270910000008,41.04357020000003],[45.04246310000008,41.043065600000034],[45.042439400000035,41.04303720000007],[45.04207560000003,41.04260130000006],[45.04143190000008,41.04209290000006],[45.04062820000007,41.041495000000054],[45.04029950000006,41.041256100000055],[45.03990490000007,41.041042600000026],[45.03962550000006,41.040918900000065],[45.03913290000003,41.04073310000007],[45.037905100000046,41.04027750000006],[45.03739420000005,41.04008790000006],[45.03693320000008,41.039873800000066],[45.03663350000005,41.03967710000006],[45.03642220000006,41.03952920000006],[45.03620170000005,41.03947750000003],[45.03598670000008,41.03944980000006],[45.035795300000075,41.03938100000005],[45.035577800000056,41.03917450000006],[45.035379900000066,41.038947300000075],[45.03519780000005,41.03887100000003],[45.034990900000025,41.03882240000007],[45.03472030000006,41.038783600000045],[45.03432060000006,41.038734900000065],[45.03377270000004,41.03875020000004],[45.03339580000005,41.03871780000003],[45.03317650000008,41.03866910000005],[45.03293090000005,41.03857380000005],[45.03250540000005,41.03838570000005],[45.032228100000054,41.03828660000005],[45.03193010000007,41.03821640000007],[45.03130980000003,41.038142900000025],[45.03035260000007,41.03809370000005],[45.02960480000007,41.03809110000003],[45.028927800000076,41.03808790000005],[45.02855500000004,41.03811300000007],[45.028431100000034,41.03812130000006],[45.02777720000006,41.03805230000006],[45.027530400000046,41.037986500000045],[45.02720490000007,41.037860400000056],[45.02661820000003,41.03769960000005],[45.025954100000035,41.03750480000008],[45.02555220000005,41.03741080000003],[45.025117100000045,41.03731390000007],[45.02471860000003,41.03721690000003],[45.024591100000066,41.03717850000004],[45.02444600000007,41.03708670000003],[45.02421250000003,41.03683210000003],[45.02406520000005,41.03668170000003],[45.023886600000026,41.036499400000025],[45.023612900000046,41.036244400000044],[45.02337300000005,41.03610880000008],[45.02312990000007,41.03602260000008],[45.022932300000036,41.03598340000008],[45.02267230000007,41.035952300000076],[45.022198400000036,41.035937800000056],[45.02160320000007,41.03591650000004],[45.02095760000003,41.03594020000003],[45.02011890000006,41.03592830000008],[45.019632200000046,41.035981400000026],[45.019510000000025,41.03597830000007],[45.019379300000026,41.035975000000064],[45.01935260000005,41.03596390000007],[45.01903500000003,41.03583280000004],[45.01860140000008,41.03552210000004],[45.01831110000006,41.03523190000004],[45.017900000000054,41.035010500000055],[45.01757960000003,41.03489330000008],[45.01716290000007,41.034810900000025],[45.01659470000004,41.03477890000005],[45.016098800000066,41.03477380000004],[45.015734000000066,41.03478170000005],[45.01543740000005,41.03470930000003],[45.014850300000035,41.034496500000046],[45.01424870000005,41.034330100000034],[45.01395620000005,41.03427300000004],[45.013717400000075,41.034250600000064],[45.01341600000006,41.03420530000005],[45.013028200000065,41.03402610000006],[45.012394200000074,41.03372150000007],[45.01191740000007,41.03345940000003],[45.011631700000066,41.03337700000003],[45.01124770000007,41.03338430000008],[45.01069010000003,41.03331900000006],[45.01027650000003,41.03326230000005],[45.00991760000005,41.033252900000036],[45.00941460000007,41.03328430000005],[45.00896570000003,41.03336130000008],[45.00888790000005,41.03383390000005],[45.00886230000003,41.03422960000006],[45.00884460000003,41.03450370000007],[45.00875970000004,41.03496160000003],[45.00854520000007,41.03550860000007],[45.00824270000004,41.036037400000055],[45.00807460000004,41.03628260000005],[45.00788540000008,41.03647330000007],[45.00759380000005,41.03662600000007],[45.007250200000044,41.03671630000008],[45.00721210000006,41.036728700000026],[45.00657780000006,41.03693530000004],[45.00576700000005,41.03724140000003],[45.00472920000004,41.03768590000004],[45.00466400000005,41.03770860000003],[45.00407610000008,41.037913400000036],[45.00392610000006,41.037965600000064],[45.002118100000075,41.03880700000008],[45.00211710000008,41.03880970000006],[45.00162250000005,41.040232100000026],[45.00153590000008,41.04048130000007],[45.00152070000007,41.04052870000004],[45.001373700000045,41.04098600000003],[45.00093960000004,41.042337400000065],[45.00086260000006,41.04242850000003],[44.99987850000008,41.043592800000056],[44.998753700000066,41.044835000000035],[44.998679200000026,41.044917300000066],[44.99780130000005,41.04708040000003],[44.99781530000007,41.04714130000008],[44.99811590000007,41.04845160000008],[44.99795370000004,41.04972610000004],[44.997928700000045,41.04992260000006],[44.998466800000074,41.05247620000006],[44.99857160000005,41.052973500000064],[44.998568600000056,41.05299370000006],[44.998542900000075,41.05316370000003],[44.998175900000035,41.05558860000008],[44.99808500000006,41.05613720000008],[44.99794160000005,41.05665300000004],[44.99783310000004,41.05714100000006],[44.99782260000006,41.05718840000003],[44.99782200000004,41.05720320000006],[44.997800400000074,41.05777490000003],[44.997754300000054,41.05789740000006],[44.99744860000004,41.058156600000075],[44.99716190000004,41.05836730000004],[44.99696560000007,41.05861640000006],[44.99670140000006,41.059051700000055],[44.99642790000007,41.059542400000055],[44.99615680000005,41.05960040000008],[44.99613140000008,41.05960340000007],[44.99582440000006,41.05963950000006],[44.99500010000003,41.05970060000004],[44.994291700000076,41.059973100000036],[44.99387100000007,41.060356100000035],[44.99353520000005,41.06059200000004],[44.99297610000008,41.06072780000005],[44.99250730000006,41.06089470000006],[44.991999100000044,41.06115580000005],[44.990645200000074,41.06173560000008],[44.98994000000005,41.06203370000003],[44.98893930000003,41.06234500000005],[44.98793640000008,41.06239750000003],[44.98720870000005,41.06241750000004],[44.986594300000036,41.062812000000065],[44.985906200000045,41.06315840000008],[44.98429120000003,41.063575900000046],[44.98386990000006,41.06396410000008],[44.982987200000025,41.06451260000006],[44.98220730000003,41.06447900000006],[44.98013530000003,41.064436200000046],[44.979580300000066,41.06461000000007],[44.97910470000005,41.06476690000005],[44.97841950000003,41.064855100000045],[44.97641710000005,41.06483600000007],[44.97455180000003,41.06502230000007],[44.97253640000008,41.06550980000003],[44.97299050000004,41.066337600000054],[44.973063300000035,41.06694210000006],[44.97310180000005,41.06725270000004],[44.97298370000004,41.067616900000075],[44.97263740000005,41.068381500000044],[44.972256800000025,41.06894170000004],[44.97192320000005,41.069419700000026],[44.97167450000006,41.07003970000005],[44.97140450000006,41.070843600000046],[44.97111950000004,41.07142650000003],[44.97096220000003,41.07221060000006],[44.97099040000006,41.072590700000035],[44.97119580000003,41.07314690000004],[44.97116790000007,41.07376930000004],[44.97099550000007,41.07411470000005],[44.970722300000034,41.07445270000005],[44.97048230000007,41.074780900000064],[44.97018810000003,41.07514620000006],[44.96996840000003,41.07540860000006],[44.96961790000006,41.07558930000005],[44.96953140000005,41.07574290000008],[44.96964260000004,41.075887100000045],[44.969967000000054,41.076479300000074],[44.970217200000036,41.07700580000005],[44.97028620000003,41.07742490000004],[44.97022640000006,41.07810020000005],[44.97121510000005,41.07836240000006],[44.972217400000034,41.078536600000064],[44.972501400000056,41.07851890000006],[44.973371600000064,41.07846480000006],[44.97438420000003,41.07856130000005],[44.97581840000004,41.07898620000003],[44.97654920000008,41.07924250000008],[44.97715530000005,41.07953180000004],[44.97776420000008,41.07985890000003],[44.97841510000006,41.08034550000008],[44.97848390000007,41.08039690000004],[44.97875570000008,41.08060010000003],[44.979390300000034,41.08125090000004],[44.97995460000004,41.08182980000004],[44.98092530000008,41.082845200000065],[44.98176180000007,41.08368580000007],[44.98239120000005,41.08435040000006],[44.98302000000007,41.08487980000007],[44.983422500000074,41.08520530000004],[44.98379650000004,41.085446500000046],[44.984389700000065,41.08575870000004],[44.984655100000055,41.08588050000003],[44.985168600000065,41.086016200000074],[44.985510600000055,41.08611390000004],[44.98574180000003,41.08622830000007],[44.98601490000004,41.08640470000006],[44.986492000000055,41.08677160000008],[44.98681300000004,41.08705070000008],[44.98717480000005,41.087312300000065],[44.98755090000003,41.087580100000025],[44.98787440000007,41.087881700000025],[44.988163600000064,41.08811470000006],[44.98829540000003,41.088437500000055],[44.98852860000005,41.08862430000005],[44.98878330000008,41.08888360000003],[44.98897990000006,41.08901580000003],[44.98908600000004,41.089065600000026],[44.98923400000007,41.089135200000044],[44.98976400000004,41.089304800000036],[44.99029600000006,41.089436800000044],[44.99084830000004,41.08966710000004],[44.991612700000076,41.09016800000006],[44.99210560000006,41.09046820000003],[44.99230860000006,41.09059190000005],[44.99299220000006,41.09120660000008],[44.99378080000008,41.091124500000035],[44.994934400000034,41.09086630000007],[44.99535490000005,41.090656300000035],[44.99597250000005,41.09034790000004],[44.99686740000004,41.091025400000035],[44.996894300000065,41.091049000000055],[44.99764540000007,41.09170760000006],[44.99864130000003,41.09226160000003],[44.99951990000005,41.09266690000004],[45.00016990000006,41.09321700000004],[45.00052720000008,41.09360680000003],[45.00101420000004,41.09393830000005],[45.00153770000003,41.09409190000008],[45.00228020000003,41.09418580000005],[45.00267190000005,41.094371300000034],[45.003156200000035,41.09487660000008],[45.003638600000045,41.09616100000005],[45.003826600000025,41.09631010000004],[45.00406480000004,41.096360600000025],[45.004566100000034,41.09645210000008],[45.00591130000004,41.09639160000006],[45.00768900000003,41.09624180000003],[45.00890300000003,41.09634840000007]]]]}}]}
