{"type":"FeatureCollection","features":[{"type":"Feature","properties":{"place":"gornja-siga","region":"area/gornja-siga","donors":"HR;RS","rank":3,"whose_line":"OpenStreetMap mappers","publisher":"OpenStreetMap contributors","source_url":"https://www.openstreetmap.org/relation/16381727","version_or_date":"snapshot 2026-10-04T06:57:51Z (Overpass attic query); relation 16381727 v11 (2026-03-05T23:00:50Z)","feature_id":"relation 16381727","licence":"ODbL 1.0","notes":"Neither Croatia's nor Serbia's official boundary data was checked. The relation is a multipolygon tagged only with its name and Wikidata id. GADM puts about 4.1 km² of it in Croatia and 1.8 km² in Serbia, hence both donors.","input_sha256":"1838423be70b3ca5632ef5eaec9e63dbcc02882905378bd38723d4f9e6125ed7","operation":"assembled from the OSM element's member ways (outer minus inner)","crs":"WGS84 longitude/latitude, as in the source (no reprojection)","source_features":[{"id":"relation 16381727 v11","osm":"relation/16381727","version":11,"timestamp":"2026-03-05T23:00:50Z","name":"Gornja Siga"}]},"geometry":{"type":"Polygon","coordinates":[[[18.8705118,45.7839828],[18.8706036,45.7838752],[18.8707875,45.7837825],[18.8708353,45.7836782],[18.8709928,45.7835908],[18.8729304,45.7833128],[18.8734256,45.7833701],[18.8736509,45.7834185],[18.8740546,45.783348],[18.8745234,45.7831851],[18.8750182,45.7830588],[18.8754154,45.7830649],[18.8764719,45.7826525],[18.8764335,45.7825365],[18.8764844,45.7824451],[18.8774694,45.7817673],[18.8778542,45.7814547],[18.8783114,45.7810215],[18.8791241,45.7801277],[18.8796597,45.7793774],[18.8797925,45.7793157],[18.879921,45.779313],[18.8802519,45.7787713],[18.8807139,45.7779864],[18.8812607,45.7771008],[18.8814946,45.7768494],[18.8821901,45.775945],[18.8826366,45.7753697],[18.8836496,45.7742197],[18.8848206,45.7724292],[18.8852463,45.7715578],[18.8856965,45.7704919],[18.8861917,45.7686989],[18.8889534,45.7656226],[18.8895978,45.7647163],[18.8895896,45.7642793],[18.8898049,45.7628818],[18.8898228,45.7592936],[18.8902017,45.7567768],[18.8903017,45.7556087],[18.8910008,45.7539751],[18.8909102,45.7537233],[18.8905376,45.7539751],[18.8885698,45.7548591],[18.8883222,45.7549581],[18.8879136,45.7551952],[18.8868872,45.7557699],[18.8860788,45.7560603],[18.8853335,45.7563862],[18.8840543,45.7563223],[18.8830296,45.7563788],[18.8820865,45.7563802],[18.8814811,45.756278],[18.8805761,45.7560885],[18.8800654,45.7560301],[18.8795197,45.7560939],[18.8785039,45.7563445],[18.8775177,45.7566514],[18.8775713,45.7567045],[18.8776514,45.7567175],[18.8778014,45.7566856],[18.878007,45.7566856],[18.8781342,45.7566264],[18.8782679,45.7565968],[18.8785778,45.7565786],[18.8782973,45.7566469],[18.8782581,45.7567152],[18.8776318,45.7569178],[18.8770414,45.7570771],[18.8770384,45.7569588],[18.8771422,45.7568993],[18.8774052,45.7567834],[18.8774605,45.7567254],[18.8774329,45.7566804],[18.8773545,45.756681],[18.876922,45.7568957],[18.8755399,45.7572188],[18.8747383,45.7576165],[18.8743501,45.7577348],[18.8741898,45.757678],[18.8724466,45.7580909],[18.8716865,45.7583186],[18.8709994,45.7588571],[18.8696108,45.7592146],[18.8695281,45.7592838],[18.8685693,45.7595145],[18.8649159,45.7607255],[18.8625023,45.7617519],[18.8602261,45.7626445],[18.859973,45.7627438],[18.8586372,45.7638591],[18.8573086,45.7647171],[18.8560221,45.7655923],[18.8556009,45.7659467],[18.8551318,45.7663156],[18.852534,45.7691902],[18.8524679,45.7694093],[18.8522695,45.7695938],[18.852005,45.7700204],[18.8516783,45.7709369],[18.8515239,45.771497],[18.8515279,45.7716364],[18.8515356,45.771905],[18.8517095,45.772456],[18.8519438,45.7726596],[18.8522953,45.7729361],[18.8523927,45.7730952],[18.8524049,45.7731855],[18.8523479,45.7733489],[18.8522858,45.7734301],[18.8521358,45.7734991],[18.8523545,45.7737838],[18.8525423,45.7738153],[18.8527059,45.7739894],[18.8527225,45.774089],[18.8528571,45.7741486],[18.8529429,45.7742303],[18.8530743,45.7742382],[18.8532063,45.7743002],[18.8532968,45.7742936],[18.8534904,45.7743437],[18.8535244,45.7744312],[18.853532,45.7745721],[18.853741,45.7747066],[18.8538764,45.7747308],[18.8540431,45.7748191],[18.8541305,45.7749396],[18.8542428,45.7749726],[18.8543434,45.7750469],[18.8543666,45.7751182],[18.8546446,45.7752993],[18.8554942,45.7755729],[18.8556457,45.7758026],[18.8557345,45.7758977],[18.8558511,45.7759764],[18.856297,45.776262],[18.8565535,45.7763873],[18.8566963,45.7764748],[18.8569033,45.7765709],[18.8570169,45.7766817],[18.8572268,45.7767866],[18.8574454,45.776912],[18.8575795,45.7770868],[18.8576844,45.777081],[18.857801,45.7771335],[18.8578826,45.7772063],[18.8579642,45.7773346],[18.8580254,45.7773258],[18.8581332,45.7774045],[18.8582207,45.7774074],[18.8583227,45.7774978],[18.8585296,45.777594],[18.8586579,45.7776785],[18.8587715,45.7776639],[18.8588444,45.7776348],[18.858891,45.7776377],[18.8589464,45.7777193],[18.8590105,45.777833],[18.8591271,45.7779175],[18.8592525,45.7779466],[18.8593632,45.7780079],[18.8594332,45.7780516],[18.8595089,45.7781099],[18.8595993,45.7781099],[18.8597363,45.7781448],[18.8598208,45.7781565],[18.8599083,45.7781827],[18.8600394,45.7782498],[18.8601881,45.7783256],[18.8602813,45.7784072],[18.8604241,45.7784684],[18.860564,45.7785237],[18.8606719,45.7786083],[18.8607535,45.7786549],[18.8608613,45.7787249],[18.8609342,45.7787744],[18.8610362,45.7787861],[18.8611557,45.7788531],[18.8612461,45.7789027],[18.8613801,45.7789405],[18.8614647,45.7790134],[18.8615346,45.7790688],[18.8615084,45.7791358],[18.8686709,45.7827039],[18.8705118,45.7839828]]]}}]}
