{"type":"FeatureCollection","features":[{"type":"Feature","properties":{"place":"hans-island","region":"GL","donors":"","rank":2,"whose_line":"the coastline (uncontested), as drawn by the US Department of State","publisher":"US Department of State, Office of the Geographer and Global Issues (World Polygons, high-resolution layer DoS_WP_11_4)","source_url":"https://data.geodata.state.gov/WorldPolygons.zip","version_or_date":"World Polygons 11.4 BETA, 2025-02-24; read 2026-10-04","feature_id":"DoS_WP_11_4 fid 126","licence":"US government work, not subject to US copyright (17 U.S.C. § 105)","notes":"Contradiction: the register says the island has been split between Canada and Denmark (Greenland) since 14 June 2022 by a 1,280 m border; the canon gives the whole island to GL. DoS 11.4 still has one 'Hans Island' polygon.","input_sha256":"55fab422ef09e35eb48d68141b9ece0ace86d4276dfe332a04dfd401c0bfc80c","operation":"none (the source feature's geometry as published)","crs":"WGS84 longitude/latitude, as in the source (no reprojection)","source_features":[{"id":"DoS_WP_11_4 fid 126","WP_Name":"Hans Island","WP_ID":"648a6d52-f25f-43d5-9a55-d71c2ef3538f","Map_Label":null,"NOTES":null,"US_Recog":null,"Show_Disp":null,"GENC_3":"XXI"}]},"geometry":{"type":"MultiPolygon","coordinates":[[[[-66.45526969999997,80.83199910000008],[-66.45081989999994,80.83172100000007],[-66.44531289999998,80.83172100000007],[-66.44494019999996,80.83172100000007],[-66.44102039999996,80.83157020000004],[-66.43574369999993,80.83081640000006],[-66.43408529999994,80.82991180000005],[-66.42594409999998,80.82885650000003],[-66.42247659999998,80.82840420000008],[-66.41870749999998,80.82795190000007],[-66.41493839999998,80.82780110000004],[-66.41132009999995,80.82644430000005],[-66.40920949999997,80.82553970000004],[-66.40845559999997,80.82433360000005],[-66.41071709999994,80.82388130000004],[-66.41162169999996,80.82297670000008],[-66.41554149999996,80.82222290000004],[-66.42096889999993,80.82146910000006],[-66.42775329999995,80.82101680000005],[-66.43272839999997,80.82101680000005],[-66.43544219999995,80.82086600000008],[-66.44132189999993,80.82056450000005],[-66.44388489999994,80.82101680000005],[-66.44531289999998,80.82090250000005],[-66.44663699999995,80.82079660000005],[-66.44765389999998,80.82071530000007],[-66.45624739999994,80.82131830000003],[-66.46182559999994,80.82161990000003],[-66.46800689999998,80.82192140000006],[-66.47464049999996,80.82267520000005],[-66.47644959999997,80.82282600000008],[-66.47871099999998,80.82327820000006],[-66.48052019999994,80.82327820000006],[-66.48308319999995,80.82357980000006],[-66.48564609999994,80.82418280000007],[-66.48685219999999,80.82523820000006],[-66.48760599999997,80.82614270000005],[-66.48745529999997,80.82704730000006],[-66.48655069999995,80.82795190000007],[-66.47886179999995,80.82976100000008],[-66.46876069999996,80.83066560000003],[-66.45881039999995,80.83141940000007],[-66.45564439999998,80.83202250000005],[-66.45526969999997,80.83199910000008]]]]}}]}
