{"type":"FeatureCollection","features":[{"type":"Feature","properties":{"place":"ilemi-triangle","region":"area/ilemi-triangle","donors":"KE;SS","rank":2,"whose_line":"the Kenya–South Sudan administrative and provisional boundaries bounding the triangle, as drawn by the US Department of State","publisher":"US Department of State, Office of the Geographer and Global Issues (World Polygons, high-resolution layer DoS_WP_11_4)","source_url":"https://data.geodata.state.gov/WorldPolygons.zip","version_or_date":"World Polygons 11.4 BETA, 2025-02-24; read 2026-10-04","feature_id":"DoS_WP_11_4 fid 135; 136","licence":"US government work, not subject to US copyright (17 U.S.C. § 105)","notes":"Union of DoS 'Ilemi Triangle (Kenya)' and 'Ilemi Triangle (South Sudan)', bounded by lines LSIB labels 'Administrative Boundary' and 'Provisional Boundary'. Rank 2 on the same reading as Bir Tawil, not verified. OpenStreetMap relation 192797 is a different line (differs by about 1,000 km²). HDX COD-AB Kenya is 'not an official administrative layer from the National authorities'.","input_sha256":"55fab422ef09e35eb48d68141b9ece0ace86d4276dfe332a04dfd401c0bfc80c","operation":"union of the 2 source features","crs":"WGS84 longitude/latitude, as in the source (no reprojection)","source_features":[{"id":"DoS_WP_11_4 fid 135","WP_Name":"Ilemi Triangle (Kenya)","WP_ID":"4c2d2828-ed36-448d-8391-bb67f381593a","Map_Label":"Ilemi Triangle","NOTES":null,"US_Recog":null,"Show_Disp":null,"GENC_3":"KEN"},{"id":"DoS_WP_11_4 fid 136","WP_Name":"Ilemi Triangle (South Sudan)","WP_ID":"d44c9409-93c4-4645-b6ce-7bf0aa5b7b34","Map_Label":null,"NOTES":null,"US_Recog":null,"Show_Disp":null,"GENC_3":"SSD"}]},"geometry":{"type":"MultiPolygon","coordinates":[[[[35.706376000000034,4.624614000000065],[35.706473000000074,4.624355000000037],[35.70652400000006,4.624242000000038],[35.70660300000003,4.624124000000052],[35.70662500000003,4.624067000000025],[35.706540000000075,4.623966000000053],[35.70647800000006,4.623915000000068],[35.70636500000006,4.62383600000004],[35.706286000000034,4.623657000000037],[35.706218000000035,4.623375000000067],[35.706214000000045,4.623203000000046],[35.706237000000044,4.623027000000036],[35.70628800000003,4.622858000000065],[35.70636100000007,4.622730000000047],[35.70642900000007,4.6226630000000455],[35.706627000000026,4.622514000000024],[35.706751000000054,4.622414000000049],[35.70681300000007,4.6222040000000675],[35.70682900000003,4.621961000000056],[35.706773000000055,4.621658000000025],[35.706728000000055,4.621501000000023],[35.706683000000055,4.6213990000000535],[35.70665400000007,4.621309000000053],[35.706563000000074,4.621269000000041],[35.70647100000008,4.621127000000058],[35.70635100000004,4.620854000000065],[35.70618500000006,4.620694000000071],[35.706019000000026,4.620527000000038],[35.70596100000006,4.620550000000037],[35.70576500000004,4.620372000000032],[35.705662000000075,4.620246000000066],[35.70548100000008,4.620020000000068],[35.70530700000006,4.619848000000047],[35.705224000000044,4.619742000000031],[35.70523500000007,4.619696000000033],[35.705291000000045,4.619690000000048],[35.70531900000003,4.619638000000066],[35.705336000000045,4.619547000000068],[35.70534200000003,4.6193830000000276],[35.705250000000035,4.619046000000026],[35.70535300000006,4.618640000000028],[35.705347000000074,4.618321000000037],[35.70518800000008,4.617955000000052],[35.70500100000004,4.617643000000044],[35.70471700000007,4.617490000000032],[35.70450600000004,4.617314000000022],[35.70429100000007,4.617099000000053],[35.70413200000007,4.616828000000055],[35.70399100000003,4.616523000000029],[35.70391300000006,4.616354000000058],[35.70373200000006,4.616157000000044],[35.703647000000046,4.616049000000032],[35.70356400000003,4.615781000000027],[35.70341900000005,4.615621000000033],[35.70336700000007,4.615419000000031],[35.70324800000003,4.615277000000049],[35.703005000000076,4.614596000000063],[35.70288400000004,4.61437600000005],[35.70276000000007,4.614226000000031],[35.70265500000005,4.614088000000038],[35.70261800000003,4.613928000000044],[35.702630000000056,4.6138480000000754],[35.702676000000054,4.613712000000021],[35.70277100000004,4.613571000000036],[35.702833000000055,4.613390000000038],[35.70284400000003,4.61320900000004],[35.70283800000004,4.612993000000074],[35.70280500000007,4.612829000000033],[35.702761000000066,4.612649000000033],[35.70267400000006,4.612340000000074],[35.702608000000055,4.612214000000051],[35.702372000000025,4.611792000000037],[35.70229400000005,4.6116740000000505],[35.70223400000003,4.611613000000034],[35.70221900000007,4.61153900000005],[35.702221000000065,4.611472000000049],[35.702282000000025,4.611315000000047],[35.702372000000025,4.611041000000057],[35.70244700000006,4.610673000000077],[35.70249300000006,4.610465000000033],[35.702600000000075,4.610153000000025],[35.702679000000046,4.609737000000052],[35.702724000000046,4.609172000000058],[35.70274100000006,4.608728000000042],[35.702739000000065,4.608414000000039],[35.70271400000007,4.608129000000076],[35.70273800000007,4.607928000000072],[35.70275600000008,4.607812000000024],[35.702728000000036,4.6077280000000655],[35.70259000000004,4.6074950000000285],[35.70256500000005,4.607394000000056],[35.70257400000003,4.607261000000051],[35.702649000000065,4.607046000000025],[35.702761000000066,4.606592000000035],[35.70286500000003,4.606236000000024],[35.70294000000007,4.60611700000004],[35.70305100000007,4.605998000000056],[35.70332600000006,4.605773000000056],[35.703738000000044,4.6054940000000215],[35.703940000000046,4.605416000000048],[35.70408400000008,4.605429000000072],[35.70421100000004,4.6054620000000455],[35.70435100000003,4.6054450000000315],[35.704469000000074,4.605385000000069],[35.70464500000003,4.6052080000000615],[35.704822000000036,4.604947000000038],[35.70500700000008,4.60463500000003],[35.705103000000065,4.604385000000036],[35.705119000000025,4.604135000000042],[35.70516300000003,4.6038990000000695],[35.70525200000003,4.603737000000024],[35.70539900000006,4.603420000000028],[35.70549500000004,4.603095000000053],[35.705553000000066,4.602565000000027],[35.70561800000007,4.602347000000066],[35.70572600000003,4.6022460000000365],[35.705932000000075,4.602085000000045],[35.706000000000074,4.601987000000065],[35.70601800000003,4.601793000000043],[35.705989000000045,4.6015330000000745],[35.705952000000025,4.601172000000076],[35.70597600000008,4.600940000000037],[35.70604000000003,4.60069500000003],[35.70616000000007,4.600449000000026],[35.70618200000007,4.600222000000031],[35.706327000000044,4.599917000000062],[35.70645100000007,4.59953500000006],[35.70649300000008,4.599240000000066],[35.70645200000007,4.599034000000074],[35.70635100000004,4.59889000000004],[35.706109000000026,4.5986500000000206],[35.705772000000024,4.598401000000024],[35.70557500000007,4.59824100000003],[35.70541300000008,4.598086000000023],[35.70531100000005,4.5979390000000535],[35.70521700000006,4.597735000000057],[35.705084000000056,4.597503000000074],[35.704894000000024,4.597278000000074],[35.70471100000003,4.597088000000042],[35.70444900000007,4.596847000000025],[35.70425400000005,4.596651000000065],[35.70410000000004,4.596441000000027],[35.70404700000006,4.596313000000066],[35.70404700000006,4.596121000000039],[35.70404600000006,4.595961000000045],[35.70421600000003,4.595267000000035],[35.704292000000066,4.594927000000041],[35.704293000000064,4.594726000000037],[35.70420700000005,4.594363000000044],[35.704176000000075,4.594035000000076],[35.70407000000006,4.593729000000053],[35.703738000000044,4.593316000000073],[35.70343100000008,4.592992000000038],[35.70294300000006,4.592650000000049],[35.70256500000005,4.592127000000062],[35.70243800000003,4.59165900000005],[35.702436000000034,4.591029000000049],[35.70245600000004,4.590202000000033],[35.70241600000003,4.588845000000049],[35.702305000000024,4.588045200000067],[35.70226260000004,4.587740800000063],[35.70208790000004,4.587802100000033],[35.69936400000006,4.588757000000044],[35.64744600000006,4.606965000000059],[35.598762900000054,4.624039500000038],[35.706313400000056,4.6246534000000565],[35.706352700000025,4.624653600000045],[35.706376000000034,4.624614000000065]]],[[[35.70631300000008,4.624721000000022],[35.706157000000076,4.624852000000033],[35.706011000000046,4.624944000000028],[35.70581800000008,4.62503700000002],[35.705741000000046,4.6251360000000545],[35.70563400000003,4.625235000000032],[35.70547600000003,4.6253280000000245],[35.705318000000034,4.62540400000006],[35.705137000000036,4.62558400000006],[35.704991000000064,4.625709000000029],[35.70491000000004,4.625885000000039],[35.70481500000005,4.626066000000037],[35.70469900000006,4.62638400000003],[35.70464700000008,4.626585000000034],[35.70465000000007,4.626742000000036],[35.704608000000064,4.6269210000000385],[35.70458000000008,4.627054000000044],[35.70458700000006,4.627230000000054],[35.704620000000034,4.627421000000027],[35.70467200000007,4.627519000000063],[35.704720000000066,4.62758400000007],[35.70465800000005,4.627789000000064],[35.70457300000004,4.62800100000004],[35.70446000000004,4.628204000000039],[35.70436500000005,4.6283240000000205],[35.70428000000004,4.628371000000072],[35.70426100000003,4.628431000000035],[35.704247000000066,4.628616000000022],[35.70426700000007,4.628863000000024],[35.70426100000003,4.629181000000074],[35.70423200000005,4.629417000000046],[35.704229000000055,4.629578000000038],[35.70426100000003,4.629910000000052],[35.70425400000005,4.63000500000004],[35.70423100000005,4.630159000000049],[35.70425300000005,4.630229000000043],[35.70432900000003,4.6303400000000465],[35.704409000000055,4.630457000000035],[35.70437100000004,4.630541000000051],[35.70426700000007,4.630700000000047],[35.70418700000005,4.630809000000056],[35.70407800000004,4.630918000000065],[35.70392700000008,4.631099000000063],[35.70388200000008,4.631222000000037],[35.703787000000034,4.631369000000063],[35.703726000000074,4.631421000000046],[35.70367900000008,4.631496000000027],[35.70363100000003,4.631628000000035],[35.70355600000005,4.631958000000054],[35.70347200000003,4.63227100000006],[35.703410000000076,4.632473000000061],[35.70334500000007,4.632784000000072],[35.703283000000056,4.633081000000061],[35.70322500000003,4.63328400000006],[35.70316200000008,4.633470000000045],[35.70314300000007,4.633602000000053],[35.70311000000004,4.633782000000053],[35.703028000000074,4.634056000000044],[35.70299400000005,4.6342500000000655],[35.70297700000003,4.6343590000000745],[35.70295200000004,4.63450000000006],[35.702960000000076,4.634591000000057],[35.702968000000055,4.634716000000026],[35.70298100000008,4.634888000000046],[35.703021000000035,4.635039000000063],[35.703077000000064,4.635172000000068],[35.70318400000008,4.635295000000042],[35.703212000000065,4.635367000000031],[35.703291000000036,4.6355100000000675],[35.703332000000046,4.635630000000049],[35.703321000000074,4.6357790000000705],[35.703306000000055,4.635899000000052],[35.70329600000008,4.635981000000072],[35.70337900000004,4.636079000000052],[35.70349700000003,4.636173000000042],[35.703603000000044,4.636279000000059],[35.703715000000045,4.636384000000021],[35.70380700000004,4.636508000000049],[35.70387600000004,4.636617000000058],[35.703963000000044,4.636683000000062],[35.70423800000003,4.6368530000000305],[35.704349000000036,4.636891000000048],[35.704507000000035,4.6369940000000724],[35.70460600000007,4.637099000000035],[35.70467800000006,4.637202000000059],[35.70472600000005,4.637259000000029],[35.70490500000005,4.637401000000068],[35.704972000000055,4.637439000000029],[35.70505000000003,4.637477000000047],[35.705182000000036,4.637544000000048],[35.705411000000026,4.637635000000046],[35.70554200000004,4.637713000000076],[35.70564900000005,4.6377670000000535],[35.70575000000008,4.637762000000066],[35.70589000000007,4.637802000000022],[35.70602400000007,4.637846000000025],[35.706154000000026,4.63783600000005],[35.70623500000005,4.63783200000006],[35.70632800000004,4.637906000000044],[35.70646700000003,4.638031000000069],[35.706525000000056,4.638060000000053],[35.70663100000007,4.638123000000064],[35.706713000000036,4.6382240000000365],[35.70682400000004,4.6383350000000405],[35.706920000000025,4.638393000000065],[35.707047000000046,4.638471000000038],[35.70716900000008,4.638626000000045],[35.707238000000075,4.638756000000058],[35.707291000000055,4.638954000000069],[35.70731500000005,4.639151000000027],[35.70732000000004,4.639271000000065],[35.70737400000007,4.639414000000045],[35.70743200000004,4.639558000000022],[35.707456000000036,4.639741000000072],[35.70747000000006,4.639841000000047],[35.70750400000003,4.639980000000037],[35.707591000000036,4.640105000000062],[35.707730000000026,4.640278000000023],[35.70787500000006,4.6403850000000375],[35.70797600000003,4.640423000000055],[35.70798400000007,4.640578000000062],[35.707940000000065,4.640729000000022],[35.70788700000003,4.640892000000065],[35.70782400000007,4.641012000000046],[35.70775700000007,4.64107400000006],[35.70767100000006,4.6411730000000375],[35.70767600000005,4.641268000000025],[35.707643000000076,4.641421000000037],[35.70758100000006,4.641516000000024],[35.70746100000008,4.641640000000052],[35.70738400000005,4.641683000000057],[35.70729800000004,4.641712000000041],[35.70719100000008,4.641847000000041],[35.70710400000007,4.6419630000000325],[35.70706500000006,4.642045000000053],[35.70704100000006,4.642117000000042],[35.707013000000074,4.642358000000058],[35.70702200000005,4.642513000000065],[35.70703200000003,4.6427490000000375],[35.70705600000008,4.642927000000043],[35.70701900000006,4.643036000000052],[35.706968000000074,4.643180000000029],[35.70700900000003,4.64367500000003],[35.70700900000003,4.643829000000039],[35.70707100000004,4.643942000000038],[35.70704000000006,4.644198000000074],[35.706945000000076,4.644314000000065],[35.706773000000055,4.644464000000028],[35.70658600000007,4.644759000000022],[35.70643200000006,4.644967000000065],[35.706124000000045,4.645283000000063],[35.70602100000008,4.645318000000032],[35.70594100000005,4.645346000000075],[35.705862000000025,4.645512000000053],[35.70583700000003,4.645685000000071],[35.705782000000056,4.646045000000072],[35.70573900000005,4.646338000000071],[35.70575300000007,4.64655300000004],[35.70573900000005,4.646718000000021],[35.70568100000003,4.646941000000027],[35.70564000000007,4.64761100000004],[35.70570300000003,4.647835000000043],[35.70569400000005,4.64798200000007],[35.70565700000003,4.648177000000032],[35.705621000000065,4.648241000000041],[35.70557800000006,4.648320000000069],[35.70555000000007,4.648529000000053],[35.705580000000054,4.648714000000041],[35.70563800000008,4.648843000000056],[35.705682000000024,4.64895000000007],[35.70566300000007,4.649127000000021],[35.70560000000006,4.649259000000029],[35.70549200000005,4.649438000000032],[35.70543300000003,4.649630000000059],[35.70535200000006,4.649859000000049],[35.705279000000075,4.649952000000042],[35.70525100000003,4.65002400000003],[35.705272000000036,4.650139000000024],[35.705336000000045,4.650311000000045],[35.70538600000003,4.65044800000004],[35.70544400000006,4.650548000000072],[35.70567200000005,4.650842000000068],[35.70585100000005,4.651094000000057],[35.70600200000007,4.651304000000039],[35.70617100000004,4.6515340000000265],[35.70632500000005,4.651800000000037],[35.706484000000046,4.6519870000000765],[35.70651400000003,4.652094000000034],[35.706480000000056,4.652193000000068],[35.706612000000064,4.652435000000025],[35.706691000000035,4.652441000000067],[35.706777000000045,4.652547000000027],[35.70690700000006,4.652704000000028],[35.70704400000005,4.652802000000065],[35.70733000000007,4.652979000000073],[35.707595000000026,4.653070000000071],[35.707760000000064,4.653100000000052],[35.70797600000003,4.653005000000064],[35.708296000000075,4.653070000000071],[35.70854500000007,4.653085000000033],[35.70870000000008,4.653132000000028],[35.70897800000006,4.653301000000056],[35.70912800000008,4.6535010000000625],[35.70924100000008,4.6537060000000565],[35.70942800000006,4.653863000000058],[35.70970500000004,4.654046000000051],[35.70991800000007,4.654186000000038],[35.71010400000006,4.654334000000063],[35.71023900000006,4.6544470000000615],[35.71043400000008,4.654562000000055],[35.71068500000007,4.654675000000054],[35.71100800000005,4.6548250000000735],[35.71128100000004,4.654974000000038],[35.71154700000005,4.655151000000046],[35.711843000000044,4.65526200000005],[35.71211900000003,4.655354000000045],[35.71225400000003,4.655361000000028],[35.71243000000004,4.65531900000002],[35.71249500000005,4.65531900000002],[35.712571000000025,4.65531900000002],[35.712661000000026,4.6552690000000325],[35.71277200000003,4.655263000000048],[35.712973000000034,4.655339000000026],[35.713216000000045,4.655500000000075],[35.713441000000046,4.655603000000042],[35.713613000000066,4.655733000000055],[35.71380000000005,4.655824000000052],[35.71393400000005,4.655928000000074],[35.71398300000004,4.656037000000026],[35.71409200000005,4.656436000000042],[35.714166000000034,4.6566870000000335],[35.71423100000004,4.656839000000048],[35.71424600000006,4.657130000000052],[35.71428700000007,4.6573210000000245],[35.71427700000004,4.6575070000000665],[35.714211000000034,4.657660000000021],[35.714094000000046,4.657845000000066],[35.71403400000003,4.658057000000042],[35.714035000000024,4.65823400000005],[35.71402500000005,4.658448000000021],[35.71402500000005,4.658719000000076],[35.71409700000004,4.659027000000037],[35.71418300000005,4.659357000000057],[35.71425500000004,4.659681000000035],[35.71427900000003,4.659985000000063],[35.714289000000065,4.660312000000033],[35.71434000000005,4.660586000000023],[35.714356000000066,4.660952000000066],[35.71434100000005,4.6612890000000675],[35.714327000000026,4.661396000000025],[35.71427600000004,4.661627000000067],[35.71427100000005,4.66180300000002],[35.714282000000026,4.661934000000031],[35.71430200000003,4.662060000000054],[35.71436300000005,4.66222700000003],[35.71444400000007,4.662363000000028],[35.71455600000007,4.662468000000047],[35.714642000000026,4.662514000000044],[35.71469200000007,4.662604000000044],[35.71479300000004,4.662734000000057],[35.71488300000004,4.662850000000049],[35.714913000000024,4.662951000000021],[35.714913000000024,4.66305200000005],[35.714913000000024,4.663128000000029],[35.71496900000005,4.663224000000071],[35.71502400000003,4.6633410000000595],[35.71507500000007,4.663530000000037],[35.715085000000045,4.663735000000031],[35.715141000000074,4.663965000000076],[35.71514600000006,4.664155000000051],[35.71522200000004,4.664504000000022],[35.71524800000003,4.664770000000033],[35.71521500000006,4.665434000000062],[35.715253000000075,4.665704000000062],[35.71526600000004,4.666084000000069],[35.715288000000044,4.666344000000038],[35.71535000000006,4.666564000000051],[35.71548500000006,4.666938000000073],[35.71556400000003,4.667252000000076],[35.71560900000003,4.66756300000003],[35.71561200000008,4.667782000000045],[35.715566000000024,4.667869000000053],[35.715332000000046,4.668150000000026],[35.715318000000025,4.668210000000045],[35.715325000000064,4.668322000000046],[35.715388000000075,4.668423000000075],[35.71556300000003,4.668591000000049],[35.71566000000007,4.668771000000049],[35.71575900000005,4.668905000000052],[35.71583400000003,4.669012000000066],[35.716026000000056,4.66921300000007],[35.71621200000004,4.669373000000064],[35.71632800000003,4.669550000000072],[35.71645900000004,4.669697000000042],[35.71656600000006,4.669895000000054],[35.71663200000006,4.670084000000031],[35.71672300000006,4.67020100000002],[35.71684300000004,4.670276000000058],[35.71711700000003,4.670413000000053],[35.71728100000007,4.67057200000005],[35.71748400000007,4.670841000000053],[35.71774300000004,4.671104000000071],[35.71808000000004,4.671388000000036],[35.71834400000006,4.6715730000000235],[35.71873000000005,4.671802000000071],[35.71904400000005,4.67200200000002],[35.71929300000005,4.672127000000046],[35.71948900000007,4.672168000000056],[35.71970300000004,4.672165000000064],[35.71989800000006,4.67214800000005],[35.720094000000074,4.672101000000055],[35.720177000000035,4.672131000000036],[35.72023800000005,4.67223400000006],[35.720341000000076,4.672331000000042],[35.720429000000024,4.672424000000035],[35.72055800000004,4.672496000000024],[35.72066700000005,4.672531000000049],[35.720897000000036,4.6726410000000556],[35.72111600000005,4.672704000000067],[35.72126700000007,4.672730000000058],[35.72151700000006,4.6727030000000696],[35.72166900000008,4.672635000000071],[35.721825000000024,4.672499000000073],[35.72195100000005,4.6724720000000275],[35.72210700000005,4.672452000000021],[35.72221600000006,4.67247500000002],[35.72240500000004,4.672588000000076],[35.722564000000034,4.672702000000072],[35.722795000000076,4.672828000000038],[35.722976000000074,4.672888000000057],[35.72312500000004,4.6729440000000295],[35.72337300000004,4.6730550000000335],[35.72354700000005,4.673103000000026],[35.72369100000003,4.673111000000063],[35.72381000000007,4.6730830000000765],[35.723960000000034,4.6729910000000245],[35.72401200000007,4.672933000000057],[35.72407300000003,4.6728610000000685],[35.72419700000006,4.67279300000007],[35.72429500000004,4.672701000000075],[35.724410000000034,4.672604000000035],[35.724563000000046,4.672530000000052],[35.72511500000007,4.672477000000072],[35.72522600000008,4.672404000000029],[35.725329000000045,4.672223000000031],[35.72557000000006,4.672121000000061],[35.72574800000007,4.672024000000022],[35.726653000000056,4.6716970000000515],[35.72697100000005,4.6717290000000276],[35.72734400000007,4.671715000000063],[35.72757100000007,4.6717460000000415],[35.72779900000006,4.671827000000064],[35.72797700000007,4.671956000000023],[35.72821300000004,4.672288000000037],[35.72858700000006,4.6726900000000455],[35.72895100000005,4.673256000000038],[35.72920800000003,4.673600000000022],[35.72942400000005,4.673934000000031],[35.729464000000064,4.674160000000029],[35.72945400000003,4.674523000000022],[35.729415000000074,4.674956000000066],[35.729460000000074,4.675170000000037],[35.72951400000005,4.675460000000044],[35.72950600000007,4.675719000000072],[35.729422000000056,4.676077000000021],[35.729299000000026,4.676443000000063],[35.729277000000025,4.676665000000071],[35.72935300000006,4.676932000000022],[35.729475000000036,4.6771830000000705],[35.729621000000066,4.677351000000044],[35.729858000000036,4.677641000000051],[35.73001100000005,4.677854000000025],[35.73015700000008,4.678137000000049],[35.73037100000005,4.678472000000056],[35.73062300000004,4.678701000000046],[35.73108200000007,4.678945000000056],[35.73153400000007,4.679204000000027],[35.73173500000007,4.679270000000031],[35.732087000000035,4.67938300000003],[35.73229300000003,4.679495000000031],[35.73242600000003,4.679621000000054],[35.73264500000005,4.679972000000021],[35.732898000000034,4.6802110000000425],[35.733104000000026,4.680350000000033],[35.73336900000004,4.680462000000034],[35.73372800000004,4.68053500000002],[35.73417800000004,4.680562000000066],[35.73454400000003,4.680610000000058],[35.73512100000005,4.68076300000007],[35.73551900000007,4.680831000000069],[35.73604900000004,4.6808900000000335],[35.73635600000006,4.680916000000025],[35.736822000000075,4.680958000000032],[35.73694900000004,4.6809370000000285],[35.73709800000006,4.68086900000003],[35.73720400000008,4.680705000000046],[35.73728100000005,4.68048200000004],[35.73754900000006,4.680014000000028],[35.73770300000007,4.679806000000042],[35.73778500000003,4.679680000000076],[35.73792300000008,4.679454000000021],[35.73805600000003,4.67937500000005],[35.73814900000008,4.679304000000059],[35.738252000000045,4.679212000000064],[35.73833700000006,4.679061000000047],[35.73839900000007,4.678925000000049],[35.73847400000005,4.678822000000025],[35.73858100000007,4.678750000000036],[35.73871800000006,4.678668000000073],[35.738800000000026,4.678593000000035],[35.73891000000003,4.678463000000022],[35.73902300000003,4.6783810000000585],[35.739163000000076,4.6783060000000205],[35.73928700000005,4.678238000000022],[35.73943600000007,4.678133000000059],[35.73954900000007,4.6780820000000745],[35.73972100000003,4.678034000000025],[35.739865000000066,4.678007000000036],[35.740012000000036,4.677993000000072],[35.740125000000035,4.677993000000072],[35.740207000000055,4.677976000000058],[35.740297000000055,4.677918000000034],[35.740379000000075,4.67784000000006],[35.74044800000007,4.677744000000075],[35.740512000000024,4.677676000000076],[35.74061900000004,4.677638000000059],[35.740766000000065,4.677601000000038],[35.74097500000005,4.677583000000027],[35.74114700000007,4.67761100000007],[35.741363000000035,4.677662000000055],[35.74157500000007,4.67775400000005],[35.74165100000005,4.677864000000056],[35.74175400000007,4.6779110000000514],[35.74185600000004,4.677940000000035],[35.74203400000005,4.6780670000000555],[35.742151000000035,4.678186000000039],[35.74227100000007,4.678275000000042],[35.742545000000064,4.67845600000004],[35.742785000000026,4.678569000000039],[35.743220000000065,4.6787570000000755],[35.74339500000008,4.6788420000000315],[35.74354200000005,4.678982000000076],[35.74369000000007,4.6790940000000205],[35.74388200000004,4.679224000000033],[35.744170000000054,4.679402000000039],[35.74433800000003,4.679525000000069],[35.74447500000008,4.6796580000000745],[35.74461900000006,4.679860000000076],[35.74474200000003,4.680133000000069],[35.744849000000045,4.680362000000059],[35.74497000000008,4.680567000000053],[35.74506700000006,4.6806510000000685],[35.74535000000003,4.680782000000022],[35.745637000000045,4.680908000000045],[35.745866000000035,4.680946000000063],[35.74598000000003,4.680971000000056],[35.74624200000005,4.681009000000074],[35.746542000000034,4.681081000000063],[35.74684200000007,4.681165000000021],[35.74703200000005,4.681216000000063],[35.747231000000056,4.681287000000054],[35.74739600000004,4.681254000000024],[35.74785700000007,4.6812660000000506],[35.74844400000006,4.681279000000075],[35.748834000000045,4.681244000000049],[35.74929400000008,4.681169000000068],[35.74945100000008,4.681089000000043],[35.74971300000004,4.680848000000026],[35.74992000000003,4.68071800000007],[35.750305000000026,4.680562000000066],[35.75056200000006,4.680415000000039],[35.750778000000025,4.680318000000057],[35.75098900000006,4.680111000000068],[35.75120500000003,4.679804000000047],[35.751239000000055,4.67969800000003],[35.751307000000054,4.679631000000029],[35.75135700000004,4.679496000000029],[35.75147500000003,4.6793910000000665],[35.75153900000004,4.679269000000033],[35.75161500000007,4.6792180000000485],[35.751941000000045,4.679151000000047],[35.752181000000064,4.679080000000056],[35.752342000000056,4.679008000000067],[35.75251000000003,4.678979000000027],[35.752616000000046,4.678987000000063],[35.752789000000064,4.679029000000071],[35.75306000000006,4.67910500000005],[35.75322900000003,4.679114000000027],[35.753390000000024,4.679063000000042],[35.75353400000006,4.6790000000000305],[35.753626000000054,4.678945000000056],[35.753716000000054,4.678923000000054],[35.753873000000056,4.67891000000003],[35.754084000000034,4.678897000000063],[35.75429500000007,4.678920000000062],[35.754459000000054,4.6789170000000695],[35.75465000000003,4.6789530000000354],[35.75471900000008,4.678992000000051],[35.754864000000055,4.679041000000041],[35.755003000000045,4.67909700000007],[35.75512900000007,4.6791690000000585],[35.755198000000064,4.679225000000031],[35.75528600000007,4.679366000000073],[35.755348000000026,4.67951800000003],[35.75541700000008,4.679620000000057],[35.75551800000005,4.679736000000048],[35.755592000000036,4.6797880000000305],[35.755705000000034,4.679853000000037],[35.75574100000006,4.679894000000047],[35.755805000000066,4.6799910000000295],[35.75589300000007,4.680045000000064],[35.75594700000005,4.680112000000065],[35.75600900000006,4.680184000000054],[35.75606800000003,4.680222000000072],[35.75614000000007,4.680248000000063],[35.75631500000003,4.680255000000045],[35.756436000000065,4.680271000000062],[35.75653100000005,4.680345000000045],[35.75662100000005,4.680394000000035],[35.75676200000004,4.680421000000024],[35.75690700000007,4.680449000000067],[35.757066000000066,4.680439000000035],[35.75722100000007,4.680526000000043],[35.75730600000003,4.680534000000023],[35.75736500000005,4.680549000000042],[35.75765300000006,4.680506000000037],[35.75772500000005,4.680511000000024],[35.75783800000005,4.680578000000025],[35.75802600000003,4.680570000000046],[35.75812700000006,4.680606000000068],[35.758323000000075,4.680621000000031],[35.758395000000064,4.680575000000033],[35.75871900000004,4.6805420000000595],[35.75917400000003,4.680526000000043],[35.75974300000007,4.680616000000043],[35.76014100000003,4.680717000000072],[35.76046400000007,4.680737000000022],[35.760676000000046,4.680787000000066],[35.76102400000008,4.680883000000051],[35.761412000000064,4.680948000000058],[35.76173400000005,4.681028000000026],[35.76228900000007,4.681179000000043],[35.762849000000074,4.681395000000066],[35.76322700000003,4.681601000000057],[35.763450000000034,4.681691000000058],[35.763772000000074,4.681877000000043],[35.76428100000004,4.682073000000059],[35.764463000000035,4.6821990000000255],[35.764695000000074,4.682319000000064],[35.76499700000005,4.682520000000068],[35.76516300000003,4.68262100000004],[35.765239000000065,4.682741000000021],[35.76552200000003,4.682963000000029],[35.76568800000007,4.683123000000023],[35.76594000000006,4.683244000000059],[35.76629800000006,4.6837110000000735],[35.766575000000046,4.68401300000005],[35.76673600000004,4.684093000000075],[35.76703900000007,4.684113000000025],[35.767183000000045,4.6842790000000605],[35.76720300000005,4.684419000000048],[35.76730900000007,4.684545000000071],[35.76743000000005,4.684585000000027],[35.76751000000007,4.6846910000000435],[35.76778800000005,4.684821000000056],[35.76801000000006,4.684957000000054],[35.76826200000005,4.685158000000058],[35.76853900000003,4.685273000000052],[35.768886000000066,4.685369000000037],[35.769078000000036,4.685374000000024],[35.769259000000034,4.685314000000062],[35.76940100000007,4.685253000000046],[35.76949700000006,4.685233000000039],[35.76967300000007,4.6850670000000605],[35.76983400000006,4.684962000000041],[35.77007100000003,4.684856000000025],[35.770253000000025,4.684726000000069],[35.770399000000054,4.684575000000052],[35.77052000000003,4.684354000000042],[35.77065100000004,4.684253000000069],[35.77086300000008,4.684088000000031],[35.77099400000003,4.683975000000032],[35.771176000000025,4.683678000000043],[35.77133200000003,4.68346200000002],[35.771453000000065,4.683161000000041],[35.77155400000004,4.682885000000056],[35.77158900000006,4.682714000000033],[35.77159400000005,4.68243700000005],[35.77166500000004,4.682116000000065],[35.77173600000003,4.681809000000044],[35.77174100000008,4.681528000000071],[35.77179600000005,4.681242000000054],[35.77192700000006,4.680925000000059],[35.77213900000004,4.680523000000051],[35.77238100000005,4.680156000000068],[35.77257700000007,4.679870000000051],[35.77279600000003,4.67964900000004],[35.772917000000064,4.6795490000000655],[35.77311400000008,4.679373000000055],[35.773371000000054,4.679222000000038],[35.77362300000004,4.679202000000032],[35.77380400000004,4.67914200000007],[35.77395100000007,4.679106000000047],[35.774369000000036,4.67918700000007],[35.77445000000006,4.67918700000007],[35.77453500000007,4.67918700000007],[35.77466100000004,4.679257000000064],[35.774812000000054,4.679257000000064],[35.77497400000004,4.6793120000000386],[35.775049000000024,4.67933800000003],[35.775145000000066,4.6793120000000386],[35.775206000000026,4.679257000000064],[35.77531600000003,4.679237000000057],[35.775659000000076,4.679247000000032],[35.775735000000054,4.67923200000007],[35.775821000000064,4.679207000000076],[35.775896000000046,4.67927700000007],[35.77598700000004,4.679292000000032],[35.77608900000007,4.679307000000051],[35.77615000000003,4.679283000000055],[35.77626300000003,4.679307000000051],[35.776388000000054,4.6793160000000285],[35.77648500000004,4.67928100000006],[35.77654600000005,4.679229000000021],[35.77661900000004,4.67923600000006],[35.77668500000004,4.679253000000074],[35.776763000000074,4.67924800000003],[35.77681700000005,4.6792200000000435],[35.77688800000004,4.67923600000006],[35.77697000000006,4.679241000000047],[35.77699700000005,4.679217000000051],[35.77697500000005,4.679189000000065],[35.77698700000008,4.679168000000061],[35.77703400000007,4.679159000000027],[35.777131000000054,4.67910500000005],[35.77720400000004,4.679102000000057],[35.77724400000005,4.679077000000063],[35.77729800000003,4.679072000000076],[35.77734300000003,4.679058000000055],[35.77737900000005,4.679020000000037],[35.77747000000005,4.678982000000076],[35.77753700000005,4.678961000000072],[35.77762400000006,4.67891000000003],[35.77769200000006,4.678860000000043],[35.77772700000003,4.678809000000058],[35.77776000000006,4.67877100000004],[35.777810000000045,4.678745000000049],[35.77790700000003,4.6787310000000275],[35.77798900000005,4.678747000000044],[35.77817200000004,4.678760000000068],[35.77845300000007,4.678772000000038],[35.77879900000005,4.678833000000054],[35.77882800000003,4.678845000000024],[35.77906400000006,4.678946000000053],[35.77916000000005,4.679040000000043],[35.77925700000003,4.679080000000056],[35.779356000000064,4.679092000000026],[35.77954200000005,4.679141000000072],[35.77969800000005,4.679247000000032],[35.77991300000008,4.679350000000056],[35.780005000000074,4.679350000000056],[35.78008300000005,4.679352000000051],[35.780182000000025,4.679381000000035],[35.78029300000003,4.679451000000029],[35.78039700000005,4.679538000000036],[35.78042000000005,4.67960400000004],[35.780508000000054,4.679695000000038],[35.78056200000003,4.679773000000068],[35.780703000000074,4.679827000000046],[35.78080300000005,4.679852000000039],[35.781038000000024,4.653095000000064],[35.781285000000025,4.625081000000023],[35.706352700000025,4.624653600000045],[35.70635250000004,4.624654000000021],[35.70631300000008,4.624721000000022]]],[[[34.435196000000076,4.646836000000064],[34.49669000000006,4.678294000000051],[34.54890000000006,4.705003000000033],[34.59897900000004,4.730621000000042],[34.656476000000055,4.760034000000076],[34.70420700000005,4.77793900000006],[34.75658400000003,4.797587000000021],[34.812253000000055,4.8184700000000475],[34.867540000000076,4.839210000000037],[34.92075900000003,4.859174000000053],[34.973366000000055,4.878908000000024],[35.027810000000045,4.899332000000072],[35.08420000000007,4.920486000000039],[35.13670700000006,4.942266000000075],[35.19281100000006,4.965538000000038],[35.24482000000006,4.987113000000022],[35.264068000000066,4.943973000000028],[35.31851500000005,4.977742000000035],[35.36636000000004,5.007415000000037],[35.40829100000008,5.033421000000033],[35.41434200000003,5.031423000000075],[35.42943500000007,5.0066170000000625],[35.426754000000074,4.997229000000061],[35.424446000000046,4.993944000000056],[35.38791400000008,4.917136000000028],[35.47002900000007,4.9295660000000225],[35.53856300000007,4.915512000000035],[35.561451000000034,4.918177000000071],[35.56608600000004,4.8979550000000245],[35.545034000000044,4.851739000000066],[35.51940300000007,4.7954690000000255],[35.52183300000007,4.760028000000034],[35.54684600000007,4.714994000000047],[35.57222100000007,4.669308000000058],[35.59702500000003,4.6246490000000335],[35.59876140000006,4.624040000000036],[35.598762900000054,4.624039500000038],[34.37700240000004,4.61706700000002],[34.37700200000006,4.61706700000002],[34.435196000000076,4.646836000000064]]]]}}]}
