{"type":"FeatureCollection","features":[{"type":"Feature","properties":{"place":"kalapani","region":"IN","donors":"NP","rank":3,"whose_line":"OpenStreetMap mappers: the extent of Nepal's claim beyond India's line","publisher":"OpenStreetMap contributors","source_url":"https://www.openstreetmap.org/relation/13559363","version_or_date":"snapshot 2026-10-04T06:57:51Z (Overpass attic query); relation 13559363 v20 (2026-10-02T12:31:36Z)","feature_id":"relation 13559363","licence":"ODbL 1.0","notes":"Two parties, two lines: Nepal's claim and India's line; neither found as data. HDX COD-AB Nepal (Survey Department) does not follow Nepal's claim (it holds 66 of these 410 km²). DoS's 'Kalapani' (60 km²) is DoS's own line, not agreed, so not rank 2. Natural Earth's 'Near Om Parvat' (60 km²) is a different, smaller object.","input_sha256":"1838423be70b3ca5632ef5eaec9e63dbcc02882905378bd38723d4f9e6125ed7","operation":"assembled from the OSM element's member ways (outer minus inner)","crs":"WGS84 longitude/latitude, as in the source (no reprojection)","source_features":[{"id":"relation 13559363 v20","osm":"relation/13559363","version":20,"timestamp":"2026-10-02T12:31:36Z","name":"Extent of Nepalese Claims at Kalapani Territory","boundary":"disputed","claimed_by":"NP","disputed_by":"IN"}]},"geometry":{"type":"Polygon","coordinates":[[[81.0292345,30.2344037],[81.0290542,30.2339326],[81.0285145,30.2329056],[81.02727,30.231065],[81.026672,30.22957],[81.026416,30.228288],[81.02633,30.227219],[81.02663,30.226536],[81.029492,30.226151],[81.029962,30.225639],[81.030048,30.224485],[81.029535,30.220426],[81.029791,30.219528],[81.030347,30.219272],[81.034748,30.218204],[81.035474,30.217819],[81.036073,30.216665],[81.036671,30.216153],[81.0378838,30.215572],[81.0397257,30.2152838],[81.0408354,30.2145354],[81.0413267,30.2139027],[81.0416908,30.2131996],[81.042268,30.212222],[81.042738,30.211538],[81.043251,30.211239],[81.044448,30.210897],[81.044789,30.210512],[81.044362,30.205812],[81.044063,30.205043],[81.039406,30.20265],[81.03838,30.202223],[81.034449,30.201625],[81.03415,30.201155],[81.034107,30.200727],[81.034663,30.200215],[81.035126,30.199795],[81.035178,30.199682],[81.035532,30.19883],[81.035541,30.198751],[81.035344,30.198289],[81.035204,30.198],[81.035143,30.197909],[81.034768,30.197529],[81.0315878,30.1964691],[81.028871,30.1950075],[81.02783,30.194932],[81.0261271,30.1951419],[81.0216358,30.19558],[81.0135,30.1939163],[81.0072722,30.1913189],[80.9995681,30.1902962],[80.9967046,30.1869708],[80.9957341,30.1862708],[80.9885839,30.185921],[80.9707482,30.1900505],[80.9703294,30.1883782],[80.9651939,30.1858701],[80.9554966,30.1842431],[80.9494237,30.1829395],[80.9438576,30.1801352],[80.9400021,30.1776708],[80.9351044,30.1779252],[80.9320094,30.177166],[80.9282386,30.1753405],[80.9202383,30.1818437],[80.9162946,30.1871041],[80.9172248,30.1937311],[80.9167528,30.195326],[80.9155052,30.1962933],[80.9147469,30.1969234],[80.9143816,30.2043678],[80.9146499,30.2071949],[80.9148001,30.2079366],[80.9144783,30.2090307],[80.914253,30.2101897],[80.9141993,30.2110612],[80.9138989,30.2119884],[80.913341,30.2127301],[80.9122145,30.2136758],[80.9109163,30.2152055],[80.9100687,30.2170876],[80.9098112,30.2179776],[80.9089529,30.2186266],[80.9081188,30.2188444],[80.9075019,30.2192268],[80.9071586,30.2195374],[80.9063566,30.2197159],[80.9061286,30.2193508],[80.9058201,30.2190646],[80.9053266,30.2188317],[80.9048948,30.2181839],[80.9046064,30.218057],[80.9044026,30.2179787],[80.9036958,30.2173419],[80.903606,30.2168002],[80.9028281,30.2159194],[80.9028134,30.2154234],[80.9025659,30.2146968],[80.9023949,30.2143781],[80.9021334,30.2141706],[80.9020342,30.2139701],[80.9017365,30.2137963],[80.9004215,30.2137239],[80.899136,30.2131681],[80.8989068,30.2130812],[80.8978172,30.2129325],[80.8968793,30.212364],[80.8959853,30.2113026],[80.8952385,30.2092431],[80.8949816,30.2082069],[80.8943188,30.2061679],[80.8924496,30.2048588],[80.8910888,30.203746],[80.8905739,30.202322],[80.8899217,30.201877],[80.8896814,30.2008831],[80.8869266,30.1967571],[80.883907,30.1946885],[80.8840518,30.1912999],[80.8856308,30.1880065],[80.881747,30.1831158],[80.8801753,30.1809444],[80.8754896,30.1790007],[80.8741509,30.1775912],[80.8670452,30.1750094],[80.8654146,30.1721309],[80.8641011,30.1705641],[80.8625229,30.169295],[80.8623646,30.1694755],[80.8619482,30.1697456],[80.8616382,30.1700397],[80.8614444,30.1703292],[80.8613131,30.170639],[80.8611824,30.1708148],[80.8608946,30.1710268],[80.859561,30.1718642],[80.8592932,30.1720632],[80.8590924,30.1723317],[80.8588266,30.1728147],[80.85875,30.1732626],[80.8585834,30.1735797],[80.8584318,30.1737503],[80.8581964,30.1738522],[80.857914,30.1739309],[80.8577693,30.1740459],[80.8576696,30.1742254],[80.857557,30.1744384],[80.8574192,30.174667],[80.856779,30.1753252],[80.8564567,30.1756558],[80.8559185,30.1762449],[80.8558162,30.1764284],[80.8557205,30.176712],[80.8551049,30.1772162],[80.8549939,30.1773844],[80.8549789,30.1775605],[80.8550552,30.1778946],[80.8550862,30.1781855],[80.8550446,30.1784545],[80.854944,30.1787188],[80.8547348,30.1789704],[80.8545068,30.179128],[80.8541353,30.1792706],[80.8539733,30.1795255],[80.8539186,30.1797649],[80.8539998,30.1800242],[80.8540213,30.1801448],[80.85415,30.1803488],[80.8542573,30.1805714],[80.8542895,30.1807105],[80.8543432,30.1808218],[80.8543646,30.1809609],[80.8543339,30.1810907],[80.8543646,30.1812206],[80.8543324,30.1813319],[80.8542573,30.1814339],[80.8538333,30.1819414],[80.8526234,30.1827407],[80.8515036,30.1834805],[80.8512103,30.1836598],[80.8504379,30.184244],[80.8502734,30.1843739],[80.850091,30.1845686],[80.8500766,30.1848684],[80.8500432,30.1850027],[80.8499443,30.1851529],[80.8498335,30.1852024],[80.8497083,30.1852302],[80.8495688,30.1852209],[80.8491719,30.1852178],[80.8488894,30.1854311],[80.8486747,30.1855918],[80.8484495,30.1857588],[80.8483136,30.1864327],[80.8482313,30.1866506],[80.8480883,30.1868284],[80.8476305,30.1874003],[80.8474695,30.187629],[80.8471584,30.1878701],[80.8470261,30.1880773],[80.84674,30.1883276],[80.8463538,30.18851],[80.8461535,30.1885564],[80.8458352,30.1887079],[80.8455884,30.1888222],[80.8453738,30.1890448],[80.8451665,30.1892118],[80.8449447,30.189391],[80.8447409,30.1897342],[80.8445156,30.1900217],[80.8444297,30.1901144],[80.844022,30.1904204],[80.8434212,30.1908192],[80.8432281,30.1910047],[80.842756,30.1912272],[80.8424985,30.1913292],[80.8421659,30.191524],[80.8419943,30.1917002],[80.8416831,30.1921175],[80.8415759,30.1921824],[80.8410287,30.1923215],[80.8409107,30.1923771],[80.8408034,30.1924699],[80.8407283,30.1925719],[80.8406854,30.1926831],[80.8406639,30.192915],[80.8405566,30.1932952],[80.8401596,30.1936661],[80.8396125,30.1936661],[80.8394945,30.1937403],[80.8393335,30.1940185],[80.8391726,30.1943987],[80.8391511,30.1948345],[80.8392155,30.1950664],[80.8392155,30.1951776],[80.8391404,30.1952704],[80.8390331,30.1953724],[80.838958,30.1954651],[80.8387327,30.1958082],[80.8385932,30.1961142],[80.838561,30.1962626],[80.8381319,30.1974495],[80.8379602,30.1977834],[80.8378959,30.1978946],[80.8378422,30.1980152],[80.8378208,30.1983954],[80.8376491,30.198859],[80.8375633,30.1989425],[80.8373272,30.1991001],[80.8373272,30.1992299],[80.8372307,30.1994525],[80.8371878,30.1996935],[80.837177,30.2000459],[80.8371448,30.2001757],[80.8370483,30.2002592],[80.8368122,30.2003704],[80.8363616,30.2004632],[80.8361578,30.2006208],[80.8359647,30.2008155],[80.8357072,30.2011493],[80.834527,30.2021044],[80.8336944,30.2030145],[80.8331859,30.2035045],[80.833025,30.2037178],[80.8328426,30.2038847],[80.8326816,30.2042],[80.8326816,30.204441],[80.8326924,30.2047007],[80.8328962,30.2053126],[80.8328962,30.2054332],[80.8325406,30.2056929],[80.8324242,30.2057392],[80.8323169,30.2058133],[80.8322096,30.2059061],[80.8320057,30.20611],[80.8318126,30.2063511],[80.8311903,30.2066571],[80.8305359,30.207269],[80.8304071,30.2072876],[80.8301175,30.2072876],[80.8298385,30.2072505],[80.8289695,30.207232],[80.8288616,30.2072931],[80.8288085,30.2074267],[80.828712,30.2075194],[80.828594,30.2075843],[80.8282184,30.2077048],[80.8281326,30.2080479],[80.8279824,30.2082426],[80.8277571,30.2083724],[80.8275103,30.2084651],[80.827285,30.2086042],[80.8272099,30.2086969],[80.8272099,30.208836],[80.8270383,30.2092069],[80.8270168,30.2095685],[80.8270275,30.210134],[80.827049,30.2102453],[80.8271563,30.2104771],[80.8271563,30.2105884],[80.8271027,30.2107089],[80.8270275,30.2108109],[80.8268237,30.2109592],[80.8266199,30.2111725],[80.8262551,30.2117937],[80.8261692,30.2120533],[80.8257294,30.2125632],[80.8253968,30.2134625],[80.8253753,30.2135831],[80.825386,30.2141023],[80.8253539,30.2142135],[80.8252573,30.2143062],[80.8251178,30.2143248],[80.8249891,30.2143619],[80.8249247,30.2144638],[80.8248711,30.2145844],[80.8246887,30.2148718],[80.8243132,30.2152148],[80.8241844,30.2153168],[80.8236158,30.2156135],[80.8233154,30.2159194],[80.8232403,30.2160214],[80.8230793,30.2162161],[80.8226609,30.2165591],[80.8221996,30.2170876],[80.822103,30.2173657],[80.8221352,30.217616],[80.8221888,30.2177273],[80.8222532,30.2179776],[80.8222532,30.2181074],[80.8221781,30.2185153],[80.8220816,30.2187471],[80.8219421,30.2189418],[80.8218884,30.2190623],[80.8215344,30.2197761],[80.8211803,30.2203139],[80.8210838,30.2204344],[80.8208585,30.2206291],[80.8207297,30.2206847],[80.820483,30.2207588],[80.8203542,30.2208145],[80.8201396,30.2209721],[80.8200538,30.2210648],[80.8198821,30.2213985],[80.81985,30.2215283],[80.81985,30.22227],[80.8195817,30.2227057],[80.8193564,30.2229838],[80.8192921,30.2230858],[80.8191311,30.2232712],[80.8189702,30.2235771],[80.8189058,30.2238274],[80.8188629,30.2239294],[80.8187818,30.2240296],[80.8186698,30.2241241],[80.8184123,30.2242446],[80.818305,30.2243187],[80.8180153,30.2245876],[80.8178973,30.2246617],[80.8176613,30.2247823],[80.8175111,30.224875],[80.8171248,30.225014],[80.8170175,30.2250696],[80.8165884,30.2251994],[80.8159768,30.2254126],[80.8154404,30.2255239],[80.8143568,30.2255146],[80.8139598,30.2254126],[80.8134234,30.225218],[80.8132839,30.2251994],[80.8129835,30.2251994],[80.8128548,30.225218],[80.812726,30.2252365],[80.8124792,30.225357],[80.8124149,30.225459],[80.8122969,30.2256722],[80.8122218,30.2259132],[80.8121252,30.2264324],[80.8121252,30.2265714],[80.8119106,30.2270627],[80.8117819,30.2274335],[80.811696,30.2278229],[80.8116531,30.2279712],[80.8115566,30.2283142],[80.8114707,30.2285367],[80.8113956,30.2286294],[80.8112883,30.2287221],[80.811063,30.2288611],[80.8106661,30.2289909],[80.8103871,30.2290558],[80.8098078,30.22951],[80.809443,30.2296769],[80.809164,30.2296769],[80.8090519,30.2296029],[80.8089173,30.2296398],[80.8086598,30.2296027],[80.8083808,30.2296212],[80.8082306,30.2296398],[80.8079946,30.2297325],[80.8077264,30.2299828],[80.8074152,30.2302238],[80.8070397,30.2303628],[80.8065677,30.2306317],[80.8064604,30.2306965],[80.8062136,30.2307892],[80.8056986,30.2310951],[80.8050227,30.2316235],[80.804894,30.2316513],[80.8044755,30.2318831],[80.8040571,30.2322075],[80.8038318,30.2323558],[80.8033275,30.2325041],[80.8032203,30.232569],[80.8030808,30.2327544],[80.8029888,30.2328338],[80.802995,30.2329676],[80.8029413,30.2330974],[80.8028126,30.2333106],[80.8027267,30.2334125],[80.8025443,30.2335887],[80.802319,30.2337277],[80.8017826,30.2341912],[80.8015358,30.2343117],[80.8010208,30.23446],[80.8007499,30.2345172],[80.8005059,30.2346454],[80.8002913,30.2348308],[80.8000982,30.2350162],[80.7999372,30.2355909],[80.7998836,30.2357021],[80.7997978,30.2357948],[80.799433,30.2359894],[80.7991862,30.2360914],[80.7989952,30.2362424],[80.7989716,30.2363139],[80.7987571,30.2365919],[80.7985747,30.2368886],[80.7984781,30.2370091],[80.7982743,30.2371759],[80.7981563,30.2372315],[80.7979095,30.2373335],[80.7977807,30.2373798],[80.7973945,30.2374818],[80.7972767,30.2375284],[80.7971692,30.2375652],[80.7970619,30.2376394],[80.7969653,30.2377135],[80.7967722,30.2380287],[80.7963753,30.2382882],[80.7961821,30.2384458],[80.7958281,30.2385941],[80.795635,30.2387609],[80.7956242,30.2388814],[80.7952165,30.2396044],[80.7947981,30.2399381],[80.7946801,30.2400215],[80.7945299,30.2402254],[80.7944763,30.2403366],[80.7944655,30.2409298],[80.7944441,30.2410503],[80.7944012,30.2411523],[80.7941759,30.2414952],[80.7941329,30.2416157],[80.7935214,30.2420514],[80.7934356,30.242144],[80.7932317,30.2422738],[80.793162,30.2423692],[80.7930171,30.2424128],[80.7929313,30.2424963],[80.7926738,30.2429411],[80.7925665,30.2431636],[80.7914722,30.2438889],[80.7910927,30.2441861],[80.7909731,30.244415],[80.7908711,30.2449967],[80.7905544,30.2454162],[80.7896885,30.2460762],[80.7889187,30.2472602],[80.7888865,30.2473714],[80.7888329,30.2474827],[80.7886505,30.2476588],[80.7885969,30.24777],[80.7884467,30.2483539],[80.7882535,30.2487153],[80.7874596,30.249327],[80.7873201,30.2494012],[80.7872343,30.2494938],[80.7871485,30.2497255],[80.7869339,30.2501611],[80.7867622,30.2503558],[80.7866335,30.2505504],[80.7866228,30.2507821],[80.7866549,30.2509118],[80.7866549,30.2510323],[80.7866013,30.2511343],[80.7863653,30.2514586],[80.7863545,30.2518293],[80.7863009,30.2522186],[80.7863009,30.25258],[80.7862687,30.2527098],[80.7862258,30.252821],[80.7861429,30.2529176],[80.7861507,30.2529693],[80.7858825,30.2533956],[80.7856679,30.2541741],[80.785625,30.2542945],[80.785346,30.254693],[80.7853353,30.2548043],[80.7853246,30.2552584],[80.7851958,30.2553047],[80.7847881,30.2556013],[80.7846594,30.2556569],[80.7843804,30.2559163],[80.7843397,30.2560223],[80.7843161,30.2560924],[80.784241,30.2563148],[80.7841229,30.2565373],[80.7840907,30.2566485],[80.7838976,30.2569543],[80.7838976,30.257186],[80.7835234,30.2575831],[80.7834363,30.2577698],[80.7833934,30.257881],[80.7833719,30.2579922],[80.7833719,30.2582332],[80.7833504,30.2584556],[80.7832861,30.2585668],[80.7832539,30.2586873],[80.7829642,30.2589282],[80.7828462,30.2591321],[80.7827302,30.2598273],[80.7825243,30.2603739],[80.7820415,30.2608557],[80.7819021,30.2612172],[80.7817626,30.2614396],[80.781666,30.261523],[80.7813012,30.2616898],[80.7812154,30.2617917],[80.7811189,30.2618658],[80.7810438,30.2619678],[80.7810116,30.2620882],[80.7809257,30.2621809],[80.7806361,30.2624311],[80.7804066,30.262545],[80.7800567,30.2626257],[80.7795739,30.262811],[80.7794344,30.2628481],[80.7792413,30.2630705],[80.779016,30.2636451],[80.7789731,30.2637563],[80.7789087,30.2638582],[80.7782435,30.2644142],[80.7781792,30.2645161],[80.778147,30.2646366],[80.7780933,30.2647292],[80.7780182,30.2648312],[80.7779109,30.2649053],[80.7775354,30.2650443],[80.7772672,30.265137],[80.7769024,30.2654798],[80.7766878,30.2657578],[80.7766449,30.2658783],[80.7766986,30.2659802],[80.7767522,30.2660914],[80.7770204,30.2663787],[80.7771706,30.2667401],[80.7771706,30.266981],[80.7771599,30.2671015],[80.7770204,30.2674072],[80.7765806,30.2676667],[80.7764196,30.2678428],[80.7763123,30.2679169],[80.775851,30.2681949],[80.7757544,30.268269],[80.7750893,30.2689269],[80.7747888,30.2694643],[80.7746816,30.2696682],[80.7746065,30.2697701],[80.7745099,30.2698628],[80.7736087,30.270428],[80.7730293,30.2714287],[80.7728255,30.271855],[80.7727718,30.2719569],[80.7727396,30.2720681],[80.7725787,30.2724017],[80.7725036,30.2725036],[80.7723963,30.2726055],[80.7721603,30.2727352],[80.7718813,30.2728094],[80.771774,30.2728835],[80.7716989,30.2729669],[80.7716238,30.2730595],[80.7715487,30.2731615],[80.7713663,30.2737359],[80.7710767,30.2742548],[80.7709694,30.2744772],[80.7708943,30.2745698],[80.7708192,30.2746532],[80.7707119,30.2747181],[80.7702613,30.2749219],[80.7701754,30.2750053],[80.7700896,30.2751072],[80.7699716,30.2753111],[80.7699716,30.2754315],[80.7694781,30.2759319],[80.7693815,30.276006],[80.7692742,30.2760709],[80.769124,30.2761079],[80.769006,30.2761635],[80.768652,30.2763951],[80.7685447,30.2764507],[80.7683086,30.2766268],[80.7680297,30.2768955],[80.7679438,30.2770067],[80.7678366,30.2770623],[80.7675254,30.2772661],[80.7673323,30.2774421],[80.7669675,30.2778591],[80.7668495,30.2780722],[80.7667851,30.2783131],[80.7666671,30.2783872],[80.7663989,30.2783779],[80.7662594,30.2783501],[80.7657659,30.2782019],[80.7655084,30.2781185],[80.7652295,30.2781],[80.7651007,30.2781185],[80.7646179,30.2783687],[80.7644784,30.2783687],[80.7640922,30.2784706],[80.7635128,30.2788134],[80.7633841,30.2788505],[80.7632446,30.2788319],[80.7630086,30.2786837],[80.7628798,30.2786374],[80.7627511,30.2786374],[80.7621932,30.2787208],[80.7620752,30.2787856],[80.7618606,30.2790821],[80.7616031,30.2793415],[80.76141,30.279777],[80.7614207,30.28037],[80.7613242,30.280583],[80.7613349,30.2807035],[80.7614529,30.2809351],[80.7617533,30.2813613],[80.7617962,30.2814725],[80.7617855,30.2815929],[80.7617426,30.2817041],[80.7613349,30.2823434],[80.7613456,30.2826584],[80.7614636,30.2832606],[80.7614636,30.2833811],[80.7613702,30.2834588],[80.7613242,30.2835386],[80.7610345,30.2837702],[80.7608628,30.2839462],[80.7607663,30.2840203],[80.7606804,30.2841037],[80.7605731,30.2841686],[80.7605195,30.2842797],[80.7605731,30.2845206],[80.7605517,30.2846318],[80.7605088,30.2848912],[80.7604658,30.2849931],[80.7603586,30.2854563],[80.7602084,30.2856602],[80.7599831,30.2857899],[80.7599294,30.285901],[80.7598436,30.2861141],[80.7598328,30.2862253],[80.7596934,30.2865218],[80.7596183,30.2868831],[80.7596183,30.2871147],[80.7596397,30.2872351],[80.7597148,30.287337],[80.7598865,30.2875409],[80.7599509,30.2878929],[80.7599509,30.2881338],[80.7598972,30.2884951],[80.7596934,30.2888471],[80.7597123,30.2890706],[80.7596934,30.2892362],[80.7597256,30.2893659],[80.7598221,30.2894586],[80.7600367,30.2896161],[80.7600689,30.2897458],[80.7601011,30.2899774],[80.760144,30.2901071],[80.7602191,30.290209],[80.7605088,30.2904776],[80.7605517,30.2905888],[80.7605302,30.2907092],[80.7604873,30.2908204],[80.760262,30.2910242],[80.7601479,30.2910874],[80.7600689,30.2912558],[80.7599831,30.2913392],[80.7600045,30.2914596],[80.760144,30.2916727],[80.7602298,30.2917653],[80.7602298,30.2918858],[80.760262,30.2920062],[80.7603264,30.2921174],[80.7603264,30.2923675],[80.7603586,30.2924879],[80.7606375,30.2930993],[80.7607877,30.2936181],[80.7607877,30.293896],[80.7608199,30.2940165],[80.7610559,30.2943129],[80.7610452,30.2944333],[80.761013,30.2945445],[80.7608092,30.2948687],[80.7606804,30.2950818],[80.7605946,30.2951837],[80.760498,30.2952578],[80.7603693,30.2953041],[80.7602405,30.2953412],[80.760144,30.295406],[80.760144,30.2956561],[80.7599938,30.2958507],[80.7599401,30.2961564],[80.7598758,30.2963787],[80.7597148,30.2965547],[80.7596183,30.2968048],[80.7593286,30.2970642],[80.7592281,30.2972681],[80.7593393,30.2976663],[80.7594788,30.2978609],[80.7595646,30.2979535],[80.7597256,30.2981573],[80.7598695,30.2985115],[80.7598328,30.2985834],[80.7598007,30.2988335],[80.7597363,30.2989262],[80.759629,30.2990003],[80.759511,30.2990466],[80.7594144,30.2991207],[80.7593071,30.2992041],[80.7592642,30.2993152],[80.7592857,30.2995931],[80.7593608,30.2998247],[80.7594037,30.3000841],[80.7593286,30.3004731],[80.7592106,30.3008251],[80.7590496,30.3010196],[80.7589745,30.3011215],[80.7589745,30.3015754],[80.7588772,30.3019492],[80.7586849,30.3022887],[80.7584381,30.3025481],[80.7583737,30.3026407],[80.758363,30.3027611],[80.7582235,30.303076],[80.7582128,30.3034373],[80.7581699,30.3035392],[80.7579982,30.3037152],[80.7576656,30.3039375],[80.7575798,30.3040209],[80.7575261,30.3041227],[80.7574081,30.3044655],[80.7572472,30.3046878],[80.7570219,30.3048452],[80.7569253,30.3049286],[80.756818,30.3049935],[80.7567537,30.305225],[80.7568502,30.3054473],[80.7567966,30.3055492],[80.7565927,30.3056882],[80.7564533,30.3057067],[80.7562172,30.3057993],[80.7560885,30.3059938],[80.756067,30.306105],[80.7557186,30.3064016],[80.7552946,30.3067626],[80.7552194,30.306846],[80.7551551,30.3069571],[80.7547796,30.3070775],[80.7546401,30.3071053],[80.7545435,30.3071887],[80.7543719,30.3075036],[80.7542753,30.307587],[80.753932,30.307763],[80.753696,30.3080316],[80.7535672,30.3080686],[80.7533312,30.3081891],[80.7532132,30.3082446],[80.7530737,30.3082632],[80.7527947,30.3082632],[80.7525158,30.3082354],[80.7522476,30.3081613],[80.7521188,30.3081242],[80.7519686,30.3080964],[80.7518291,30.3080872],[80.7516897,30.3080872],[80.751144,30.3081241],[80.7510352,30.3081891],[80.7506275,30.3081891],[80.7499087,30.3079668],[80.7497692,30.3079297],[80.7492971,30.3079297],[80.7491593,30.3079569],[80.7490075,30.3079297],[80.7484603,30.307939],[80.7481921,30.3078556],[80.7479346,30.3077445],[80.7478273,30.3076704],[80.7475805,30.3075407],[80.7474625,30.3074944],[80.7472157,30.3073462],[80.7470977,30.3072813],[80.746851,30.307198],[80.746454,30.3070775],[80.7463252,30.3070312],[80.7462185,30.3069539],[80.7461214,30.3069571],[80.7460141,30.3068923],[80.7456386,30.3067534],[80.7453704,30.3067163],[80.7450807,30.3067534],[80.7449412,30.3067163],[80.7448125,30.3066793],[80.7443404,30.3064384],[80.743525,30.3063829],[80.7431066,30.3063829],[80.7428276,30.3063365],[80.7426989,30.3063365],[80.7425594,30.3063551],[80.7422054,30.3065218],[80.7414114,30.3067441],[80.7410467,30.3069016],[80.7408643,30.3069479],[80.7407033,30.3070034],[80.7403278,30.3071609],[80.7402098,30.3072072],[80.739963,30.3073369],[80.7396197,30.3075685],[80.7395339,30.3076611],[80.738976,30.3078278],[80.7387078,30.3078186],[80.7384249,30.3077479],[80.738225,30.3077167],[80.7380962,30.3077167],[80.7379568,30.3077352],[80.737828,30.3077815],[80.737431,30.3080964],[80.7371628,30.3083558],[80.7370555,30.3084206],[80.7367015,30.3085781],[80.7362509,30.3088374],[80.7361543,30.3089208],[80.7357144,30.3094117],[80.7352316,30.3097544],[80.7351243,30.3098192],[80.7350385,30.3099026],[80.7350121,30.3100151],[80.7349098,30.31006],[80.7347166,30.310375],[80.7346094,30.3104583],[80.7344806,30.3105139],[80.7343733,30.310588],[80.7342364,30.3105991],[80.7341587,30.3106806],[80.7340193,30.3106991],[80.7339442,30.310801],[80.733912,30.3109214],[80.733915,30.3114485],[80.7339925,30.3116977],[80.7341098,30.3119217],[80.7341219,30.312199],[80.7340944,30.3127553],[80.7341266,30.312885],[80.734266,30.3130888],[80.7342982,30.3131999],[80.7342875,30.3133203],[80.7342124,30.3135241],[80.7340944,30.3137464],[80.7339334,30.3139223],[80.7336652,30.3142558],[80.7336116,30.3145058],[80.7336223,30.3148578],[80.7339334,30.3152838],[80.7342231,30.3155524],[80.7343089,30.3156543],[80.7344055,30.3157377],[80.7343948,30.3161081],[80.7341266,30.316775],[80.7339871,30.3169695],[80.7332897,30.317377],[80.7328841,30.3175291],[80.7322383,30.317803],[80.7320344,30.3179697],[80.7317018,30.3181827],[80.7316053,30.3182568],[80.7314658,30.3184698],[80.731262,30.318618],[80.730983,30.3186551],[80.7308543,30.3187014],[80.7306075,30.3188403],[80.7305002,30.3189236],[80.7302642,30.3190163],[80.7301247,30.319044],[80.7298243,30.319044],[80.7295132,30.3189977],[80.7293844,30.3190255],[80.72932,30.3191274],[80.7292449,30.3193589],[80.7291484,30.3194515],[80.7289445,30.3195997],[80.7288265,30.3196553],[80.728687,30.3196831],[80.7283437,30.3198961],[80.7282364,30.3199517],[80.7281399,30.320035],[80.7279253,30.3201925],[80.7276571,30.320461],[80.7275605,30.3205351],[80.7272816,30.3207944],[80.7269061,30.3209426],[80.7261228,30.3212853],[80.7258546,30.3213501],[80.7257151,30.3213686],[80.725168,30.321489],[80.7248139,30.3216465],[80.7247066,30.321702],[80.7245135,30.321878],[80.7244062,30.3219336],[80.7242775,30.3219706],[80.7238591,30.3220077],[80.723741,30.322054],[80.7236552,30.3221373],[80.7234514,30.3225633],[80.7234192,30.3226837],[80.7232153,30.3228134],[80.7226789,30.3229986],[80.7225287,30.3230634],[80.7221103,30.3232301],[80.722003,30.3233042],[80.7218957,30.3233598],[80.7216596,30.323508],[80.7215738,30.3236006],[80.7213485,30.3237302],[80.7212412,30.3239432],[80.7211447,30.3240266],[80.7209301,30.3242581],[80.720222,30.3245174],[80.7199752,30.3246471],[80.7192886,30.3248045],[80.7189238,30.3249619],[80.7188165,30.3250267],[80.7185483,30.3250453],[80.7184195,30.3250175],[80.7182801,30.325036],[80.7181835,30.3251101],[80.7180118,30.3252953],[80.7179475,30.3253972],[80.7178616,30.3255176],[80.7177436,30.3258324],[80.7177436,30.3262029],[80.7176793,30.3264066],[80.7175183,30.3267122],[80.7174218,30.3268048],[80.7172286,30.3272586],[80.7169819,30.3275271],[80.7166815,30.3277494],[80.7166171,30.3279902],[80.7165742,30.3281013],[80.7160914,30.3283791],[80.715909,30.3285366],[80.7158339,30.3286292],[80.7157266,30.3287032],[80.7156631,30.3288111],[80.7154584,30.328944],[80.7152116,30.3290274],[80.7149434,30.3292589],[80.7144284,30.3294163],[80.7141387,30.3294163],[80.7134092,30.3297126],[80.7131839,30.3298515],[80.7130551,30.3299071],[80.7129264,30.3299256],[80.7127976,30.3299164],[80.7126582,30.3298886],[80.7125616,30.3298145],[80.7124329,30.329796],[80.7121646,30.329796],[80.7117569,30.329833],[80.711478,30.3299071],[80.7111239,30.3300645],[80.7107377,30.3302034],[80.7105982,30.3302405],[80.7101262,30.3304349],[80.7100081,30.330472],[80.7098687,30.3304812],[80.7097185,30.3304812],[80.7093644,30.3304072],[80.7090318,30.3301942],[80.7087743,30.3301108],[80.7085061,30.3301479],[80.7083774,30.3301942],[80.7082567,30.330263],[80.7078624,30.3304072],[80.7075941,30.3305183],[80.7074439,30.3305368],[80.7073259,30.3305738],[80.7072186,30.3306202],[80.7071113,30.330685],[80.707047,30.3307776],[80.7069611,30.3310183],[80.7068968,30.3311202],[80.7067788,30.331185],[80.7061243,30.3313332],[80.7059526,30.3314628],[80.7058668,30.3316851],[80.7058883,30.3317962],[80.7059526,30.3319073],[80.7059204,30.3320277],[80.7058132,30.3322407],[80.7057488,30.3323426],[80.7055449,30.3324907],[80.7052445,30.3328704],[80.7051265,30.3329445],[80.7049978,30.3329537],[80.7046437,30.3330278],[80.7045364,30.3330834],[80.7043433,30.3332315],[80.7038069,30.3332223],[80.7035601,30.3333149],[80.7032812,30.3333704],[80.7030237,30.3333241],[80.7026803,30.3331297],[80.7025409,30.3331111],[80.7024121,30.3331297],[80.7022941,30.3331945],[80.7021975,30.3332778],[80.7018435,30.3334723],[80.701468,30.3336482],[80.7012641,30.3337131],[80.7011649,30.3338144],[80.7007384,30.3338612],[80.7003629,30.3339909],[80.7002234,30.3340186],[80.6999445,30.3340186],[80.6996763,30.3339538],[80.6992793,30.3339075],[80.6991398,30.3339075],[80.6990003,30.3339353],[80.6988656,30.3339084],[80.698539,30.3340927],[80.6980884,30.3345742],[80.6978845,30.3346761],[80.6974769,30.334778],[80.6972086,30.3347872],[80.6969511,30.3347131],[80.6968868,30.3346113],[80.6967151,30.3344076],[80.6965864,30.3340742],[80.6965113,30.3339723],[80.6962323,30.3337038],[80.6959963,30.3335927],[80.6957388,30.3335093],[80.6954598,30.3334445],[80.6953311,30.3334075],[80.6950629,30.3333519],[80.6949341,30.3333334],[80.6943977,30.3333427],[80.6939793,30.3333982],[80.6934214,30.3334075],[80.692842,30.3334816],[80.6925523,30.3334538],[80.692445,30.3333797],[80.6924021,30.3332686],[80.6923592,30.3329908],[80.6923163,30.3328704],[80.6922412,30.3327685],[80.6921554,30.3326759],[80.6918948,30.3326341],[80.691812,30.3326667],[80.6915438,30.332713],[80.6912756,30.332713],[80.6911361,30.3326852],[80.6910503,30.3326018],[80.6909001,30.3324074],[80.6907815,30.3323625],[80.6906748,30.3323055],[80.6905246,30.3322963],[80.6903851,30.3323055],[80.6902563,30.332324],[80.6900203,30.3324537],[80.6899345,30.332537],[80.6898701,30.3326296],[80.6898272,30.3327407],[80.6898272,30.3329722],[80.6897165,30.3332086],[80.6896555,30.3332964],[80.6894088,30.3333982],[80.6891727,30.333463],[80.6890333,30.3334816],[80.6887725,30.3334593],[80.688529,30.333213],[80.6883252,30.3328982],[80.6880677,30.3328056],[80.687778,30.3328056],[80.6874668,30.3328611],[80.6873381,30.3328982],[80.6871021,30.3330093],[80.6868875,30.3331667],[80.6865442,30.3333519],[80.6861706,30.3334697],[80.6859112,30.3334445],[80.6856429,30.333389],[80.6855035,30.3333797],[80.6852674,30.3335186],[80.6851923,30.3336112],[80.6849241,30.3336575],[80.6846344,30.3336668],[80.6840229,30.3337501],[80.6837761,30.3338242],[80.6833792,30.3339075],[80.6830251,30.3340927],[80.68295,30.3341946],[80.682832,30.3342409],[80.6826925,30.3342687],[80.6826496,30.3343798],[80.6827247,30.3346113],[80.6827032,30.3347224],[80.6826281,30.3348243],[80.6826067,30.3349446],[80.682553,30.3350558],[80.6824028,30.3352687],[80.6822956,30.3353335],[80.6821668,30.3353521],[80.6818128,30.3357595],[80.6817776,30.3358721],[80.6817162,30.3359077],[80.6815553,30.3360836],[80.6812763,30.3364818],[80.6811905,30.3365651],[80.6809544,30.3366577],[80.6808257,30.336667],[80.6806862,30.3366855],[80.6804556,30.3369146],[80.6804609,30.3370744],[80.6803965,30.3373059],[80.6803858,30.3375374],[80.6803107,30.3377689],[80.6802142,30.3378522],[80.6797929,30.3380551],[80.6797314,30.3380004],[80.6796133,30.3380559],[80.6794417,30.3383615],[80.6793022,30.3383707],[80.678916,30.3385004],[80.678637,30.3384448],[80.6782508,30.3383244],[80.678122,30.3383244],[80.6779826,30.3383522],[80.6778431,30.3383337],[80.6777358,30.3382781],[80.6775963,30.3379448],[80.6774676,30.3379078],[80.6771994,30.3379818],[80.6769526,30.3380837],[80.6768158,30.3381073],[80.6766736,30.338167],[80.6764054,30.3381207],[80.6760406,30.3381948],[80.6759226,30.3382318],[80.6757939,30.3382874],[80.6756651,30.3383244],[80.6755471,30.3383615],[80.6751394,30.33838],[80.6748927,30.3384633],[80.6747532,30.3384541],[80.6743669,30.3383244],[80.6741631,30.3384726],[80.6739056,30.3387504],[80.6737018,30.3389171],[80.6734013,30.3390652],[80.6732941,30.3391393],[80.6730642,30.3392562],[80.6730044,30.3392874],[80.6729722,30.3393986],[80.6730151,30.3395097],[80.6730902,30.3396208],[80.6731439,30.3397319],[80.6731117,30.339843],[80.6730258,30.3399263],[80.6729078,30.3399912],[80.6723392,30.3402875],[80.6719315,30.340343],[80.6717062,30.3404727],[80.6715667,30.3405004],[80.6712878,30.3405004],[80.6708372,30.340806],[80.6707728,30.3409078],[80.6706655,30.3409634],[80.670526,30.3409727],[80.6701183,30.3409912],[80.6698394,30.341056],[80.6697214,30.3411023],[80.669657,30.3412041],[80.6694209,30.3413523],[80.6693458,30.3414449],[80.6693029,30.3415653],[80.6692386,30.3416671],[80.6690133,30.3417782],[80.6689167,30.3418616],[80.6687128,30.3419171],[80.6685734,30.3419171],[80.6683051,30.3421301],[80.6681549,30.3423523],[80.6679082,30.3426393],[80.6676292,30.3428893],[80.6674898,30.3429264],[80.6668922,30.3429222],[80.6668031,30.3430467],[80.6667173,30.3432782],[80.6666529,30.3433801],[80.6665242,30.3434264],[80.666374,30.3434449],[80.6659555,30.3439078],[80.6658161,30.3441208],[80.6657517,30.3442226],[80.6657195,30.344343],[80.6657195,30.3444541],[80.6657425,30.3445828],[80.6656015,30.3448615],[80.6654298,30.3450282],[80.6653654,30.3451393],[80.6653333,30.3452596],[80.6653654,30.3453893],[80.6654942,30.3456022],[80.6655478,30.3457226],[80.6656444,30.3460837],[80.6656215,30.3462016],[80.6655157,30.3463152],[80.6653011,30.3464726],[80.665226,30.3465559],[80.6651401,30.3468151],[80.6651294,30.3473151],[80.6650758,30.347417],[80.6650114,30.3475095],[80.6648934,30.3475744],[80.6648075,30.3476577],[80.6647432,30.3478892],[80.6645071,30.3480003],[80.6642496,30.3480743],[80.6640887,30.3480928],[80.66396,30.3481299],[80.6637347,30.3482502],[80.6634235,30.3484724],[80.6632733,30.3486669],[80.663209,30.349028],[80.6629944,30.3493242],[80.6629083,30.3494035],[80.6628442,30.349727],[80.6628442,30.3497918],[80.66293,30.3500973],[80.6629568,30.350551],[80.6630534,30.3507732],[80.6630534,30.350963],[80.6630212,30.3510833],[80.6629354,30.3511806],[80.6627691,30.3512963],[80.6625438,30.3514305],[80.6624097,30.351574],[80.6623131,30.3517314],[80.66212,30.3518981],[80.6620395,30.3519999],[80.6619537,30.3520879],[80.6616211,30.3523008],[80.6614923,30.3523286],[80.661369,30.3523795],[80.6607252,30.352685],[80.6607199,30.3528471],[80.6607091,30.3529211],[80.6606877,30.3529767],[80.6606126,30.3530785],[80.6605214,30.3531618],[80.660457,30.3532544],[80.6603712,30.3533424],[80.6603122,30.353384],[80.6601888,30.3534303],[80.6598991,30.3534535],[80.6596953,30.353509],[80.659529,30.3536109],[80.6594431,30.3536942],[80.6593895,30.3537173],[80.6592554,30.3537451],[80.6591213,30.3537451],[80.6590247,30.3538238],[80.6589711,30.353958],[80.6589335,30.3540043],[80.6589282,30.3541339],[80.6589121,30.3541895],[80.6589121,30.354245],[80.6589442,30.3543006],[80.6590784,30.3543376],[80.6595129,30.3543932],[80.6600332,30.3543932],[80.6603229,30.3544533],[80.6603873,30.3544765],[80.6605053,30.3545413],[80.6606448,30.354583],[80.6607199,30.3547357],[80.6607467,30.3548561],[80.660752,30.3551384],[80.6607199,30.3553977],[80.6606877,30.3555088],[80.6606448,30.3556291],[80.6605804,30.3557495],[80.6604516,30.3560828],[80.6604302,30.3562031],[80.6603336,30.3565549],[80.6601834,30.3568882],[80.6599688,30.3572122],[80.6599688,30.3573326],[80.6597543,30.3576844],[80.6597543,30.3581565],[80.6598294,30.3584157],[80.6599152,30.3586287],[80.6600547,30.3588323],[80.6602263,30.3592397],[80.6602263,30.3594804],[80.6602049,30.35961],[80.6601298,30.3598599],[80.6600761,30.359971],[80.6599796,30.3600451],[80.6597435,30.3603228],[80.6596899,30.3604524],[80.6597114,30.3605728],[80.6597114,30.3608134],[80.6595933,30.3610079],[80.6593358,30.3613226],[80.6593573,30.3617392],[80.6593466,30.3619706],[80.6592286,30.3623039],[80.6591213,30.3625076],[80.6588101,30.3628964],[80.6587458,30.3629982],[80.6584775,30.3632666],[80.6582844,30.3635536],[80.6582737,30.3639054],[80.6581879,30.3642664],[80.6581879,30.3647571],[80.6581771,30.3648867],[80.6581128,30.3649977],[80.6577051,30.3654791],[80.6576943,30.3657105],[80.6577909,30.3662937],[80.6577909,30.3664141],[80.6579304,30.3667658],[80.6579304,30.3670065],[80.6579089,30.3671176],[80.6578982,30.3673583],[80.657984,30.3676082],[80.6579733,30.3677285],[80.6577909,30.3680803],[80.6576514,30.3682562],[80.6576621,30.3685061],[80.6577265,30.3687468],[80.6576729,30.3688579],[80.6575978,30.3689597],[80.6575012,30.369043],[80.6574047,30.3691078],[80.657351,30.3692096],[80.6573617,30.3694503],[80.657351,30.3695706],[80.6572866,30.369802],[80.6571901,30.3700335],[80.6571686,30.3701445],[80.6571257,30.370737],[80.6569648,30.3711998],[80.656954,30.3715608],[80.6569219,30.3716719],[80.6568682,30.3717829],[80.6566214,30.3721995],[80.6566107,30.3725697],[80.6565034,30.3728567],[80.6564498,30.3731066],[80.6563961,30.3732177],[80.6562459,30.3734028],[80.6561923,30.3735046],[80.6561172,30.373736],[80.6559563,30.37406],[80.6559348,30.3741896],[80.6559455,30.3752448],[80.6559348,30.3757631],[80.6559026,30.3758835],[80.6556988,30.3761982],[80.655688,30.3763092],[80.6557202,30.3765499],[80.6556988,30.3766702],[80.6556559,30.3767813],[80.6553447,30.3770127],[80.6550872,30.3771053],[80.6550121,30.3772071],[80.6549263,30.37742],[80.6549477,30.3776606],[80.6549692,30.3777717],[80.6549692,30.377892],[80.6548512,30.3780401],[80.6547117,30.378651],[80.6545293,30.3788268],[80.6543898,30.3790397],[80.654304,30.3791323],[80.653907,30.3794747],[80.6538319,30.3795766],[80.6537783,30.3798079],[80.6537354,30.379919],[80.6536281,30.3799838],[80.6535208,30.3800301],[80.6533813,30.3800579],[80.6532419,30.3800671],[80.6528771,30.3801874],[80.6528234,30.3802892],[80.6527376,30.3805114],[80.6526732,30.3806224],[80.6525767,30.380715],[80.6524587,30.3807613],[80.6521904,30.3807705],[80.6520724,30.3807983],[80.6519437,30.3808723],[80.6518793,30.3809649],[80.6516969,30.3811222],[80.6515896,30.3811963],[80.6514716,30.3812518],[80.6513429,30.3813721],[80.6512248,30.3814092],[80.6510639,30.3814369],[80.6509781,30.381511],[80.6509352,30.381622],[80.6508493,30.3817146],[80.650742,30.3817886],[80.6504631,30.3818349],[80.6502056,30.3819182],[80.6497657,30.3820108],[80.649637,30.3820478],[80.6495297,30.3820941],[80.6493151,30.3822514],[80.6490576,30.3825476],[80.6489503,30.3826216],[80.6488323,30.3826679],[80.6485963,30.3827975],[80.6484997,30.3829919],[80.6484675,30.3831122],[80.6483924,30.3832047],[80.6482744,30.3836305],[80.6482637,30.3837508],[80.6481671,30.3839451],[80.648092,30.3840377],[80.6478131,30.3842876],[80.6476092,30.3844264],[80.6474483,30.3846023],[80.6473088,30.3848059],[80.6472981,30.384917],[80.6473303,30.3851576],[80.6473088,30.3852686],[80.6472123,30.3853612],[80.646826,30.3856574],[80.6466973,30.3856851],[80.6464505,30.3857777],[80.6462037,30.3859165],[80.6459784,30.3860646],[80.6457317,30.3861756],[80.6456137,30.3862404],[80.6454849,30.3862589],[80.6449056,30.3862589],[80.6446266,30.3862312],[80.6445086,30.386296],[80.6444228,30.3863885],[80.6443584,30.3864811],[80.6442618,30.3867124],[80.6442511,30.3868328],[80.6441975,30.3869438],[80.6441009,30.3870271],[80.6439614,30.3870641],[80.6438112,30.3870641],[80.6432962,30.3871012],[80.643028,30.3871567],[80.6426096,30.3871474],[80.6424701,30.3871197],[80.6421912,30.3871197],[80.6420517,30.3871474],[80.6419229,30.3871937],[80.6416869,30.387314],[80.6414831,30.3874806],[80.641247,30.3876287],[80.641129,30.3876842],[80.6409895,30.3877027],[80.6408608,30.3877397],[80.6404853,30.3878878],[80.6403029,30.3880544],[80.6401849,30.3881285],[80.640099,30.3882117],[80.639627,30.3885634],[80.6394982,30.3885727],[80.6392515,30.3886467],[80.6391656,30.3887393],[80.6391334,30.3888411],[80.6390691,30.3889429],[80.6388652,30.3890817],[80.6387579,30.3891372],[80.6386614,30.3892205],[80.6383824,30.3897573],[80.6383181,30.3898498],[80.6382215,30.3900627],[80.6380927,30.3902663],[80.6379962,30.3903774],[80.6379425,30.3904792],[80.6379425,30.3905995],[80.6379962,30.3908586],[80.6380391,30.3909789],[80.6380498,30.3910992],[80.6381142,30.3914602],[80.6381357,30.39171],[80.6381142,30.3918303],[80.6380606,30.3919414],[80.6380069,30.3920432],[80.6379318,30.392145],[80.6378353,30.3922468],[80.6377494,30.3923301],[80.6374276,30.3925614],[80.6373525,30.3926632],[80.6372666,30.3928853],[80.6371915,30.3929871],[80.6370842,30.3930519],[80.6366765,30.3933573],[80.6365527,30.3933859],[80.6364941,30.3935054],[80.6364083,30.3936072],[80.6364083,30.3938478],[80.636462,30.3940792],[80.6364941,30.394329],[80.6365263,30.3944401],[80.6365478,30.3946899],[80.6365478,30.3949306],[80.6364727,30.3951527],[80.636419,30.3953748],[80.6363976,30.3954951],[80.6363869,30.3957449],[80.6363225,30.3960133],[80.6362688,30.3961151],[80.636183,30.3963372],[80.6361079,30.3964297],[80.6359148,30.3967351],[80.6355071,30.3971886],[80.6353784,30.3972256],[80.6348419,30.3972071],[80.6344342,30.3972811],[80.6341445,30.397605],[80.6340372,30.3978271],[80.6339514,30.3979104],[80.6339085,30.3980214],[80.6339192,30.398262],[80.6339621,30.3983823],[80.6340158,30.3987432],[80.6341016,30.3989838],[80.6341123,30.3991134],[80.6342089,30.3991967],[80.6342733,30.3992985],[80.6343806,30.3995206],[80.634402,30.3996409],[80.6343913,30.3998907],[80.6343162,30.4001221],[80.6343162,30.4002424],[80.6343377,30.4003627],[80.6344771,30.4007235],[80.6344986,30.4008531],[80.63452,30.401214],[80.6345522,30.4013343],[80.6346166,30.4014361],[80.6346595,30.4015471],[80.634681,30.4016674],[80.6346702,30.4017785],[80.6344771,30.4020746],[80.6344128,30.4021949],[80.6342733,30.4023985],[80.6340051,30.4026576],[80.6339192,30.4027593],[80.6336188,30.4030092],[80.6335652,30.4031202],[80.633533,30.4032313],[80.633533,30.4033516],[80.6332219,30.4035829],[80.633136,30.4036662],[80.6329322,30.403805],[80.6328463,30.4038883],[80.6327069,30.4042121],[80.6326425,30.4043139],[80.6324708,30.4045082],[80.6322563,30.4046563],[80.6321275,30.4047026],[80.6319773,30.4048969],[80.6317627,30.405119],[80.6310761,30.4057574],[80.6308937,30.4059055],[80.6306469,30.4060165],[80.6305182,30.4060535],[80.6298852,30.4063404],[80.6296706,30.4064884],[80.6295955,30.406581],[80.6294238,30.4070344],[80.6293166,30.4072564],[80.62922,30.4073305],[80.629102,30.407386],[80.6290162,30.4074878],[80.6290054,30.4075988],[80.6289196,30.4076728],[80.6286514,30.4076636],[80.6285226,30.4076358],[80.6283831,30.4076451],[80.6282651,30.4077006],[80.6281578,30.4078116],[80.6280613,30.408154],[80.627954,30.4083668],[80.6278682,30.4084593],[80.6276536,30.4087369],[80.6275356,30.4089312],[80.6275678,30.4091718],[80.6275356,30.4092921],[80.6273532,30.4094586],[80.626806,30.409764],[80.6267631,30.409875],[80.6267416,30.4099953],[80.6266987,30.4101063],[80.6265807,30.4103377],[80.62657,30.410569],[80.6266022,30.4108281],[80.6266665,30.4109298],[80.6267953,30.4109669],[80.6269455,30.4109946],[80.6270635,30.4110501],[80.6270742,30.4111704],[80.6270206,30.4112814],[80.6269991,30.4114017],[80.6269562,30.4115035],[80.6268918,30.4116053],[80.6268489,30.4117348],[80.6268489,30.4121327],[80.6267309,30.412364],[80.626688,30.4124843],[80.6265271,30.4126693],[80.6265056,30.4127896],[80.6265056,30.4134003],[80.6265485,30.4135021],[80.6266343,30.4135946],[80.6268597,30.4139092],[80.6270099,30.4145013],[80.6270528,30.4146216],[80.6270742,30.4147789],[80.6270742,30.4149084],[80.6271708,30.4149825],[80.6274712,30.4150195],[80.6279218,30.415001],[80.6280827,30.4150102],[80.6283402,30.4151212],[80.6286299,30.4151768],[80.6288445,30.415334],[80.6289947,30.4155283],[80.6290591,30.4156301],[80.629102,30.4157504],[80.6290913,30.4158707],[80.6290913,30.4162223],[80.6291127,30.4165924],[80.6291878,30.4168144],[80.6292093,30.4169439],[80.6290269,30.4171475],[80.6289196,30.4172215],[80.6286299,30.4172863],[80.6284904,30.4172955],[80.6282222,30.4173418],[80.627954,30.4173695],[80.6278252,30.4173973],[80.6277072,30.4174435],[80.6274927,30.4175823],[80.6272995,30.4177489],[80.6272244,30.4178414],[80.6271708,30.4179524],[80.6270957,30.4180542],[80.626806,30.4183132],[80.6266665,30.4185075],[80.6264627,30.4186741],[80.6263339,30.4187573],[80.626055,30.4189146],[80.6259262,30.4189701],[80.6257224,30.4191829],[80.6255078,30.419479],[80.6253254,30.419664],[80.6251967,30.4197103],[80.6250894,30.4197751],[80.6249928,30.4198583],[80.6248426,30.4200526],[80.6247353,30.4201636],[80.624671,30.4202654],[80.624392,30.420839],[80.6244028,30.4210703],[80.6244457,30.4211906],[80.6244671,30.4214496],[80.624392,30.4215514],[80.6242204,30.4217457],[80.624156,30.4218567],[80.6238341,30.4222268],[80.6237697,30.4223285],[80.6236946,30.4225321],[80.6237268,30.4226524],[80.6237161,30.4229021],[80.6236839,30.4230224],[80.6236303,30.4231427],[80.6232977,30.423522],[80.6232011,30.4236053],[80.623126,30.4236978],[80.6230295,30.4237903],[80.6227827,30.4241048],[80.6228256,30.4246229],[80.62289,30.424993],[80.62289,30.4251133],[80.6228685,30.4252335],[80.6227183,30.425437],[80.6226969,30.4255573],[80.6226969,30.4258071],[80.6225896,30.4263159],[80.6225896,30.426723],[80.6227291,30.427093],[80.6227183,30.4273428],[80.6227291,30.4274631],[80.622772,30.4275741],[80.62289,30.4277869],[80.6229222,30.4279071],[80.6229222,30.4287212],[80.6229436,30.4288507],[80.6229436,30.4290913],[80.6229007,30.4293225],[80.6229007,30.4295723],[80.6228042,30.4299239],[80.6227934,30.4300349],[80.6227612,30.4301551],[80.622611,30.4304882],[80.6225681,30.4306269],[80.6225708,30.4307634],[80.6225574,30.4311357],[80.6225306,30.4313069],[80.6223804,30.4316399],[80.6223428,30.4317509],[80.6222516,30.4319174],[80.6221604,30.432144],[80.6220853,30.4324539],[80.6220853,30.4325788],[80.6220102,30.4327546],[80.621919,30.4329072],[80.6216562,30.4331709],[80.6214523,30.4334253],[80.6213129,30.433564],[80.6211573,30.4338785],[80.6210232,30.4340821],[80.6208944,30.4342162],[80.6208408,30.4342532],[80.6206369,30.4343364],[80.6204224,30.4344845],[80.6203365,30.4345677],[80.6201756,30.4348822],[80.6200683,30.4349562],[80.6199288,30.434984],[80.6198108,30.435058],[80.6196391,30.4352615],[80.6194246,30.4355575],[80.6192422,30.4357518],[80.6190061,30.4361033],[80.6189096,30.436205],[80.6186092,30.4364455],[80.6185019,30.4365195],[80.6183839,30.436575],[80.6182444,30.436612],[80.6179654,30.4366305],[80.6175578,30.4369636],[80.617311,30.4372411],[80.6171715,30.4374446],[80.6170857,30.4375278],[80.6168926,30.4376758],[80.6166565,30.4377776],[80.6162703,30.4381291],[80.6144678,30.4407561],[80.614382,30.4409873],[80.6142747,30.4412093],[80.6141138,30.4414036],[80.6138992,30.4417088],[80.6138456,30.4418291],[80.6138134,30.4419493],[80.6135881,30.4423656],[80.6132126,30.4428558],[80.6130302,30.4430408],[80.6125903,30.4435495],[80.6124723,30.44379],[80.6123435,30.4440028],[80.6121933,30.444197],[80.612086,30.4443912],[80.6120109,30.444493],[80.6117642,30.4446317],[80.6113779,30.4447982],[80.6111312,30.4449185],[80.6107557,30.445048],[80.6106162,30.445085],[80.6102407,30.4452237],[80.6100905,30.4452514],[80.6092965,30.4451682],[80.6085884,30.4451682],[80.608449,30.4451497],[80.6081593,30.445085],[80.6079018,30.4450017],[80.6077623,30.444974],[80.6076336,30.4449647],[80.607065,30.4448537],[80.6068075,30.4447797],[80.6065071,30.444752],[80.6060672,30.4447612],[80.6057989,30.4448075],[80.6053269,30.4449185],[80.6050372,30.4450017],[80.6047797,30.4450572],[80.6045115,30.4450572],[80.6041574,30.4451775],[80.6038999,30.445233],[80.6036639,30.4453069],[80.6030845,30.4455289],[80.602591,30.4456954],[80.602355,30.4458064],[80.6021189,30.4459359],[80.6016469,30.4462504],[80.6008744,30.4468423],[80.6006598,30.4469903],[80.6004238,30.4470828],[80.5999088,30.4472308],[80.5996299,30.4472863],[80.5993509,30.4473603],[80.5985784,30.4476193],[80.5982995,30.4476193],[80.5977845,30.4475823],[80.5960679,30.4475823],[80.5957889,30.4475268],[80.59551,30.4475453],[80.595231,30.4475823],[80.5949735,30.4475823],[80.5946731,30.4475453],[80.5938577,30.4473233],[80.5936217,30.4472493],[80.5933428,30.4472308],[80.5927849,30.4472308],[80.5922484,30.4471568],[80.5917334,30.4469718],[80.5915189,30.4468423],[80.5913257,30.4466574],[80.5911541,30.4464724],[80.590961,30.4463059],[80.5908108,30.4461209],[80.5906176,30.4459544],[80.5903816,30.4458249],[80.5900812,30.4457694],[80.5898237,30.4457694],[80.5895448,30.4458064],[80.5892658,30.4458249],[80.5884719,30.4458249],[80.587399,30.4455474],[80.58712,30.4454919],[80.5868411,30.4454549],[80.5865407,30.4454549],[80.5862832,30.4454364],[80.5860257,30.4454549],[80.585618,30.4457694],[80.585382,30.4458434],[80.585103,30.4458434],[80.5848241,30.4457879],[80.584588,30.4457139],[80.5843735,30.4455659],[80.5840945,30.4455104],[80.5835581,30.4455474],[80.5833006,30.4455474],[80.5830431,30.4454549],[80.582807,30.4453439],[80.5825281,30.4452515],[80.5822921,30.4451405],[80.5820346,30.445048],[80.5817771,30.445048],[80.5815196,30.445085],[80.5812406,30.4451405],[80.5807256,30.4452884],[80.5805111,30.4453809],[80.5800175,30.4455659],[80.5797815,30.4456399],[80.5795026,30.4456399],[80.5792236,30.4455844],[80.5780005,30.4455844],[80.5766165,30.444974],[80.5746317,30.4434663],[80.5734086,30.4424026],[80.571413,30.4408856],[80.5702436,30.4403028],[80.5695677,30.4394888],[80.5688703,30.4384898],[80.5678832,30.4377591],[80.5666923,30.4372596],[80.5652547,30.4365566],[80.563581,30.4350395],[80.5629587,30.4336149],[80.5621218,30.4320608],[80.56077,30.4312282],[80.559268,30.4304142],[80.5577445,30.429082],[80.5567789,30.4281384],[80.5553198,30.4267507],[80.5543326,30.4256591],[80.5444621,30.4210704],[80.5423164,30.4204783],[80.541458,30.4199602],[80.5392264,30.4178877],[80.5372523,30.4171475],[80.5351066,30.4171475],[80.5336904,30.4200711],[80.5321884,30.4214774],[80.5309438,30.4224766],[80.5270385,30.4245489],[80.5259764,30.4249282],[80.5252683,30.425252],[80.5251127,30.4255019],[80.5252361,30.4258025],[80.5255043,30.4261078],[80.5255419,30.4263437],[80.5269098,30.4277314],[80.5280042,30.4289988],[80.528562,30.4301922],[80.5285942,30.4311727],[80.5296992,30.4331709],[80.5299783,30.434725],[80.5299997,30.4366121],[80.5302572,30.4375001],[80.5309804,30.4387141],[80.5330597,30.4400973],[80.5360937,30.4413851],[80.5385398,30.4434571],[80.5396556,30.445233],[80.53972,30.4465464],[80.5400634,30.4476193],[80.5407071,30.4481742],[80.5411422,30.4488235],[80.548699,30.448685],[80.549447,30.449401],[80.551106,30.449986],[80.552179,30.450539],[80.552862,30.450962],[80.553253,30.452654],[80.554163,30.452556],[80.554749,30.452361],[80.555529,30.452263],[80.558912,30.453825],[80.559791,30.454443],[80.559888,30.454833],[80.559921,30.455679],[80.561059,30.456264],[80.561742,30.456719],[80.562588,30.457825],[80.564052,30.458899],[80.56493,30.459387],[80.565548,30.460037],[80.565157,30.46381],[80.56558,30.463941],[80.566914,30.464136],[80.567662,30.464136],[80.568931,30.464396],[80.569971,30.464428],[80.571012,30.464233],[80.572053,30.464201],[80.573452,30.464331],[80.575078,30.464754],[80.576151,30.463941],[80.57755,30.464331],[80.578461,30.465567],[80.5796,30.466673],[80.580543,30.467323],[80.581909,30.468039],[80.583633,30.468267],[80.585162,30.468592],[80.5863,30.468494],[80.587764,30.468267],[80.588479,30.468267],[80.590398,30.468397],[80.591309,30.468364],[80.59183,30.468267],[80.59248,30.468364],[80.593098,30.468657],[80.593684,30.468689],[80.5944,30.468462],[80.595538,30.467974],[80.596156,30.467876],[80.596871,30.467974],[80.597425,30.468624],[80.5978489,30.4696485],[80.5988574,30.4714609],[80.601946,30.471097],[80.603019,30.471031],[80.604548,30.471162],[80.605719,30.471389],[80.60663,30.471487],[80.606727,30.471227],[80.607605,30.466901],[80.608158,30.465307],[80.608484,30.465046],[80.609232,30.463908],[80.609655,30.46316],[80.610207,30.462542],[80.610728,30.462119],[80.611671,30.461013],[80.611997,30.46072],[80.612322,30.46059],[80.613005,30.459777],[80.613623,30.459289],[80.615119,30.458996],[80.616811,30.459517],[80.619218,30.46072],[80.62156,30.461631],[80.622405,30.461794],[80.623186,30.462282],[80.623869,30.462867],[80.624585,30.462054],[80.625138,30.461241],[80.6259476,30.4593869],[80.626406,30.458508],[80.627122,30.45776],[80.627837,30.457142],[80.628325,30.45698],[80.628781,30.456524],[80.629626,30.456329],[80.63109,30.456101],[80.632066,30.455386],[80.634115,30.453142],[80.635026,30.452068],[80.635904,30.451255],[80.636717,30.450604],[80.636913,30.450377],[80.637498,30.450247],[80.63932,30.450572],[80.640328,30.4508],[80.641239,30.45093],[80.6428,30.449856],[80.644914,30.448913],[80.645955,30.448197],[80.646768,30.446603],[80.647451,30.446408],[80.648037,30.446116],[80.64833,30.445823],[80.648752,30.445758],[80.649566,30.44579],[80.650639,30.44527],[80.653371,30.444392],[80.654184,30.444196],[80.654673,30.443709],[80.655128,30.443091],[80.655843,30.442798],[80.658315,30.44218],[80.659194,30.440814],[80.659909,30.440131],[80.660853,30.439643],[80.662023,30.439252],[80.663162,30.438764],[80.664723,30.437984],[80.665797,30.437041],[80.66674,30.436065],[80.667553,30.435414],[80.667976,30.434959],[80.668171,30.433885],[80.669114,30.4333],[80.670773,30.432096],[80.671684,30.431673],[80.67292,30.431251],[80.673831,30.43099],[80.674872,30.43047],[80.67523,30.43021],[80.676661,30.429657],[80.677571,30.429201],[80.678287,30.428486],[80.678547,30.427673],[80.678482,30.427087],[80.677799,30.425461],[80.677409,30.423997],[80.677474,30.423574],[80.677734,30.423216],[80.67806,30.422989],[80.678547,30.422468],[80.679133,30.421948],[80.679751,30.421753],[80.680759,30.42159],[80.681865,30.421525],[80.683882,30.421558],[80.684402,30.42146],[80.685313,30.421005],[80.6858458,30.4206091],[80.686321,30.420256],[80.687134,30.419248],[80.687525,30.418207],[80.6876001,30.4174841],[80.687623,30.417264],[80.687687,30.415442],[80.688435,30.41502],[80.6891351,30.414897],[80.690843,30.414597],[80.691461,30.414369],[80.692859,30.413263],[80.693119,30.413003],[80.695819,30.413165],[80.696828,30.413263],[80.698259,30.413523],[80.69917,30.413491],[80.699723,30.413556],[80.700926,30.415085],[80.701642,30.415573],[80.702553,30.416093],[80.703301,30.416841],[80.703626,30.417427],[80.704309,30.417622],[80.706195,30.417589],[80.707301,30.417394],[80.707952,30.417166],[80.710034,30.41567],[80.71114,30.415117],[80.713417,30.414499],[80.713904,30.414434],[80.715108,30.413979],[80.716116,30.413328],[80.716539,30.412873],[80.717255,30.411409],[80.717775,30.410726],[80.718523,30.410238],[80.719402,30.409295],[80.720377,30.409067],[80.721256,30.408254],[80.722232,30.407603],[80.72311,30.406693],[80.724671,30.405229],[80.728542,30.401781],[80.729485,30.401195],[80.730493,30.40074],[80.731502,30.400545],[80.732933,30.40061],[80.734136,30.40061],[80.734819,30.399049],[80.73547,30.398073],[80.736543,30.397292],[80.737747,30.396512],[80.738463,30.395763],[80.739308,30.394983],[80.739861,30.394072],[80.740999,30.392478],[80.741292,30.39147],[80.742203,30.390949],[80.742756,30.390461],[80.743114,30.389908],[80.744708,30.388965],[80.745326,30.388412],[80.745423,30.387989],[80.746464,30.387957],[80.747603,30.387827],[80.748253,30.387567],[80.749034,30.387176],[80.749684,30.386656],[80.75014,30.385843],[80.750237,30.384932],[80.750465,30.384249],[80.750693,30.383891],[80.750725,30.383143],[80.750433,30.382004],[80.750562,30.380833],[80.7504,30.380215],[80.7504,30.379858],[80.751343,30.379402],[80.752937,30.378752],[80.755149,30.378004],[80.759182,30.375922],[80.759833,30.375206],[80.760191,30.374003],[80.760744,30.372506],[80.761362,30.372441],[80.76198,30.372734],[80.762435,30.373059],[80.762858,30.372929],[80.763671,30.373059],[80.764094,30.373222],[80.764387,30.372767],[80.765298,30.372409],[80.765395,30.371693],[80.765851,30.370913],[80.766566,30.370099],[80.766794,30.369319],[80.767086,30.368603],[80.767607,30.367758],[80.76816,30.367335],[80.769006,30.366847],[80.770177,30.366587],[80.771836,30.365058],[80.773137,30.364017],[80.77395,30.363269],[80.774796,30.362456],[80.775218,30.361935],[80.775478,30.360699],[80.776617,30.35878],[80.776975,30.357804],[80.777137,30.356828],[80.777918,30.3553],[80.779902,30.354942],[80.781333,30.354389],[80.782686,30.3541315],[80.7842189,30.3540481],[80.7862599,30.3538756],[80.785269,30.351591],[80.784944,30.350551],[80.7845764,30.3496787],[80.7842791,30.3484665],[80.7841563,30.3467561],[80.7845624,30.3454341],[80.7857987,30.343557],[80.786635,30.342159],[80.787188,30.341248],[80.787383,30.3405],[80.787904,30.340012],[80.789107,30.339459],[80.790213,30.339134],[80.794214,30.337214],[80.796329,30.336369],[80.798605,30.335198],[80.800069,30.334189],[80.801305,30.333409],[80.801956,30.332921],[80.802021,30.331522],[80.801077,30.326708],[80.800915,30.325049],[80.801175,30.324106],[80.801598,30.323033],[80.803549,30.32339],[80.805176,30.323488],[80.813178,30.323423],[80.814966,30.32326],[80.816463,30.322935],[80.818382,30.322707],[80.819553,30.322219],[80.820464,30.321309],[80.821309,30.31991],[80.822025,30.318576],[80.82235,30.317731],[80.823001,30.31695],[80.82453,30.315649],[80.825505,30.314933],[80.826058,30.314771],[80.826872,30.314836],[80.829084,30.315193],[80.830059,30.314868],[80.831458,30.31425],[80.832531,30.313535],[80.833344,30.313242],[80.836077,30.314153],[80.838516,30.315259],[80.841281,30.316625],[80.846648,30.316852],[80.847982,30.316852],[80.851397,30.316267],[80.852405,30.315746],[80.853772,30.315389],[80.855463,30.315031],[80.858846,30.314575],[80.860895,30.31425],[80.861773,30.313892],[80.862912,30.312721],[80.864701,30.311225],[80.86753,30.309241],[80.868051,30.308558],[80.869222,30.307875],[80.870751,30.307224],[80.871922,30.306509],[80.872605,30.305826],[80.873093,30.304817],[80.873613,30.301174],[80.875142,30.301109],[80.877646,30.301369],[80.87898,30.301434],[80.879891,30.301272],[80.881095,30.300751],[80.881908,30.300556],[80.883078,30.300556],[80.883794,30.300231],[80.88477,30.299873],[80.885421,30.299873],[80.886071,30.300361],[80.886657,30.300686],[80.88812,30.300881],[80.888576,30.301272],[80.888836,30.301597],[80.889389,30.301792],[80.892446,30.301922],[80.893682,30.30202],[80.895374,30.302215],[80.896317,30.302475],[80.899667,30.302313],[80.90227,30.302671],[80.904449,30.303158],[80.906368,30.303711],[80.907084,30.303679],[80.907897,30.303223],[80.908613,30.302508],[80.909035,30.301695],[80.908873,30.301207],[80.908385,30.300263],[80.907018,30.298214],[80.906986,30.297824],[80.907051,30.296946],[80.908996,30.293834],[80.910364,30.292424],[80.911688,30.29174],[80.911902,30.290843],[80.912329,30.289989],[80.912799,30.289476],[80.912928,30.28892],[80.913227,30.288578],[80.913825,30.288365],[80.913996,30.288108],[80.914594,30.286827],[80.915619,30.286827],[80.916431,30.286613],[80.9172,30.286314],[80.917756,30.286271],[80.918354,30.286143],[80.919892,30.28516],[80.920448,30.284904],[80.921644,30.284818],[80.9222,30.28469],[80.923054,30.284305],[80.925148,30.283579],[80.927156,30.283195],[80.927327,30.28187],[80.927925,30.281229],[80.928353,30.280289],[80.928908,30.279605],[80.929549,30.27905],[80.930361,30.278452],[80.930447,30.277597],[80.930703,30.276785],[80.930447,30.276059],[80.929891,30.275461],[80.929036,30.274948],[80.928523,30.27482],[80.927883,30.274221],[80.927114,30.273623],[80.926473,30.273452],[80.925875,30.273153],[80.925533,30.272726],[80.925618,30.272042],[80.925533,30.271487],[80.925661,30.27123],[80.925661,30.270974],[80.925917,30.270547],[80.925917,30.270119],[80.925704,30.269863],[80.925661,30.269479],[80.925789,30.268838],[80.926601,30.267727],[80.9269,30.267171],[80.928054,30.26653],[80.929421,30.265847],[80.93066,30.265419],[80.931942,30.26512],[80.933395,30.264479],[80.934292,30.264009],[80.9356371,30.2634666],[80.936557,30.263454],[80.937369,30.263881],[80.937668,30.264607],[80.937753,30.265035],[80.938522,30.266188],[80.938992,30.266317],[80.939676,30.266274],[80.940146,30.266445],[80.940659,30.266915],[80.941299,30.266958],[80.942795,30.267427],[80.943308,30.26747],[80.943992,30.267684],[80.945145,30.268325],[80.946,30.268966],[80.946598,30.269265],[80.949974,30.269607],[80.950956,30.270077],[80.952751,30.270162],[80.956639,30.269778],[80.958519,30.269735],[80.963519,30.269949],[80.965954,30.269906],[80.968518,30.270034],[80.971936,30.269949],[80.97544,30.270162],[80.977363,30.270162],[80.980867,30.270632],[80.981721,30.270504],[80.98326,30.269521],[80.98514,30.268752],[80.987447,30.268325],[80.989583,30.268282],[80.991293,30.267812],[80.993386,30.267342],[80.995095,30.266445],[80.997189,30.265889],[80.999667,30.265376],[81.002103,30.264778],[81.004624,30.263625],[81.005906,30.262471],[81.006889,30.261915],[81.007658,30.260975],[81.008513,30.260078],[81.008683,30.258625],[81.00894,30.257002],[81.009581,30.255891],[81.010734,30.25478],[81.012358,30.253711],[81.013768,30.253455],[81.015648,30.252985],[81.018297,30.252301],[81.019707,30.251831],[81.02069,30.250763],[81.021587,30.249524],[81.022186,30.24914],[81.024237,30.248926],[81.026801,30.248499],[81.028125,30.248328],[81.029492,30.247986],[81.030433,30.247601],[81.03086,30.247088],[81.028766,30.242089],[81.028296,30.241192],[81.028125,30.240124],[81.0283327,30.238696],[81.029191,30.2378618],[81.0298776,30.237213],[81.0297489,30.2357484],[81.0292345,30.2344037]]]}}]}
