{"type":"FeatureCollection","features":[{"type":"Feature","properties":{"place":"matthew-hunter","region":"NC","donors":"","rank":2,"whose_line":"the coastline (uncontested), as drawn by the US Department of State","publisher":"US Department of State, Office of the Geographer and Global Issues (World Polygons, high-resolution layer DoS_WP_11_4)","source_url":"https://data.geodata.state.gov/WorldPolygons.zip","version_or_date":"World Polygons 11.4 BETA, 2025-02-24; read 2026-10-04","feature_id":"DoS_WP_11_4 fid 133","licence":"US government work, not subject to US copyright (17 U.S.C. § 105)","notes":"Natural Earth's polygons do not overlap DoS's.","input_sha256":"55fab422ef09e35eb48d68141b9ece0ace86d4276dfe332a04dfd401c0bfc80c","operation":"none (the source feature's geometry as published)","crs":"WGS84 longitude/latitude, as in the source (no reprojection)","source_features":[{"id":"DoS_WP_11_4 fid 133","WP_Name":"Hunter and Matthew Islands","WP_ID":"7ed81f87-f478-4cdc-81fa-477416d70a19","Map_Label":"New Caledonia (FR.)","NOTES":null,"US_Recog":"Dependency or Area of Special Sovereignty","Show_Disp":null,"GENC_3":"NCL"}]},"geometry":{"type":"MultiPolygon","coordinates":[[[[172.08835590000012,-22.392237699999953],[172.08854150000002,-22.392723099999955],[172.08881270000006,-22.39312289999998],[172.0889555000001,-22.393465499999934],[172.08919820000006,-22.393808199999967],[172.08939810000004,-22.393850999999927],[172.08956940000007,-22.394065099999978],[172.08959790000006,-22.39433639999993],[172.0895266000001,-22.394464899999946],[172.0894694000001,-22.39466479999993],[172.08958370000005,-22.394793299999947],[172.08961220000003,-22.395050199999957],[172.0897407000001,-22.395035999999948],[172.08978350000007,-22.395307199999934],[172.08991200000003,-22.395549899999935],[172.08991200000003,-22.39577829999996],[172.08986920000007,-22.39617809999993],[172.08976930000006,-22.396363699999938],[172.08972640000002,-22.39660639999994],[172.08954080000012,-22.397020399999974],[172.08939810000004,-22.397491599999967],[172.0895551000001,-22.397719999999936],[172.08971220000012,-22.39789129999997],[172.0896550000001,-22.39803409999996],[172.0896550000001,-22.398205399999938],[172.0894552000001,-22.39853379999994],[172.08948370000007,-22.39869079999994],[172.0893552000001,-22.39893349999994],[172.08917630000008,-22.399055499999974],[172.08904110000003,-22.399147699999958],[172.08889840000006,-22.399261899999942],[172.08872710000003,-22.39920479999995],[172.08869850000008,-22.399290399999927],[172.0886842000001,-22.399504599999943],[172.08859860000007,-22.39963309999996],[172.08845580000002,-22.399675899999977],[172.08837010000002,-22.39954739999996],[172.08831300000008,-22.399333299999967],[172.08822740000005,-22.399233299999935],[172.08812740000008,-22.399333299999967],[172.08804180000004,-22.39939039999996],[172.08792760000006,-22.39930469999996],[172.08777050000003,-22.399133399999982],[172.0877991000001,-22.399347499999976],[172.08769910000012,-22.399461799999983],[172.0875278000001,-22.39954739999996],[172.08747070000004,-22.399418899999944],[172.08739930000002,-22.39921899999996],[172.08721370000012,-22.399090599999965],[172.08701380000002,-22.399190499999975],[172.08697100000006,-22.39936179999995],[172.08688540000003,-22.399561699999936],[172.08678540000005,-22.399761599999977],[172.08658550000007,-22.399718699999937],[172.08639990000006,-22.399604499999953],[172.0863571000001,-22.39973299999997],[172.08618580000007,-22.39977579999993],[172.08588600000007,-22.399747299999945],[172.0856718000001,-22.399747299999945],[172.08550050000008,-22.39981869999997],[172.0852721000001,-22.399661599999945],[172.0851150000001,-22.399661599999945],[172.08492940000008,-22.39981869999997],[172.08474380000007,-22.39973299999997],[172.08457250000004,-22.399518899999975],[172.08435840000004,-22.399318999999934],[172.0843013000001,-22.399090599999965],[172.08425980000004,-22.399055499999974],[172.0841157000001,-22.39893349999994],[172.08377300000006,-22.398947799999974],[172.08360170000003,-22.39877649999994],[172.0834304000001,-22.39864799999998],[172.0832305,-22.398433799999964],[172.08337330000006,-22.398205399999938],[172.0832448000001,-22.39793409999993],[172.0833447000001,-22.39770569999996],[172.08340180000005,-22.39752009999995],[172.0835446000001,-22.397334499999943],[172.08370160000004,-22.397077499999966],[172.0839301000001,-22.39703469999995],[172.08400140000003,-22.39672059999998],[172.08387300000004,-22.396320899999978],[172.08365880000008,-22.396035299999937],[172.08347320000007,-22.39570699999996],[172.08348750000005,-22.395492799999943],[172.0834589000001,-22.395221599999957],[172.0835446000001,-22.39485039999994],[172.08347320000007,-22.39435069999996],[172.08355890000007,-22.39396519999997],[172.08378730000004,-22.393565399999943],[172.08380160000002,-22.39325139999994],[172.0836445000001,-22.392965799999956],[172.08338750000007,-22.39285159999997],[172.08304490000012,-22.392680299999938],[172.08287360000008,-22.39246609999998],[172.08268800000008,-22.392137799999944],[172.08268800000008,-22.391880799999967],[172.08291640000004,-22.391737999999975],[172.08307350000007,-22.39166659999995],[172.0833162,-22.39169519999996],[172.08347320000007,-22.391638099999966],[172.0836445000001,-22.39165239999994],[172.0838301000001,-22.39152389999998],[172.08405860000005,-22.391495299999974],[172.08401570000012,-22.39128119999998],[172.08418700000004,-22.39119549999998],[172.0843013000001,-22.39142389999995],[172.0843298000001,-22.39160949999996],[172.08437260000005,-22.391466799999932],[172.08448690000012,-22.391309699999965],[172.08465820000004,-22.391309699999965],[172.08487230000003,-22.391366799999957],[172.08497230000012,-22.39128119999998],[172.08495800000003,-22.39110979999998],[172.08485810000002,-22.390938499999947],[172.08505790000004,-22.39086709999998],[172.08524350000005,-22.390909999999963],[172.08531490000007,-22.39089569999993],[172.08534350000002,-22.39071009999998],[172.0856004000001,-22.390538799999945],[172.08565750000002,-22.39042459999996],[172.08594310000012,-22.390381699999978],[172.08618580000007,-22.390296099999944],[172.08610010000007,-22.39043879999997],[172.0862714000001,-22.39043879999997],[172.08638570000005,-22.390310299999953],[172.08651420000012,-22.390353199999936],[172.08664260000012,-22.390481699999953],[172.08679970000003,-22.390581599999962],[172.08694250000008,-22.390638699999954],[172.08685680000008,-22.390881399999955],[172.08705670000006,-22.390881399999955],[172.08707090000007,-22.390595899999937],[172.0871281000001,-22.390381699999978],[172.08724230000007,-22.390310299999953],[172.08725650000008,-22.390495899999962],[172.0873137000001,-22.39068149999997],[172.08735650000006,-22.39042459999996],[172.08737080000003,-22.39025319999996],[172.0875278000001,-22.39015329999995],[172.08774200000005,-22.389924899999983],[172.0878133000001,-22.38999629999995],[172.08788470000002,-22.38991059999995],[172.08797040000002,-22.389867799999934],[172.08802750000007,-22.389967699999943],[172.08811320000007,-22.39019609999997],[172.08812740000008,-22.390367499999968],[172.08825590000004,-22.39032459999993],[172.0882845000001,-22.39052449999997],[172.08821310000008,-22.390724399999954],[172.08804180000004,-22.39110979999998],[172.0878133000001,-22.391381099999933],[172.08815600000003,-22.39160949999996],[172.08832730000006,-22.391795099999968],[172.08841300000006,-22.39193789999996],[172.08837010000002,-22.39209489999996],[172.08835590000012,-22.392237699999953]]],[[[172.0894694000001,-22.391209799999956],[172.08938380000006,-22.391552399999966],[172.08949800000005,-22.391623799999934],[172.08926960000008,-22.391809399999943],[172.08899830000007,-22.391923599999927],[172.08852720000004,-22.391966499999967],[172.08845580000002,-22.39183799999995],[172.08835590000012,-22.39160949999996],[172.08835590000012,-22.391381099999933],[172.08848430000012,-22.391209799999956],[172.08865570000012,-22.39103849999998],[172.08889840000006,-22.390824299999963],[172.08919820000006,-22.39076719999997],[172.08931240000004,-22.39080999999993],[172.0893695000001,-22.391052699999932],[172.0894552000001,-22.39108129999994],[172.0894694000001,-22.391209799999956]]],[[[172.0826594,-22.39089569999993],[172.08278790000008,-22.39076719999997],[172.08290210000007,-22.39085289999997],[172.08303060000003,-22.391066999999964],[172.08286600000008,-22.391088399999944],[172.0826594,-22.39089569999993]]],[[[172.08492880000006,-22.390652399999965],[172.08482950000007,-22.39080999999993],[172.08464390000006,-22.390724399999954],[172.08465820000004,-22.390510199999937],[172.08485810000002,-22.390410299999928],[172.0850722,-22.390495899999962],[172.08492880000006,-22.390652399999965]]],[[[172.08607160000008,-22.390124699999944],[172.08591450000006,-22.390124699999944],[172.08592880000003,-22.38999629999995],[172.0860573000001,-22.389967699999943],[172.08607160000008,-22.390124699999944]]],[[[172.08685680000008,-22.389953399999968],[172.08672830000012,-22.389967699999943],[172.08657130000006,-22.389881999999943],[172.08661410000002,-22.389710699999966],[172.0867426000001,-22.389625099999932],[172.08685090000006,-22.38982809999993],[172.08685680000008,-22.389953399999968]]],[[[171.3581465000001,-22.346785799999964],[171.35831780000012,-22.346785799999964],[171.35839390000012,-22.34691909999998],[171.35833680000007,-22.347014299999955],[171.35812740000006,-22.34691909999998],[171.3581465000001,-22.346785799999964]]],[[[171.3585462000001,-22.340580199999977],[171.35866040000008,-22.340903799999978],[171.35856530000012,-22.341075099999955],[171.35873660000004,-22.341246499999954],[171.35894600000006,-22.341398699999957],[171.35902210000006,-22.341741399999933],[171.3592125,-22.34202689999995],[171.3595361,-22.342255399999942],[171.3598978000001,-22.342502799999977],[171.36005000000011,-22.342502799999977],[171.36029750000012,-22.34221729999996],[171.36060210000005,-22.342236299999968],[171.3606592000001,-22.342331499999943],[171.3609067000001,-22.342331499999943],[171.36121120000007,-22.342255399999942],[171.36164900000006,-22.342464699999937],[171.3618775000001,-22.34261699999996],[171.36189650000006,-22.342750299999977],[171.36223910000012,-22.34314999999998],[171.36233430000004,-22.343435599999964],[171.3623153000001,-22.34364499999998],[171.36223910000012,-22.34394949999995],[171.36189650000006,-22.343968599999982],[171.36183940000012,-22.344311199999936],[171.36161100000004,-22.344425399999977],[171.3616681000001,-22.34465389999997],[171.36143960000004,-22.344768099999953],[171.3615539000001,-22.34499649999998],[171.36124930000005,-22.345148799999947],[171.3610589000001,-22.345434299999965],[171.36060210000005,-22.34547239999995],[171.36031650000007,-22.34520589999994],[171.35982160000003,-22.34526299999993],[171.35974550000003,-22.34547239999995],[171.3593267000001,-22.345415299999956],[171.3590792000001,-22.345396199999982],[171.35869850000006,-22.34556759999998],[171.35864140000012,-22.345681799999966],[171.35883180000008,-22.345967299999927],[171.3587937000001,-22.346252799999945],[171.35864140000012,-22.346462199999962],[171.35864140000012,-22.34672869999997],[171.3583559000001,-22.34661449999993],[171.35791800000004,-22.346709699999963],[171.35742310000012,-22.346595499999978],[171.3572137000001,-22.346367099999952],[171.3573279000001,-22.34613859999996],[171.35751830000004,-22.345853099999943],[171.35715660000005,-22.345681799999966],[171.35662360000003,-22.345643699999982],[171.3562429000001,-22.345834099999934],[171.35597640000003,-22.34608149999997],[171.35572890000003,-22.34632899999997],[171.3553673,-22.346443199999953],[171.35500560000003,-22.34653839999993],[171.3543393000001,-22.346462199999962],[171.3536160000001,-22.346557399999938],[171.35300680000012,-22.34663359999996],[171.35220730000003,-22.34657649999997],[171.35157920000006,-22.34629089999993],[171.35136980000004,-22.34587209999995],[171.3511033000001,-22.34547239999995],[171.35097000000007,-22.345148799999947],[171.35072260000004,-22.344920399999978],[171.35058930000002,-22.344768099999953],[171.3507416000001,-22.344634799999938],[171.35062740000012,-22.34440639999997],[171.35057030000007,-22.34412089999995],[171.35055120000004,-22.34385439999994],[171.35039890000007,-22.343587899999932],[171.35022760000004,-22.34334039999993],[171.35034180000002,-22.34307389999998],[171.35024670000007,-22.34288349999997],[171.3500944000001,-22.34269319999993],[171.3502847000001,-22.34254089999996],[171.3505322000001,-22.34261699999996],[171.35062740000012,-22.342483799999968],[171.35032280000007,-22.342141099999935],[171.35030380000012,-22.341779499999973],[171.3504561000001,-22.341627199999948],[171.35058930000002,-22.34168429999994],[171.3508177000001,-22.341741399999933],[171.35097000000007,-22.341741399999933],[171.3508011,-22.341471299999967],[171.35058690000005,-22.34087649999998],[171.3507416000001,-22.34069439999996],[171.35089390000007,-22.340218499999935],[171.35129360000008,-22.33976169999994],[171.35169340000004,-22.339590399999963],[171.35220730000003,-22.33955229999998],[171.35253090000003,-22.33978069999995],[171.35277840000003,-22.34002819999995],[171.35291170000005,-22.340313699999967],[171.35306390000005,-22.34035179999995],[171.3530449000001,-22.34010429999995],[171.3530449000001,-22.33987589999998],[171.35346370000002,-22.339666499999964],[171.35399670000004,-22.33955229999998],[171.35464390000004,-22.339666499999964],[171.35504370000012,-22.339818799999932],[171.35540530000003,-22.33987589999998],[171.3558812000001,-22.34008529999994],[171.35643330000005,-22.340313699999967],[171.35668070000008,-22.340542099999936],[171.35706140000002,-22.340732499999945],[171.35736600000007,-22.341037099999937],[171.3573279000001,-22.341303599999947],[171.35807030000012,-22.34141779999993],[171.35801320000007,-22.34122739999998],[171.35799420000012,-22.34088479999997],[171.35801320000007,-22.34061829999996],[171.35816550000004,-22.340504099999976],[171.35801320000007,-22.34037079999996],[171.3581465000001,-22.340218499999935],[171.35850820000007,-22.340408899999943],[171.3585462000001,-22.340580199999977]]]]}}]}
