{"type":"FeatureCollection","features":[{"type":"Feature","properties":{"place":"mbanie","region":"GQ","donors":"GA","rank":2,"whose_line":"the coastline (uncontested), as drawn by the US Department of State","publisher":"US Department of State, Office of the Geographer and Global Issues (World Polygons, high-resolution layer DoS_WP_11_4)","source_url":"https://data.geodata.state.gov/WorldPolygons.zip","version_or_date":"World Polygons 11.4 BETA, 2025-02-24; read 2026-10-04","feature_id":"DoS_WP_11_4 fid 70","licence":"US government work, not subject to US copyright (17 U.S.C. § 105)","notes":"DoS names the feature 'Corisco Bay Islands' but it is one polygon at Mbanié (OSM relation 17877330 'Île Mbanié'). Resolved: the land goes to Equatorial Guinea under D048 (the ICJ ruling of 19 May 2025 is an accepted ruling); before that: the register says the International Court of Justice found in 2025 that the territory belongs to Equatorial Guinea and that Gabon was to remove its presence; the canon gives it to GA.","input_sha256":"55fab422ef09e35eb48d68141b9ece0ace86d4276dfe332a04dfd401c0bfc80c","operation":"none (the source feature's geometry as published)","crs":"WGS84 longitude/latitude, as in the source (no reprojection)","source_features":[{"id":"DoS_WP_11_4 fid 70","WP_Name":"Corisco Bay Islands","WP_ID":"107ccfcd-1a3c-42d1-a618-ba254e3a0783","Map_Label":null,"NOTES":null,"US_Recog":null,"Show_Disp":null,"GENC_3":"XQT"}]},"geometry":{"type":"MultiPolygon","coordinates":[[[[9.383102000000065,0.8100130000000263],[9.382677000000058,0.8099240000000236],[9.38259000000005,0.8097550000000524],[9.381909000000064,0.8096660000000497],[9.37977200000006,0.8083360000000539],[9.37772300000006,0.8079500000000621],[9.377211000000045,0.8088520000000585],[9.37669900000003,0.8089820000000714],[9.37669900000003,0.8092400000000453],[9.377467000000024,0.809626000000037],[9.381310000000042,0.809626000000037],[9.381822000000057,0.8100130000000263],[9.382502000000045,0.810100000000034],[9.38259000000005,0.810271000000057],[9.383102000000065,0.810271000000057],[9.383102000000065,0.8100130000000263]]]]}}]}
