{"type":"FeatureCollection","features":[{"type":"Feature","properties":{"place":"moldovan-held-left-bank","region":"area/moldovan-held-left-bank","donors":"area/transnistria MD","rank":3,"whose_line":"OSM mappers: the communes Moldova holds that Transnistria claims (six on the left bank, Varnița and Copanca on the right)","publisher":"OpenStreetMap contributors","source_url":"https://www.openstreetmap.org/relation/19008286","version_or_date":"snapshot 2026-10-04T06:57:51Z (Overpass attic query); relation 19008286 v12, relation 19008287 v8, relation 19001620 v10, relation 19013514 v9, relation 19013515 v8, relation 19013513 v7, relation 8289510 v22, relation 1216705 v27","feature_id":"relation 19008286, relation 19008287, relation 19001620, relation 19013514, relation 19013515, relation 19013513, relation 8289510, relation 1216705","licence":"ODbL 1.0","notes":"The six left-bank communes 'remained under the control of the Moldovan government' and, with Varnița and Copanca, 'are claimed by the PMR' (Wikipedia Transnistria, oldid 1375814450). Whether villages Transnistria holds (Roghi, part of Corjova) lie inside these communes is not checked. GADM has Moldova only at level 1.","input_sha256":"7f7544b823127e19cf6ff6cdf7883afab17dd2502ddefc3cba79c162c78d9883","operation":"union of the 8 source features","crs":"WGS84 longitude/latitude, as in the source (no reprojection)","source_features":[{"id":"relation 19008286 v12","osm":"relation/19008286","version":12,"timestamp":"2025-08-05T20:18:27Z","name":"Cocieri","name:en":"Cocieri","boundary":"administrative","admin_level":"8","place":"municipality"},{"id":"relation 19008287 v8","osm":"relation/19008287","version":8,"timestamp":"2025-06-14T18:03:47Z","name":"Molovata Nouă","name:en":"Molovata Noua","boundary":"administrative","admin_level":"8","place":"municipality"},{"id":"relation 19001620 v10","osm":"relation/19001620","version":10,"timestamp":"2025-08-05T20:18:27Z","name":"Corjova / Коржево","name:en":"Corjova","boundary":"administrative","admin_level":"8","place":"municipality"},{"id":"relation 19013514 v9","osm":"relation/19013514","version":9,"timestamp":"2025-12-27T18:54:39Z","name":"Pîrîta","name:en":"Pîrîta","boundary":"administrative","admin_level":"8","place":"municipality"},{"id":"relation 19013515 v8","osm":"relation/19013515","version":8,"timestamp":"2025-12-27T18:54:39Z","name":"Coşniţa","name:en":"Coșnița","boundary":"administrative","admin_level":"8","place":"municipality"},{"id":"relation 19013513 v7","osm":"relation/19013513","version":7,"timestamp":"2025-12-27T18:54:39Z","name":"Doroţcaia","name:en":"Dorotcaia","boundary":"administrative","admin_level":"8","place":"municipality"},{"id":"relation 8289510 v22","osm":"relation/8289510","version":22,"timestamp":"2026-07-12T01:26:59Z","name":"Varnița","boundary":"administrative","admin_level":"8"},{"id":"relation 1216705 v27","osm":"relation/1216705","version":27,"timestamp":"2026-07-12T01:26:59Z","name":"Copanca","name:en":"Copanca","boundary":"administrative","admin_level":"8","place":"village"}]},"geometry":{"type":"MultiPolygon","coordinates":[[[[29.1845597,47.1605421],[29.1833525,47.1601293],[29.1822052,47.1595129],[29.1807497,47.1581332],[29.1800506,47.1566348],[29.1797351,47.1541338],[29.1798246,47.1516295],[29.18081,47.1485248],[29.1833951,47.1432438],[29.1857547,47.1357473],[29.1863831,47.1305392],[29.1870115,47.128479],[29.1882635,47.1254573],[29.188988,47.1227781],[29.1892817,47.1205597],[29.1890209,47.1193241],[29.1885205,47.1181863],[29.1866164,47.1149791],[29.1845925,47.1123429],[29.1824902,47.1101307],[29.1808864,47.1086188],[29.1797916,47.1072515],[29.1784633,47.1056188],[29.177724,47.1048519],[29.1770696,47.1046208],[29.1763599,47.1046269],[29.1754587,47.1048312],[29.1749865,47.1053049],[29.1745421,47.1073622],[29.174808,47.1092601],[29.1751736,47.1115993],[29.1745707,47.1175416],[29.1735829,47.1212317],[29.1729578,47.1231026],[29.172194,47.1245664],[29.1716472,47.1251211],[29.1708846,47.1256431],[29.1696418,47.1263079],[29.1681794,47.1267924],[29.166418,47.1269718],[29.1647165,47.1268168],[29.1633477,47.1264068],[29.1624291,47.1259796],[29.1614866,47.1253893],[29.1601396,47.1242338],[29.1589226,47.1227006],[29.1568116,47.1194719],[29.1557567,47.1175427],[29.1539586,47.1137699],[29.153611,47.1118265],[29.1531253,47.1052687],[29.153526,47.1042322],[29.1536835,47.1035507],[29.1535884,47.1027266],[29.1532177,47.1021332],[29.1526099,47.1015818],[29.1518537,47.101117],[29.1501606,47.1004599],[29.1471744,47.0997763],[29.1440095,47.099221],[29.1406538,47.0985648],[29.138866,47.0979873],[29.1370146,47.0969337],[29.1358822,47.0960401],[29.1344955,47.0944539],[29.1319014,47.0907139],[29.1294714,47.0859024],[29.1279648,47.0797167],[29.1274512,47.0780902],[29.1265773,47.0767378],[29.1257875,47.0759278],[29.1247011,47.0752909],[29.1234093,47.0749879],[29.1224191,47.0748513],[29.1221528,47.0748177],[29.1206138,47.0748098],[29.1190866,47.0749816],[29.116652,47.0757802],[29.1124554,47.0780427],[29.1116267,47.0787226],[29.111589,47.0795079],[29.112059,47.080721],[29.1133852,47.0824429],[29.1156663,47.0849829],[29.1158297,47.0855809],[29.115822,47.085927],[29.1156923,47.0862675],[29.1154804,47.0868187],[29.1149528,47.0873487],[29.1143844,47.0877355],[29.1137072,47.0879993],[29.1125754,47.0881983],[29.1114332,47.088271],[29.1091489,47.0882199],[29.1043395,47.0879049],[29.0978741,47.0877732],[29.0954882,47.087858],[29.0920905,47.0886186],[29.0895841,47.0894645],[29.0879574,47.0902297],[29.0866649,47.0909814],[29.0850771,47.0919584],[29.0842464,47.0924084],[29.0826722,47.093261],[29.0797613,47.0948376],[29.0756022,47.0977069],[29.0720699,47.1001843],[29.0694525,47.103075],[29.068499,47.1039567],[29.0665785,47.1054292],[29.0659621,47.1060624],[29.0655603,47.106781],[29.0652856,47.1076005],[29.0652655,47.1082325],[29.0653513,47.1088646],[29.065447,47.1096226],[29.0658847,47.1108097],[29.0663806,47.1115674],[29.0673556,47.1128616],[29.0696267,47.1148561],[29.07087,47.1157857],[29.0785014,47.1203863],[29.0817786,47.1221711],[29.0847023,47.1242703],[29.0904167,47.1293459],[29.0946922,47.1343144],[29.0973307,47.1386352],[29.0982767,47.1427244],[29.0992147,47.1450136],[29.0996505,47.1455952],[29.1001736,47.1462002],[29.1007229,47.1466903],[29.1030237,47.1481802],[29.103955,47.1486338],[29.1080038,47.1496281],[29.1088925,47.1497892],[29.1122332,47.1506224],[29.1203606,47.1515117],[29.1244319,47.1522085],[29.1282458,47.1524383],[29.1315186,47.1537298],[29.1383184,47.1584141],[29.1431958,47.1620955],[29.1470249,47.1657685],[29.1522251,47.1739675],[29.1559444,47.1785917],[29.156609,47.1790315],[29.158531,47.1811696],[29.1624076,47.183128],[29.1662367,47.1859004],[29.1695203,47.1894852],[29.1720227,47.1930399],[29.1751925,47.197708],[29.1783885,47.2033137],[29.1801922,47.2084652],[29.1803082,47.2115946],[29.181549,47.2117323],[29.182005,47.2117784],[29.1842549,47.2120221],[29.1842906,47.2143216],[29.1850197,47.2149923],[29.1852123,47.2164886],[29.1868466,47.2164745],[29.1883874,47.2134349],[29.1894643,47.210365],[29.1897013,47.2089069],[29.1899233,47.2089097],[29.189991,47.2089105],[29.1901542,47.2089793],[29.1951005,47.2110657],[29.1994769,47.2129116],[29.2025165,47.2149465],[29.200453,47.2166955],[29.2023628,47.218113],[29.2059767,47.2207109],[29.2096679,47.223294],[29.2101413,47.2236208],[29.2225316,47.2319607],[29.2226064,47.2320111],[29.224988,47.2336225],[29.2250915,47.2339721],[29.2299392,47.2373629],[29.227677,47.2388935],[29.2279279,47.2393253],[29.228689,47.2417124],[29.2291134,47.2417898],[29.2321935,47.2408662],[29.236696,47.2443959],[29.2377893,47.2458989],[29.2394575,47.2473259],[29.2423954,47.2504788],[29.2425136,47.2499769],[29.242739,47.2498403],[29.2435321,47.2496161],[29.2443873,47.2495251],[29.2457671,47.2497237],[29.2464518,47.2501712],[29.2472874,47.2504596],[29.2483279,47.2506622],[29.2493707,47.2507656],[29.2501731,47.2505502],[29.2505195,47.2503199],[29.2512223,47.2497714],[29.2524654,47.2488909],[29.2529367,47.2484616],[29.2534863,47.2477782],[29.2544499,47.246858],[29.2558137,47.2474151],[29.2579962,47.2455558],[29.262556,47.2491985],[29.2734907,47.2579288],[29.2824676,47.252907],[29.2828675,47.2532218],[29.283099,47.2530845],[29.2842878,47.2523792],[29.2882472,47.2500302],[29.293686,47.2468159],[29.298793,47.250654],[29.3016897,47.2529917],[29.3040759,47.2550762],[29.3041953,47.2551836],[29.3096389,47.2520324],[29.3098057,47.251937],[29.3100297,47.2518206],[29.3135683,47.2559493],[29.3138905,47.2563251],[29.3172608,47.2602571],[29.3217972,47.2585705],[29.3220006,47.2584961],[29.3221288,47.2586474],[29.3234648,47.2602238],[29.33137,47.2696676],[29.3332999,47.2719611],[29.3390968,47.2788466],[29.339316,47.2791007],[29.3395362,47.2793442],[29.3405888,47.2789707],[29.350994,47.2748863],[29.3512929,47.2747625],[29.3510852,47.2744992],[29.3556259,47.2727515],[29.3631836,47.2698425],[29.3633916,47.26977],[29.3603006,47.2659641],[29.3561416,47.2606806],[29.3558029,47.2602503],[29.351982,47.2555095],[29.3500723,47.253019],[29.349568,47.2524073],[29.3480553,47.2505867],[29.3469906,47.2492987],[29.3461284,47.2482344],[29.3447379,47.2465403],[29.3443541,47.2461858],[29.3442671,47.246087],[29.3442269,47.2460424],[29.3440014,47.2461405],[29.3439102,47.2461801],[29.3382409,47.2486474],[29.3378919,47.2487982],[29.3350571,47.2457175],[29.3337076,47.2443034],[29.3328815,47.2434556],[29.3324565,47.2430353],[29.3315972,47.2421856],[29.3309976,47.2415686],[29.3306603,47.2412215],[29.3303607,47.2409501],[29.3301987,47.2408595],[29.3299455,47.2407922],[29.3296994,47.2407465],[29.3288997,47.2406526],[29.3286529,47.2406129],[29.328307,47.2402403],[29.325346,47.2371472],[29.3215895,47.2334546],[29.3165714,47.2288017],[29.3130083,47.2254143],[29.3082612,47.2272141],[29.3073371,47.2275206],[29.3034558,47.2285719],[29.2996121,47.2294824],[29.2990198,47.2253447],[29.2993146,47.2237801],[29.2993774,47.2203647],[29.2985746,47.2179327],[29.297427,47.2159886],[29.2967095,47.2134118],[29.2954807,47.2137232],[29.2954391,47.2117666],[29.2949058,47.2116685],[29.2927803,47.2112773],[29.292132,47.2088266],[29.294836,47.202194],[29.2923946,47.2003433],[29.2869096,47.196185],[29.2868403,47.1961026],[29.283042,47.1918957],[29.2826059,47.1911528],[29.2821241,47.1906965],[29.2758363,47.1896314],[29.274359,47.1890075],[29.2732866,47.1883256],[29.2728061,47.1880713],[29.2725204,47.1878703],[29.271413,47.1870463],[29.2702561,47.1860956],[29.2677897,47.1840643],[29.2676441,47.1839551],[29.2622414,47.1869508],[29.2597236,47.1880236],[29.25744,47.1838938],[29.2551037,47.1841479],[29.2507915,47.1877603],[29.2488772,47.1901354],[29.2441186,47.1881892],[29.2418276,47.1891411],[29.2415702,47.1863784],[29.2437491,47.1848848],[29.2500487,47.180659],[29.2499383,47.1805732],[29.2498853,47.180532],[29.2491189,47.1799363],[29.2446371,47.1769271],[29.2451239,47.176619],[29.2465166,47.1755273],[29.2465644,47.1753693],[29.2465501,47.1751655],[29.2464546,47.175028],[29.2462836,47.1749316],[29.2459907,47.1748628],[29.2457626,47.1747917],[29.2432268,47.1730464],[29.2437068,47.1726999],[29.2451019,47.1716524],[29.2468718,47.1704209],[29.2481489,47.1697698],[29.2492941,47.1688072],[29.2500854,47.1680522],[29.250784,47.1675257],[29.2510339,47.1673417],[29.2511241,47.1672662],[29.2511162,47.1671334],[29.2511004,47.1669659],[29.2511033,47.1668887],[29.2512386,47.1667282],[29.2514434,47.166464],[29.2515544,47.1663555],[29.2517245,47.1663153],[29.2519015,47.1663012],[29.2521444,47.1661384],[29.2522624,47.1659331],[29.2522381,47.1657255],[29.2520923,47.1655414],[29.2519362,47.1655226],[29.2517276,47.1653376],[29.2516951,47.1652527],[29.2516512,47.1652017],[29.2516994,47.1651105],[29.2518753,47.1650165],[29.2523502,47.1649089],[29.2529626,47.1647993],[29.2530183,47.1647846],[29.2530975,47.1647287],[29.2531317,47.1646473],[29.2531265,47.1645707],[29.2524263,47.1638722],[29.2522024,47.1636236],[29.2520608,47.1634397],[29.2514546,47.163604],[29.2507717,47.1636868],[29.2490089,47.1633301],[29.2485385,47.1636047],[29.2450179,47.1656596],[29.2355802,47.1688078],[29.231117,47.1694491],[29.2297914,47.1694379],[29.2285516,47.1691933],[29.2278292,47.1684195],[29.2276108,47.1676511],[29.2276499,47.1667952],[29.228221,47.1660948],[29.2289638,47.165482],[29.2301704,47.1650441],[29.2331385,47.1643623],[29.2361871,47.163907],[29.2373689,47.1635977],[29.2386946,47.1628924],[29.2394627,47.1622365],[29.2399055,47.161752],[29.2406628,47.1608872],[29.2412972,47.1600477],[29.2415883,47.1591206],[29.2415669,47.1580409],[29.2409017,47.1560857],[29.2403384,47.1547724],[29.2393889,47.1532257],[29.2376615,47.1515622],[29.2333719,47.1481317],[29.231632,47.1459292],[29.2304226,47.1448447],[29.2296854,47.1444922],[29.2288028,47.1442551],[29.2273922,47.1441938],[29.2263089,47.1444705],[29.2255088,47.1451697],[29.2250657,47.1461649],[29.2248044,47.1481328],[29.2244514,47.1512608],[29.2231698,47.1542438],[29.2196801,47.1578366],[29.2180921,47.1589018],[29.2141293,47.1607203],[29.2092866,47.1621157],[29.2069698,47.162785],[29.2043378,47.1633225],[29.2028668,47.1634591],[29.2010322,47.1634474],[29.1978721,47.1631272],[29.1920167,47.1625152],[29.1859006,47.1608256],[29.1845597,47.1605421]]],[[[29.1281371,47.2725438],[29.126681,47.2743579],[29.1251991,47.2758786],[29.1247444,47.2763452],[29.1235734,47.277576],[29.1234649,47.2776948],[29.1231653,47.2779284],[29.1215444,47.2789627],[29.118644,47.2811685],[29.1123666,47.2864168],[29.1025193,47.2945943],[29.1002662,47.2966501],[29.0982668,47.2987502],[29.0961519,47.3009805],[29.0905459,47.3082462],[29.0865569,47.3136957],[29.0862062,47.3143677],[29.0791619,47.3278465],[29.0768764,47.3326873],[29.075042,47.3365722],[29.073086,47.3410012],[29.0719521,47.344017],[29.0705788,47.3502977],[29.0704049,47.351605],[29.0707482,47.3528122],[29.0719521,47.3546008],[29.072715,47.3550028],[29.075042,47.3562289],[29.077075,47.3568051],[29.0805676,47.3574405],[29.0843117,47.357508],[29.08854,47.3572896],[29.0922082,47.3568103],[29.0959423,47.3552449],[29.0987313,47.3532052],[29.1032289,47.3490898],[29.1070827,47.3445698],[29.113674,47.3352544],[29.1152141,47.33337],[29.1173201,47.3315446],[29.1227639,47.3280792],[29.1251597,47.3273073],[29.1281159,47.326814],[29.1321182,47.3268651],[29.1358216,47.3272201],[29.1413033,47.3283119],[29.1529331,47.3323264],[29.157142,47.3350533],[29.1588887,47.3365821],[29.1604818,47.3382981],[29.1649963,47.3364019],[29.1654095,47.3364711],[29.1687402,47.3370808],[29.1688879,47.3372595],[29.1743343,47.3384183],[29.1746411,47.338365],[29.1738295,47.3361409],[29.1740943,47.3362269],[29.1753361,47.3366301],[29.1820112,47.3385097],[29.1869568,47.3394132],[29.1885814,47.3397542],[29.1895865,47.3403407],[29.1895061,47.3404319],[29.1894281,47.3405234],[29.1883639,47.3418316],[29.1922048,47.3427912],[29.193741,47.3424472],[29.1961222,47.343667],[29.1982853,47.3440794],[29.2033649,47.3450477],[29.2046251,47.3432093],[29.2051877,47.3429668],[29.2058339,47.3429899],[29.2065056,47.3432099],[29.2067869,47.3434739],[29.2069571,47.3439437],[29.2070244,47.3442354],[29.2098576,47.3437612],[29.2102506,47.3434519],[29.2108813,47.3432555],[29.2116516,47.3431428],[29.2140819,47.3431068],[29.2146159,47.3431972],[29.2176886,47.3440392],[29.2185101,47.3443536],[29.2189806,47.3446217],[29.2194186,47.3450001],[29.2198675,47.3454641],[29.2201316,47.3458633],[29.2203762,47.345921],[29.2208902,47.3460904],[29.2213904,47.3464159],[29.2217674,47.346825],[29.2219318,47.3472951],[29.2225973,47.3494021],[29.2248091,47.3489337],[29.2253414,47.3506886],[29.2293558,47.3502086],[29.2297056,47.3517205],[29.2393967,47.3540118],[29.2394396,47.354313],[29.2389218,47.355235],[29.2380741,47.3570991],[29.2375645,47.3579333],[29.2368979,47.3592168],[29.2367542,47.3597839],[29.2369262,47.3600187],[29.2372542,47.3602798],[29.23875,47.3609103],[29.2390522,47.3613719],[29.23981,47.3623939],[29.2402855,47.3627606],[29.2407335,47.3628796],[29.2436332,47.3619109],[29.2440871,47.3619623],[29.244701,47.3622298],[29.2453045,47.3622803],[29.2455907,47.3619141],[29.2456077,47.36116],[29.2458751,47.3605644],[29.2460152,47.3604498],[29.2462276,47.3604621],[29.2463059,47.3605679],[29.246355,47.3613554],[29.2463559,47.3622145],[29.2459909,47.3637826],[29.2459649,47.3642969],[29.2465122,47.3650743],[29.2471641,47.365551],[29.2477376,47.3651721],[29.2480804,47.3656783],[29.2483757,47.3657407],[29.2528465,47.3631615],[29.2575073,47.3604257],[29.2581495,47.3600484],[29.2603923,47.3587309],[29.2602701,47.3586351],[29.2587133,47.3574291],[29.2588413,47.3573545],[29.2636682,47.3545407],[29.2640884,47.3542957],[29.258363,47.3496749],[29.2582577,47.3495929],[29.262085,47.3473698],[29.2621676,47.3474413],[29.2638619,47.348908],[29.267227,47.3516481],[29.2692067,47.3505047],[29.2746378,47.3548222],[29.2776254,47.357197],[29.2799378,47.3590351],[29.2800686,47.359139],[29.2846587,47.362851],[29.2899551,47.3671092],[29.2951149,47.3711672],[29.2952608,47.3712732],[29.3016068,47.3762572],[29.3018167,47.3764183],[29.3053944,47.3738571],[29.3097456,47.3709596],[29.3108162,47.3712788],[29.3116282,47.3714938],[29.3127096,47.3717801],[29.3216896,47.3739513],[29.3241797,47.3745293],[29.3357683,47.3771979],[29.3359262,47.3772343],[29.3362834,47.3754154],[29.3366744,47.3732468],[29.3373839,47.3704093],[29.3368971,47.3702365],[29.3364894,47.3693065],[29.3366166,47.3681499],[29.3366396,47.3679404],[29.3374584,47.3642421],[29.3376696,47.3625774],[29.3348908,47.3617489],[29.3337858,47.3614728],[29.3313503,47.3608114],[29.3295693,47.3602228],[29.3269022,47.3591372],[29.3266511,47.3590454],[29.3229282,47.35765],[29.318701,47.3561964],[29.3099753,47.3533676],[29.3054187,47.3518426],[29.300833,47.3503841],[29.2944686,47.3483137],[29.2903584,47.3470581],[29.2876236,47.3462591],[29.2850975,47.3454355],[29.2818391,47.3444254],[29.2766872,47.3428329],[29.2762515,47.3424958],[29.2686295,47.3364452],[29.258927,47.3419866],[29.2587365,47.3420953],[29.2559344,47.3397861],[29.2450873,47.3310922],[29.2390373,47.3261706],[29.2369991,47.3245343],[29.2368928,47.3244479],[29.2297285,47.318768],[29.2252787,47.3231569],[29.2249452,47.3234697],[29.2214749,47.3206572],[29.2105915,47.3119548],[29.209378,47.3109875],[29.2085316,47.3102911],[29.2084667,47.3099381],[29.2076682,47.3092598],[29.2070306,47.3085089],[29.2068867,47.3083026],[29.2063444,47.3075249],[29.2054921,47.3063588],[29.2048746,47.3051336],[29.20428,47.3036758],[29.2039255,47.3022723],[29.2037654,47.3014658],[29.2037425,47.3007601],[29.2035756,47.2975378],[29.2015433,47.2967656],[29.1870751,47.2912673],[29.1696436,47.2845914],[29.1692631,47.2844359],[29.1700755,47.2835176],[29.1709672,47.2826005],[29.1722091,47.2815334],[29.1726759,47.2811493],[29.1684832,47.2785884],[29.1682772,47.2787728],[29.165887,47.2809122],[29.1650246,47.2806143],[29.1639801,47.2813766],[29.1633149,47.2818477],[29.1630751,47.2819972],[29.162846,47.2820432],[29.1625868,47.2821219],[29.1614273,47.2830696],[29.1613701,47.2830077],[29.1608644,47.2833074],[29.1592286,47.2846806],[29.1577063,47.2835922],[29.1569615,47.2841719],[29.1568522,47.2841683],[29.1539325,47.2832004],[29.1536144,47.2831206],[29.1528094,47.2828386],[29.151732,47.2825703],[29.1509891,47.28237],[29.1511174,47.282219],[29.1511475,47.2818241],[29.1510987,47.2813451],[29.1504393,47.2812346],[29.1499252,47.2808785],[29.1495441,47.2805914],[29.1490383,47.2803352],[29.1479606,47.2799525],[29.1473692,47.279655],[29.1471257,47.2802926],[29.1455977,47.2791622],[29.1442874,47.2781707],[29.1432872,47.2789276],[29.1432068,47.2789873],[29.1410281,47.2776731],[29.1421992,47.27677],[29.1412449,47.2762526],[29.1396925,47.2751388],[29.1410266,47.2742856],[29.1413772,47.2740866],[29.1415951,47.2739392],[29.142418,47.2732821],[29.14204,47.2730709],[29.1418381,47.2729622],[29.141682,47.2728466],[29.1413073,47.2726875],[29.1407635,47.2723876],[29.1401078,47.2720075],[29.1399563,47.2719143],[29.1396986,47.2717033],[29.1391503,47.2713579],[29.1391302,47.2713042],[29.1391763,47.271199],[29.1393104,47.2710814],[29.1397132,47.2708025],[29.1400615,47.2705912],[29.13995,47.2705087],[29.1396722,47.270309],[29.139517,47.2703107],[29.1393757,47.2703122],[29.1392744,47.2702707],[29.1389684,47.2700676],[29.1389599,47.2699927],[29.1390262,47.2699224],[29.1389795,47.2698723],[29.1387686,47.2696492],[29.1386128,47.2694844],[29.1374767,47.2685978],[29.1369112,47.2681566],[29.1366311,47.2678433],[29.1362244,47.2674958],[29.1356538,47.2662376],[29.1319667,47.2688204],[29.1289025,47.2713329],[29.1281371,47.2725438]]],[[[29.638327,46.7128683],[29.6379331,46.7134504],[29.6378246,46.7139681],[29.6376732,46.7145374],[29.6376128,46.7160012],[29.6378286,46.717035],[29.6378512,46.7173184],[29.6368993,46.7179396],[29.6353748,46.7184804],[29.6332747,46.7184185],[29.6324258,46.7182802],[29.6318031,46.7180471],[29.6311546,46.7176062],[29.6303944,46.716171],[29.6302458,46.7159421],[29.6299461,46.7153027],[29.6296971,46.7135633],[29.629648,46.7103793],[29.6296752,46.7089872],[29.6295746,46.7081565],[29.629833,46.7070257],[29.6300792,46.7063758],[29.6305128,46.7059041],[29.631582,46.7057241],[29.6319288,46.705713],[29.6322932,46.7057368],[29.6329803,46.7059227],[29.6335966,46.7062395],[29.6345606,46.7073044],[29.6357639,46.7080615],[29.6371892,46.7084437],[29.6382605,46.7084983],[29.6393103,46.7084498],[29.6413702,46.7080967],[29.6431941,46.7074824],[29.6449536,46.7067798],[29.6460335,46.7061154],[29.646765,46.705528],[29.6473891,46.7048375],[29.6477485,46.7042599],[29.6478317,46.7036768],[29.6477217,46.7031526],[29.6474267,46.7027318],[29.6469601,46.7024582],[29.6465684,46.7021727],[29.6460051,46.7019754],[29.6446719,46.7016459],[29.6417135,46.7015045],[29.6392673,46.7014824],[29.6365637,46.7013573],[29.6341458,46.7009174],[29.6322859,46.7004333],[29.6311778,46.700055],[29.6297723,46.6993339],[29.6287531,46.6986128],[29.6282918,46.6980315],[29.6280879,46.697509],[29.6279484,46.6969277],[29.6281308,46.6963023],[29.6286056,46.6956841],[29.629252,46.6951249],[29.6302444,46.6945509],[29.6324157,46.6937844],[29.6348967,46.6934359],[29.640412,46.6934122],[29.641214,46.6932795],[29.6415848,46.6930202],[29.6416831,46.6928203],[29.6418155,46.6925283],[29.641743,46.6921856],[29.6413058,46.6918134],[29.6406257,46.6914926],[29.6391953,46.6910225],[29.6374001,46.6905376],[29.6350297,46.6901235],[29.6328207,46.6899918],[29.6312913,46.6901202],[29.6300837,46.6903517],[29.6276943,46.6908976],[29.6252023,46.6918341],[29.6230204,46.6928332],[29.6217104,46.6935392],[29.6214733,46.6939632],[29.6214641,46.6940569],[29.6214766,46.6942475],[29.6216179,46.6944529],[29.6226667,46.6957162],[29.6231741,46.6965598],[29.6232941,46.6968264],[29.6232765,46.6970677],[29.62302,46.6973243],[29.6223765,46.6975746],[29.6219434,46.6976069],[29.6214671,46.6975939],[29.6203642,46.6972816],[29.6192339,46.696807],[29.6181339,46.6959229],[29.6172539,46.6951426],[29.616429,46.6941821],[29.6161395,46.6938052],[29.615958,46.6932616],[29.6157493,46.6926199],[29.6156802,46.6918102],[29.6161424,46.6908076],[29.6169925,46.6895577],[29.6185938,46.6881528],[29.6198041,46.6871638],[29.6213268,46.6860608],[29.6246039,46.6839936],[29.626287,46.6829207],[29.6276771,46.6818494],[29.6277061,46.6814389],[29.6275632,46.6810361],[29.6271175,46.6806362],[29.6262898,46.6805232],[29.6253283,46.6804896],[29.6234683,46.6806664],[29.6193037,46.6815244],[29.6170453,46.6820162],[29.6149585,46.6825963],[29.6135757,46.6833111],[29.6132024,46.6840164],[29.6132177,46.6846671],[29.6136412,46.6850504],[29.6142639,46.6853294],[29.6150583,46.6855496],[29.6171954,46.6861038],[29.617651,46.6863478],[29.6181273,46.6869373],[29.6181446,46.6873031],[29.6177545,46.6876898],[29.6171153,46.688065],[29.6166353,46.6881629],[29.6156374,46.6881567],[29.6135227,46.6875824],[29.6052548,46.6910197],[29.5989084,46.69407],[29.5976822,46.6947358],[29.5968416,46.6955174],[29.5956274,46.6949793],[29.5948033,46.6957583],[29.5941336,46.696114],[29.5938721,46.696934],[29.5929381,46.6970236],[29.5926579,46.6977795],[29.592303,46.6983689],[29.5914364,46.6984865],[29.5821502,46.6985061],[29.575583,46.6986952],[29.565915,46.6989613],[29.5682252,46.7046719],[29.5705825,46.7105639],[29.5680601,46.7102982],[29.5659051,46.7101494],[29.564045,46.7100535],[29.5628199,46.710073],[29.5624343,46.7101645],[29.563885,46.7142311],[29.5643126,46.7155013],[29.5649764,46.719007],[29.5663762,46.7253461],[29.5667795,46.7277464],[29.5668751,46.728885],[29.5667417,46.7307232],[29.5677149,46.7308047],[29.5680167,46.7307373],[29.5684526,46.7305686],[29.5689864,46.7304012],[29.5697656,46.7303165],[29.5701822,46.7302839],[29.5706911,46.7292997],[29.5713369,46.7280505],[29.5717375,46.7275546],[29.5717291,46.7276583],[29.5717459,46.7278033],[29.5717722,46.7279105],[29.5717987,46.728118],[29.5717914,46.7284411],[29.5717664,46.7295508],[29.571688,46.7302095],[29.5716916,46.7308743],[29.5716986,46.7321543],[29.5717091,46.7340806],[29.5717599,46.7352859],[29.5717671,46.7354571],[29.5719224,46.7359516],[29.5729077,46.7403305],[29.5756601,46.7402413],[29.5782451,46.7400688],[29.5789185,46.7408726],[29.5793252,46.7412696],[29.5853517,46.741599],[29.588667,46.7417848],[29.5900966,46.7420297],[29.5918597,46.7434115],[29.5942501,46.7424179],[29.5966833,46.7414664],[29.598013,46.74099],[29.5989199,46.740874],[29.60047,46.7406464],[29.6020466,46.7411691],[29.6021705,46.7432534],[29.6022067,46.7439],[29.6023037,46.7454685],[29.6049785,46.7456204],[29.6108403,46.746056],[29.6150161,46.7463555],[29.6150569,46.7461604],[29.6152194,46.7460411],[29.6183757,46.746272],[29.6229465,46.7466485],[29.6352538,46.7476838],[29.6408046,46.7480978],[29.6428635,46.7484446],[29.6536661,46.7493646],[29.6528525,46.7483574],[29.6512714,46.7467684],[29.6513097,46.7465058],[29.6515561,46.7454618],[29.6517647,46.7445781],[29.6643859,46.7443169],[29.6645158,46.7332642],[29.6637076,46.7334267],[29.663377,46.7333458],[29.6632788,46.7332023],[29.6630216,46.7303589],[29.6627577,46.7282344],[29.6628374,46.7282327],[29.6626463,46.7266968],[29.659358,46.7266767],[29.6587799,46.7266789],[29.6582103,46.7266674],[29.6579181,46.7266518],[29.6577771,46.7265999],[29.6576479,46.726542],[29.6575507,46.7252452],[29.6575404,46.7245848],[29.6574805,46.7241734],[29.6573581,46.7234629],[29.6572725,46.7231574],[29.6570645,46.7226139],[29.656583,46.7215389],[29.6563168,46.7205271],[29.6561536,46.7199971],[29.6564892,46.7198926],[29.656607,46.7198234],[29.6572773,46.7194894],[29.657788,46.7192349],[29.6581664,46.7189444],[29.6593823,46.7178719],[29.6597268,46.7173305],[29.6598845,46.7169188],[29.6600852,46.7163672],[29.6601002,46.7150729],[29.6593645,46.7143096],[29.6582117,46.7139771],[29.6571114,46.7138903],[29.6542147,46.714008],[29.6525195,46.7138757],[29.6486628,46.7130418],[29.6461092,46.7124271],[29.6441566,46.7121035],[29.6426975,46.7119196],[29.6411902,46.7119424],[29.6398435,46.7121446],[29.6389497,46.712502],[29.638327,46.7128683]]],[[[29.4300649,46.8648299],[29.4297781,46.865294],[29.4296692,46.8654236],[29.4293236,46.866369],[29.4267286,46.8741419],[29.4253276,46.8797174],[29.4245925,46.8833217],[29.4250879,46.8846214],[29.4260626,46.8865435],[29.422595,46.8869367],[29.4193032,46.8871551],[29.4181527,46.888138],[29.4181527,46.8887387],[29.4178331,46.888968],[29.4173218,46.8890444],[29.4064873,46.8977003],[29.4065084,46.898485],[29.4066904,46.899651],[29.4067423,46.9039557],[29.4068303,46.90527],[29.4068887,46.9070965],[29.4080142,46.9068094],[29.4086991,46.9066677],[29.4094909,46.906603],[29.4101683,46.9066562],[29.4107434,46.9067195],[29.4113238,46.9067343],[29.4120885,46.9067528],[29.4125174,46.906826],[29.4131782,46.9069643],[29.4134873,46.9069692],[29.4143378,46.9069259],[29.4146716,46.9070092],[29.4150894,46.9071506],[29.4154318,46.907199],[29.4162783,46.9071755],[29.4168121,46.9070961],[29.4179125,46.9070192],[29.4188872,46.9070558],[29.4198944,46.9071709],[29.420593,46.9073688],[29.4213435,46.9076385],[29.422021,46.9077916],[29.4226253,46.9078416],[29.4231565,46.9078615],[29.423522,46.9079248],[29.4243012,46.907927],[29.424526,46.908058],[29.4247404,46.9081179],[29.4254715,46.9081412],[29.4258175,46.908291],[29.426144,46.9084109],[29.4267094,46.9084742],[29.4270749,46.9085374],[29.4283041,46.9088627],[29.4298431,46.9093765],[29.4303451,46.9094131],[29.4312398,46.9096295],[29.43189,46.909736],[29.4332157,46.9100457],[29.4347776,46.910392],[29.4353681,46.910713],[29.435758,46.9110139],[29.4359959,46.9111657],[29.4362844,46.9112563],[29.4365768,46.9113069],[29.4372519,46.9117562],[29.4386232,46.9126219],[29.4400314,46.9135599],[29.4408831,46.9141141],[29.4414724,46.9144301],[29.441659,46.9145003],[29.4418306,46.9145296],[29.4420567,46.9145109],[29.4423964,46.9144553],[29.4444046,46.9140556],[29.445922,46.913694],[29.4480411,46.9133797],[29.4496702,46.9130737],[29.4501576,46.9130862],[29.450779,46.913132],[29.4517151,46.913116],[29.4536971,46.9130155],[29.4555917,46.9129697],[29.4573208,46.9130891],[29.4584306,46.9133318],[29.4591675,46.9133521],[29.4599965,46.9132889],[29.4603078,46.9132905],[29.4605393,46.913353],[29.4624145,46.9142429],[29.4626189,46.9142446],[29.4628099,46.9142019],[29.4629036,46.9140606],[29.4630559,46.9138057],[29.4638532,46.9131722],[29.4646509,46.9125156],[29.4654757,46.9119678],[29.4660646,46.9117563],[29.466897,46.9117048],[29.4678441,46.9112389],[29.4650605,46.9057575],[29.464407,46.9041123],[29.4643533,46.9030175],[29.4651161,46.9004267],[29.4657838,46.8992313],[29.4666554,46.8978673],[29.4675695,46.8968264],[29.4684945,46.8959685],[29.4704839,46.894759],[29.4719369,46.8942606],[29.4735124,46.8937859],[29.4759061,46.8933798],[29.4796826,46.8926759],[29.4805906,46.8922663],[29.4813483,46.8917101],[29.4815706,46.8909489],[29.4824398,46.8877371],[29.4837667,46.8849324],[29.4846406,46.8822825],[29.4847098,46.8808636],[29.4847527,46.8799841],[29.4839416,46.8718055],[29.483466,46.8696136],[29.483586,46.8676492],[29.4863678,46.8591402],[29.4878844,46.8553374],[29.4900839,46.8538001],[29.4877199,46.8535822],[29.4875295,46.8535647],[29.4873149,46.8535497],[29.4868924,46.8534957],[29.4867773,46.8534756],[29.4866905,46.8535201],[29.4865185,46.8535553],[29.4859668,46.8535234],[29.4857375,46.8534707],[29.4856036,46.8534584],[29.48557,46.8535004],[29.485294,46.853536],[29.4850477,46.8535406],[29.4845284,46.8535046],[29.4833103,46.8534396],[29.4818559,46.8533081],[29.4813626,46.8532462],[29.4798048,46.8530509],[29.4794938,46.8531148],[29.4792821,46.8528194],[29.4791189,46.8526223],[29.4789285,46.8524324],[29.4788323,46.8523082],[29.4788584,46.8522377],[29.4788734,46.8522012],[29.4781081,46.852003],[29.4781307,46.8519642],[29.4780255,46.8517457],[29.4779728,46.8516615],[29.4778379,46.8514916],[29.4776849,46.851315],[29.4776758,46.8513092],[29.4772416,46.8508135],[29.4771729,46.8507359],[29.4768583,46.8504396],[29.4766201,46.8502289],[29.4767226,46.8502095],[29.4767325,46.8501855],[29.4767365,46.8501757],[29.4767392,46.8501693],[29.476357,46.8498038],[29.4756614,46.848988],[29.4754143,46.8485628],[29.475266,46.8483069],[29.4752016,46.8483518],[29.475142,46.8482447],[29.4748678,46.8476022],[29.4743598,46.8475786],[29.4742368,46.8478954],[29.4740233,46.8484276],[29.4739713,46.8485663],[29.4737326,46.8493893],[29.4736454,46.8496758],[29.4732002,46.849598],[29.472943,46.8504783],[29.4729025,46.8507108],[29.4728944,46.8509686],[29.4729348,46.8515111],[29.4724781,46.85145],[29.4723923,46.8515837],[29.4723899,46.8518128],[29.4716027,46.8517764],[29.4715983,46.851817],[29.4714806,46.8519066],[29.4714466,46.851914],[29.4712617,46.8519546],[29.4713313,46.8520883],[29.4713509,46.8523504],[29.4715169,46.8530111],[29.4715379,46.8531027],[29.4713425,46.8531341],[29.4715425,46.8545354],[29.4713549,46.8545341],[29.4700768,46.8545026],[29.4699952,46.8545386],[29.4696027,46.8545171],[29.4695716,46.8547035],[29.4693677,46.8555237],[29.4693912,46.8555832],[29.4693066,46.8555764],[29.4691251,46.8560851],[29.4686935,46.8560599],[29.4680992,46.8560037],[29.4675222,46.8559126],[29.4671961,46.855866],[29.4671373,46.8559048],[29.4667392,46.8559145],[29.4662236,46.8559119],[29.4661651,46.8559103],[29.4658414,46.8559014],[29.4657024,46.8558696],[29.4650942,46.8558584],[29.4648031,46.8558642],[29.4647162,46.8558379],[29.4644415,46.8557113],[29.4643227,46.8558222],[29.464006,46.8560012],[29.4640585,46.8561868],[29.4639079,46.8562167],[29.4637787,46.856094],[29.4634842,46.8561623],[29.4630262,46.8561691],[29.4630272,46.8562033],[29.4626693,46.8561755],[29.462463,46.856173],[29.4622789,46.8562284],[29.4623917,46.8558259],[29.4613637,46.8555251],[29.4610183,46.8554868],[29.4610553,46.8555675],[29.4609976,46.8555816],[29.4610178,46.8556126],[29.4609419,46.8556385],[29.4613869,46.856169],[29.4607051,46.8564265],[29.4604151,46.856097],[29.4601027,46.8561866],[29.4600692,46.8561387],[29.4599642,46.8561653],[29.4599893,46.8562119],[29.4599581,46.8562205],[29.4599503,46.856211],[29.4599061,46.8562227],[29.4598818,46.8561817],[29.459738,46.8559095],[29.4594457,46.8558693],[29.4593086,46.8558773],[29.4592416,46.8558772],[29.4591592,46.8560109],[29.4591101,46.856232],[29.4583305,46.8560345],[29.4571788,46.8558982],[29.4570545,46.8557923],[29.4572009,46.8552272],[29.4571372,46.8551696],[29.4562317,46.8548593],[29.4561941,46.8547168],[29.4550039,46.854277],[29.4549627,46.8543289],[29.4541477,46.855354],[29.4539718,46.855638],[29.4537003,46.8559536],[29.4532073,46.8557221],[29.4527871,46.8555216],[29.4523319,46.8553008],[29.4513413,46.8548203],[29.450167,46.8543648],[29.4497053,46.8542074],[29.4483422,46.8536093],[29.4467519,46.852874],[29.4442366,46.8549141],[29.4437916,46.8553036],[29.4429501,46.8558701],[29.4419544,46.856487],[29.4410305,46.8570516],[29.4405508,46.8573469],[29.4397624,46.857856],[29.4389439,46.8583668],[29.4387922,46.8582542],[29.4386615,46.8581544],[29.4385438,46.8580576],[29.4383363,46.8582279],[29.4381861,46.8584394],[29.4347438,46.860927],[29.4339685,46.8614572],[29.433475,46.8617869],[29.4339009,46.8620592],[29.4332384,46.862553],[29.4328546,46.8628307],[29.4300649,46.8648299]]]]}}]}
