{"type":"FeatureCollection","features":[{"type":"Feature","properties":{"place":"mount-scopus-enclave","region":"area/armistice-no-mans-lands","donors":"IL PS area/east-jerusalem","rank":2,"whose_line":"the 1949 Israel–Jordan armistice lines (limits of the no-man's-lands) as drawn by the US Department of State","publisher":"US Department of State, Office of the Geographer and Global Issues (World Polygons, high-resolution layer DoS_WP_11_4)","source_url":"https://data.geodata.state.gov/WorldPolygons.zip","version_or_date":"World Polygons 11.4 BETA, 2025-02-24; read 2026-10-04","feature_id":"DoS_WP_11_4 fid 143 (Israel), the separate part of the Mount Scopus enclave","licence":"US government work, not subject to US copyright (17 U.S.C. § 105)","notes":"The 1948-1967 Mount Scopus enclave, a separate part (1.045 km²) of the State Department's Israel polygon, closed exactly by its LSIB 11.4 lines (the 1949 Armistice Line and the Israel / No Man's Land line). The 1948 agreement's own map is not published with it, and the two parties used different maps (UN S/4030, 1958); OSM way 202753108 differs by 0.5 km².","input_sha256":"55fab422ef09e35eb48d68141b9ece0ace86d4276dfe332a04dfd401c0bfc80c","operation":"none (the source feature's geometry as published); only the parts that contain the points [[35.24513, 31.79585]]","crs":"WGS84 longitude/latitude, as in the source (no reprojection)","source_features":[{"id":"DoS_WP_11_4 fid 143","WP_Name":"Israel","WP_ID":"2c8445cf-bb86-4b62-b2f8-67a6b1d155ec","Map_Label":"ISRAEL","NOTES":null,"US_Recog":"Independent","Show_Disp":null,"GENC_3":"ISR"}]},"geometry":{"type":"Polygon","coordinates":[[[35.24043100000006,31.795645000000036],[35.238001000000054,31.798280000000034],[35.24000300000006,31.80031800000006],[35.24259100000006,31.798745000000054],[35.24292900000006,31.79891900000007],[35.24319900000006,31.799075000000073],[35.243475000000046,31.799271000000033],[35.243734000000075,31.799480000000074],[35.24398700000006,31.79971000000006],[35.24418200000008,31.799901000000034],[35.244406000000026,31.80017900000007],[35.24453300000005,31.800350000000037],[35.24509000000006,31.801303000000075],[35.24822900000004,31.80218700000006],[35.24867700000004,31.801625000000058],[35.249907000000064,31.802215000000047],[35.250387000000046,31.801671000000056],[35.25081800000004,31.801157000000046],[35.25126800000004,31.800541000000067],[35.251513000000045,31.800175000000024],[35.25167800000003,31.79985700000003],[35.25177800000006,31.799593000000073],[35.25184800000005,31.79928300000006],[35.251873000000046,31.798985000000073],[35.25180800000004,31.797446000000036],[35.25179000000003,31.797263000000044],[35.25175500000006,31.79714400000006],[35.251675000000034,31.797033000000056],[35.25143500000007,31.796817000000033],[35.251415000000065,31.79679500000003],[35.250905000000046,31.79641300000003],[35.250335000000064,31.796034000000077],[35.24972400000007,31.79567300000008],[35.24917400000004,31.795367000000056],[35.24831900000004,31.79493400000007],[35.248564000000044,31.79455500000006],[35.24865900000003,31.79435600000005],[35.24876900000004,31.794032000000072],[35.248799000000076,31.793901000000062],[35.248804000000064,31.793803000000025],[35.248799000000076,31.793641000000036],[35.248774000000026,31.793442000000027],[35.24815000000007,31.790922000000023],[35.247978000000046,31.790297000000066],[35.247903000000065,31.789931000000024],[35.24786300000005,31.789631000000043],[35.24628500000006,31.78949700000004],[35.24478400000004,31.791457000000037],[35.240188000000046,31.792894000000047],[35.24043100000006,31.795645000000036]]]}}]}
