{"type":"FeatureCollection","features":[{"type":"Feature","properties":{"place":"penon-de-alhucemas","region":"ES","donors":"","rank":3,"whose_line":"OpenStreetMap mappers (coastline)","publisher":"OpenStreetMap contributors","source_url":"https://www.openstreetmap.org/way/8692684","version_or_date":"snapshot 2026-10-04T06:57:51Z (Overpass attic query); way 8692684 v25 (2025-12-22T21:16:58Z)","feature_id":"way 8692684","licence":"ODbL 1.0","notes":"Only the Peñón itself, as Natural Earth's feature; the neighbouring Isla de Tierra and Isla de Mar (OSM ways 8692720, 8692779) are not included. DoS has it only inside 'Spain (Plazas de Soberania)' with the other plazas.","input_sha256":"1838423be70b3ca5632ef5eaec9e63dbcc02882905378bd38723d4f9e6125ed7","operation":"assembled from the OSM element's member ways (outer minus inner)","crs":"WGS84 longitude/latitude, as in the source (no reprojection)","source_features":[{"id":"way 8692684 v25","osm":"way/8692684","version":25,"timestamp":"2025-12-22T21:16:58Z","name":"Peñón de Alhucemas","place":"islet","source":"Bing"}]},"geometry":{"type":"Polygon","coordinates":[[[-3.8899888,35.2137816],[-3.8900187,35.2137796],[-3.8900741,35.2137547],[-3.8901268,35.213712],[-3.8901355,35.2136859],[-3.8902062,35.2136146],[-3.8902359,35.2135517],[-3.8903037,35.2135381],[-3.8903094,35.213519],[-3.8903586,35.2135008],[-3.890359,35.2134852],[-3.8903973,35.2134768],[-3.8904001,35.213441],[-3.8904688,35.2134164],[-3.8904783,35.2133986],[-3.8904805,35.2133678],[-3.8904759,35.2133421],[-3.8904599,35.213318],[-3.8904501,35.2133173],[-3.8904407,35.2132916],[-3.8904103,35.2132909],[-3.8903502,35.2132594],[-3.8903024,35.2132451],[-3.8902115,35.2132306],[-3.8901585,35.2132112],[-3.8901401,35.2132129],[-3.8901206,35.2132226],[-3.8900719,35.2131764],[-3.8900365,35.2131642],[-3.8900242,35.2131724],[-3.8899233,35.2131404],[-3.8899046,35.2131219],[-3.8898869,35.2131216],[-3.8898407,35.2131163],[-3.8897846,35.213099],[-3.8897615,35.2130736],[-3.8896773,35.2130656],[-3.8894535,35.2130497],[-3.8894071,35.2131106],[-3.8892896,35.213097],[-3.8890281,35.2131152],[-3.8888477,35.2131138],[-3.8888493,35.2130731],[-3.88879,35.2130421],[-3.8887179,35.2130158],[-3.8886533,35.2130211],[-3.8886455,35.2130418],[-3.8886254,35.213047],[-3.8885968,35.2130372],[-3.8885484,35.2130571],[-3.8885717,35.2131131],[-3.8886427,35.2131584],[-3.8886194,35.2132281],[-3.8886389,35.2132835],[-3.8887052,35.2132813],[-3.8887064,35.213308],[-3.8886946,35.2133284],[-3.8886773,35.2133085],[-3.8886675,35.2133498],[-3.8886677,35.2133964],[-3.8886362,35.2134129],[-3.8885759,35.2134113],[-3.8885387,35.2134139],[-3.8885476,35.2133804],[-3.8885288,35.2133276],[-3.8885606,35.2133315],[-3.8885728,35.2132964],[-3.8885061,35.2132657],[-3.88847,35.2132666],[-3.8884637,35.2132451],[-3.8884374,35.2132439],[-3.8884187,35.21326],[-3.8883979,35.2132435],[-3.8883679,35.2132609],[-3.8883851,35.213327],[-3.8883779,35.2133509],[-3.8883615,35.2133733],[-3.8883208,35.2133861],[-3.8882976,35.2134197],[-3.8883094,35.2134769],[-3.8884288,35.2135132],[-3.8884442,35.2135154],[-3.8884695,35.2134538],[-3.8885885,35.2134646],[-3.8886403,35.2134995],[-3.8886544,35.2134925],[-3.8886897,35.2134595],[-3.8888279,35.2134506],[-3.8888691,35.213477],[-3.8888368,35.2135342],[-3.8888382,35.2136103],[-3.8888877,35.2137775],[-3.8889408,35.2138037],[-3.888967,35.2138304],[-3.88917,35.2138695],[-3.8892363,35.2138843],[-3.8892555,35.2138688],[-3.8892934,35.2138665],[-3.8892949,35.2138438],[-3.8893489,35.2138456],[-3.8893595,35.2138346],[-3.8894094,35.21384],[-3.8894691,35.2138344],[-3.8894938,35.2138044],[-3.8895106,35.2138039],[-3.8895466,35.2137503],[-3.8895605,35.2137435],[-3.889628,35.2137449],[-3.8897108,35.2137178],[-3.8897241,35.2136965],[-3.8897849,35.2137139],[-3.8898154,35.2137019],[-3.8899571,35.2137467],[-3.8899654,35.2137771],[-3.8899888,35.2137816]]]}}]}
