{"type":"FeatureCollection","features":[{"type":"Feature","properties":{"place":"rincon-de-artigas","region":"area/rincon-de-artigas","donors":"BR","rank":4,"whose_line":"Natural Earth editors","publisher":"Natural Earth (ne_10m_admin_0_disputed_areas)","source_url":"https://raw.githubusercontent.com/nvkelso/natural-earth-vector/v5.1.2/geojson/ne_10m_admin_0_disputed_areas.geojson","version_or_date":"v5.1.2 (git tag); read 2026-10-04","feature_id":"NE_ID 1159320443","licence":"public domain","notes":"Region since D063 (inhabited line dispute; Natural Earth points of view differ). No higher-ranked outline searched yet.","input_sha256":"9cafef8b7dfb6b164dc58f218f981f4ace9f716f6c03795d4c62d1ac9f3d50f5","operation":"none (the source feature's geometry as published)","crs":"WGS84 longitude/latitude, as in the source (no reprojection)","source_features":[{"id":"NE_ID=1159320443","NE_ID":1159320443,"NAME":"Corner of Artigas","BRK_NAME":"Corner of Artigas","NOTE_BRK":"Admin. by Brazil; Claimed by Uruguay","TYPE":"Disputed","ADMIN":"Brazil"}]},"geometry":{"type":"Polygon","coordinates":[[[-55.989016,-30.856161],[-55.980621,-30.876251],[-55.977482,-30.885947],[-55.963045,-30.897798],[-55.956006,-30.927955],[-55.943452,-30.928494],[-55.934799,-30.944107],[-55.915341,-30.950567],[-55.887095,-30.976403],[-55.872523,-30.977697],[-55.825873,-31.019418],[-55.826806,-31.036143],[-55.816728,-31.042669],[-55.832479,-31.051747],[-55.838396,-31.058155],[-55.842142,-31.063943],[-55.846586,-31.069317],[-55.854596,-31.074588],[-55.86426,-31.076758],[-55.888186,-31.076965],[-55.919347,-31.082443],[-55.985157,-31.078825],[-56.009874,-31.081945],[-56.011357,-31.082133],[-56.017018,-31.074296],[-56.022183,-31.067147],[-56.02239,-31.045546],[-56.016344,-30.999864],[-56.015517,-30.934338],[-56.011357,-30.912634],[-55.993864,-30.885452],[-55.989016,-30.856161]]]}}]}
