{"type":"FeatureCollection","features":[{"type":"Feature","properties":{"place":"rockall","region":"GB","donors":"","rank":3,"whose_line":"OpenStreetMap mappers (coastline)","publisher":"OpenStreetMap contributors","source_url":"https://www.openstreetmap.org/way/1339962684","version_or_date":"snapshot 2026-10-04T06:57:51Z (Overpass attic query); way 1339962684 v8 (2026-09-03T07:41:58Z)","feature_id":"way 1339962684","licence":"ODbL 1.0","notes":"DoS has Rockall only as a part of 'United Kingdom'.","input_sha256":"1838423be70b3ca5632ef5eaec9e63dbcc02882905378bd38723d4f9e6125ed7","operation":"assembled from the OSM element's member ways (outer minus inner)","crs":"WGS84 longitude/latitude, as in the source (no reprojection)","source_features":[{"id":"way 1339962684 v8","osm":"way/1339962684","version":8,"timestamp":"2026-09-03T07:41:58Z","name":"Rockall","name:en":"Rockall","boundary":"administrative","admin_level":"10","place":"islet"}]},"geometry":{"type":"Polygon","coordinates":[[[-13.6872385,57.5964225],[-13.6872876,57.5964369],[-13.6873225,57.5964273],[-13.6873606,57.5964327],[-13.6873876,57.5964441],[-13.6874061,57.5964481],[-13.6874244,57.5964513],[-13.687481,57.5964424],[-13.6875046,57.5964269],[-13.6875389,57.596412],[-13.6875766,57.5963759],[-13.6875804,57.5963519],[-13.6875794,57.5963304],[-13.6875746,57.596298],[-13.6875691,57.5962739],[-13.6875451,57.5962625],[-13.6875238,57.5962618],[-13.6875209,57.5962195],[-13.6875049,57.5962097],[-13.6874637,57.596211],[-13.6874147,57.5962059],[-13.6873785,57.596191],[-13.687338,57.5961857],[-13.6873085,57.596173],[-13.6872601,57.5961629],[-13.6872425,57.5961642],[-13.6872184,57.5961868],[-13.6872094,57.5962345],[-13.6872094,57.5962463],[-13.6872017,57.5962705],[-13.6872017,57.596289],[-13.6872033,57.5963049],[-13.6871997,57.5963305],[-13.6871992,57.5963561],[-13.6872023,57.5963685],[-13.6872236,57.5964027],[-13.6872385,57.5964225]]]}}]}
