{"type":"FeatureCollection","features":[{"type":"Feature","properties":{"place":"sapodilla-cayes","region":"BZ","donors":"","rank":2,"whose_line":"the coastline (uncontested), as drawn by the US Department of State","publisher":"US Department of State, Office of the Geographer and Global Issues (World Polygons, high-resolution layer DoS_WP_11_4)","source_url":"https://data.geodata.state.gov/WorldPolygons.zip","version_or_date":"World Polygons 11.4 BETA, 2025-02-24; read 2026-10-04","feature_id":"DoS_WP_11_4 fid 253","licence":"US government work, not subject to US copyright (17 U.S.C. § 105)","notes":"Natural Earth's polygon is offset from DoS's and does not overlap it.","input_sha256":"55fab422ef09e35eb48d68141b9ece0ace86d4276dfe332a04dfd401c0bfc80c","operation":"none (the source feature's geometry as published)","crs":"WGS84 longitude/latitude, as in the source (no reprojection)","source_features":[{"id":"DoS_WP_11_4 fid 253","WP_Name":"Sapodilla Cayes","WP_ID":"4b62b6c0-e5b9-4d50-8bd1-1ab425f3635d","Map_Label":null,"NOTES":null,"US_Recog":null,"Show_Disp":null,"GENC_3":"XZZ"}]},"geometry":{"type":"MultiPolygon","coordinates":[[[[-88.27534229999998,16.09968180000004],[-88.27544939999996,16.099752700000067],[-88.27568539999999,16.099947300000053],[-88.27591169999994,16.100199600000053],[-88.27596339999997,16.10028760000006],[-88.27598439999997,16.100464100000067],[-88.27596249999993,16.10057930000005],[-88.27590999999995,16.100666000000047],[-88.27570419999995,16.100867600000072],[-88.27555189999998,16.100940200000025],[-88.27444939999998,16.10121360000005],[-88.27430939999994,16.10123210000006],[-88.27416309999995,16.101232700000025],[-88.27395999999999,16.101196800000025],[-88.27386599999994,16.101140400000077],[-88.27367029999994,16.100945100000047],[-88.27363239999994,16.100875900000062],[-88.27363209999999,16.100797900000032],[-88.27366969999997,16.100729200000046],[-88.27386499999994,16.100536300000044],[-88.27395889999997,16.100479500000063],[-88.27416309999995,16.100436500000058],[-88.27438399999994,16.10041110000003],[-88.27451779999996,16.10038140000006],[-88.27461359999995,16.100327700000037],[-88.27479169999998,16.10014810000007],[-88.27486319999997,16.10004310000005],[-88.27490829999994,16.099888100000044],[-88.27492069999994,16.09962100000007],[-88.27510739999997,16.099624900000038],[-88.27526709999995,16.099654000000044],[-88.27534229999998,16.09968180000004]]],[[[-88.27005269999995,16.108337300000073],[-88.27024389999997,16.108550700000023],[-88.27029529999999,16.108636900000022],[-88.27031649999998,16.108751100000063],[-88.27030969999998,16.108870300000035],[-88.27027329999999,16.10897710000006],[-88.26977469999997,16.109950900000058],[-88.26955839999994,16.110226300000022],[-88.26937019999997,16.110443300000043],[-88.26931449999995,16.110536400000058],[-88.26927209999997,16.110738000000026],[-88.26924489999999,16.11095590000002],[-88.26921259999995,16.11108770000004],[-88.26915649999995,16.111182400000075],[-88.26895439999998,16.111389700000075],[-88.26886719999999,16.111442500000067],[-88.26875129999996,16.111464600000033],[-88.26863059999994,16.11145790000006],[-88.26848639999997,16.11139120000007],[-88.26828089999998,16.11118570000002],[-88.26822399999998,16.111091900000076],[-88.26819199999994,16.110961100000054],[-88.26817189999997,16.11065750000006],[-88.26817589999996,16.11034200000006],[-88.26818689999999,16.110190800000055],[-88.26823029999997,16.109991000000036],[-88.26828839999996,16.109899400000074],[-88.26842639999995,16.109762800000055],[-88.26862079999995,16.109551100000033],[-88.26867369999997,16.109466100000077],[-88.26869639999995,16.109353000000056],[-88.26869059999996,16.109234600000036],[-88.26865489999994,16.109128200000043],[-88.26842849999997,16.108694700000058],[-88.26823139999999,16.108390800000052],[-88.26820589999994,16.108275800000058],[-88.26821309999997,16.108145800000045],[-88.26826619999997,16.10800960000006],[-88.26845279999998,16.107705800000076],[-88.26894099999998,16.107696700000076],[-88.26922089999994,16.107706200000052],[-88.26941209999995,16.107748100000038],[-88.26949939999997,16.107805400000075],[-88.26971179999998,16.10799860000003],[-88.27005269999995,16.108337300000073]]],[[[-88.26431399999996,16.116359900000077],[-88.26436879999994,16.116451700000027],[-88.26440729999996,16.116650400000026],[-88.26442039999995,16.117035100000066],[-88.26441909999994,16.11767240000006],[-88.26439919999996,16.117972400000042],[-88.26436789999997,16.11810120000007],[-88.26431169999995,16.11819390000005],[-88.26410729999998,16.118398300000024],[-88.26401959999998,16.118450100000075],[-88.26384309999997,16.11847080000007],[-88.26372749999996,16.118448500000056],[-88.26364029999996,16.118395500000076],[-88.26343549999996,16.11819070000007],[-88.26337639999997,16.118102700000065],[-88.26286099999999,16.11706460000005],[-88.26282389999994,16.11695830000002],[-88.26281569999998,16.116838700000073],[-88.26285599999994,16.11667220000004],[-88.26308529999994,16.11623060000005],[-88.26333239999997,16.115790700000048],[-88.26359769999999,16.115804600000047],[-88.26375229999996,16.11584970000007],[-88.26385839999995,16.11591960000004],[-88.26409079999996,16.116110700000036],[-88.26431399999996,16.116359900000077]]],[[[-88.25782529999998,16.134640500000046],[-88.25799699999999,16.134605100000044],[-88.25813359999995,16.134542500000066],[-88.25817819999997,16.13450160000002],[-88.25821199999996,16.134385800000075],[-88.25840319999998,16.134390100000076],[-88.25856849999997,16.13441990000007],[-88.25864589999998,16.134448100000043],[-88.25875459999997,16.134519600000033],[-88.25892819999996,16.134683100000075],[-88.25896309999996,16.134751100000074],[-88.25895959999997,16.134828000000027],[-88.25891919999998,16.134895800000038],[-88.25873429999996,16.135100400000056],[-88.25839139999994,16.13544420000005],[-88.25817769999998,16.135635700000023],[-88.25809169999997,16.13568680000003],[-88.25791809999998,16.135707300000036],[-88.25775219999997,16.135663900000054],[-88.25759929999998,16.135548800000038],[-88.25741289999996,16.13549320000004],[-88.25726549999996,16.135478900000066],[-88.25679209999998,16.135466800000074],[-88.25664029999996,16.135456000000033],[-88.25650379999996,16.135429300000055],[-88.25639829999994,16.135371700000064],[-88.25633929999998,16.135266100000024],[-88.25631519999996,16.13513130000007],[-88.25631459999994,16.134987600000045],[-88.25633719999996,16.13485220000007],[-88.25639459999996,16.134745500000065],[-88.25649739999994,16.134686900000077],[-88.25663099999997,16.134659200000044],[-88.25678039999997,16.13464790000006],[-88.25709679999994,16.134645200000023],[-88.25765629999995,16.134651000000076],[-88.25782529999998,16.134640500000046]]],[[[-88.25492909999997,16.13910210000006],[-88.25495759999995,16.13921000000005],[-88.25493939999996,16.13938090000005],[-88.25488709999996,16.13946660000005],[-88.25464329999994,16.13970000000006],[-88.25453599999997,16.139749600000073],[-88.25435539999995,16.13980330000004],[-88.25421259999996,16.139884100000074],[-88.25397979999997,16.140126700000053],[-88.25392979999998,16.14023220000007],[-88.25387039999998,16.140406700000028],[-88.25380879999994,16.140501700000073],[-88.25370749999996,16.140557100000024],[-88.25357829999996,16.140584200000035],[-88.25328719999999,16.14059640000005],[-88.25314179999998,16.140588000000037],[-88.25294729999996,16.14054740000006],[-88.25285629999996,16.140491000000054],[-88.25264989999994,16.14028650000006],[-88.25259059999996,16.14019940000003],[-88.25234599999999,16.139701600000024],[-88.25230309999995,16.13958230000003],[-88.25228489999995,16.13944310000005],[-88.25228429999999,16.139298000000053],[-88.25231939999998,16.139096600000073],[-88.25237509999994,16.139003400000036],[-88.25260159999993,16.13875230000002],[-88.25275369999997,16.13863250000003],[-88.25302789999995,16.138317500000028],[-88.25309109999995,16.13819920000003],[-88.25309159999995,16.138158700000076],[-88.25327539999995,16.13816470000006],[-88.25350759999998,16.13822170000003],[-88.25399369999997,16.138451200000077],[-88.25485819999994,16.13902440000004],[-88.25492909999997,16.13910210000006]]],[[[-88.23263999999995,16.18930000000006],[-88.23210999999998,16.18930000000006],[-88.23209999999995,16.189050000000066],[-88.23263999999995,16.189040000000034],[-88.23263999999995,16.18930000000006]]]]}}]}
