{"type":"FeatureCollection","features":[{"type":"Feature","properties":{"place":"senkaku","region":"JP","donors":"","rank":2,"whose_line":"the coastline (uncontested), as drawn by the US Department of State","publisher":"US Department of State, Office of the Geographer and Global Issues (World Polygons, high-resolution layer DoS_WP_11_4)","source_url":"https://data.geodata.state.gov/WorldPolygons.zip","version_or_date":"World Polygons 11.4 BETA, 2025-02-24; read 2026-10-04","feature_id":"DoS_WP_11_4 fid 257","licence":"US government work, not subject to US copyright (17 U.S.C. § 105)","notes":"","input_sha256":"55fab422ef09e35eb48d68141b9ece0ace86d4276dfe332a04dfd401c0bfc80c","operation":"none (the source feature's geometry as published)","crs":"WGS84 longitude/latitude, as in the source (no reprojection)","source_features":[{"id":"DoS_WP_11_4 fid 257","WP_Name":"Senkaku Islands","WP_ID":"184e7c16-b4f4-4435-bd96-dec1fa95cf50","Map_Label":null,"NOTES":null,"US_Recog":null,"Show_Disp":null,"GENC_3":"QX2"}]},"geometry":{"type":"MultiPolygon","coordinates":[[[[123.54321760000005,25.72262900000004],[123.54295580000007,25.722676600000057],[123.54283690000011,25.722843100000034],[123.54300340000009,25.723104900000067],[123.54326520000006,25.723176300000034],[123.54343170000004,25.723009700000034],[123.54336030000002,25.722724200000073],[123.54321760000005,25.72262900000004]]],[[[123.54471660000002,25.724247000000048],[123.54450250000002,25.724032900000054],[123.54427640000006,25.723829400000056],[123.54386000000011,25.723866300000054],[123.54378860000008,25.724199400000032],[123.54400280000004,25.724437400000056],[123.54421700000012,25.724532600000032],[123.5443835000001,25.72455640000004],[123.54466900000011,25.724485000000072],[123.54471660000002,25.724247000000048]]],[[[123.5422420000001,25.73317000000003],[123.54228960000012,25.73286070000006],[123.54198030000009,25.73312240000007],[123.54174230000001,25.732932100000028],[123.54238480000004,25.732194400000026],[123.54262270000004,25.73167090000004],[123.5430510000001,25.731195100000036],[123.54336030000002,25.730600200000026],[123.54364590000012,25.730148100000065],[123.54374110000003,25.729791200000022],[123.54407420000007,25.729553200000055],[123.54450250000002,25.72941050000003],[123.54474040000002,25.729458000000022],[123.54514490000008,25.729458000000022],[123.54504980000002,25.729267700000037],[123.54545430000007,25.729101100000037],[123.54564460000006,25.728791800000067],[123.54547810000008,25.72850630000005],[123.54538290000005,25.72817310000005],[123.54540670000006,25.727792400000055],[123.54502600000001,25.727506900000037],[123.54474040000002,25.72717380000006],[123.54459770000005,25.726769300000058],[123.54464530000007,25.72638850000004],[123.54421700000012,25.726079200000072],[123.5438362000001,25.726055400000064],[123.54336030000002,25.725817500000062],[123.5428607,25.72541300000006],[123.5422182000001,25.725175000000036],[123.54207540000004,25.725579500000038],[123.5422182000001,25.72584130000007],[123.54188510000006,25.725769900000046],[123.54157570000007,25.725936400000023],[123.54148060000011,25.72641230000005],[123.54152820000002,25.727078600000027],[123.54138540000008,25.727340300000037],[123.54125790000012,25.727615400000047],[123.54081430000008,25.728125500000033],[123.54069530000004,25.728625200000067],[123.54045740000004,25.72902970000007],[123.54017190000002,25.72948180000003],[123.53948180000009,25.730766800000026],[123.53905350000002,25.731195100000036],[123.53857760000005,25.731623400000046],[123.53841110000008,25.731433000000038],[123.53805410000007,25.731456800000046],[123.53772100000003,25.73124260000003],[123.53750690000004,25.731337800000063],[123.53750690000004,25.731789900000024],[123.53807790000008,25.732051700000056],[123.53857760000005,25.732503800000075],[123.53874420000011,25.732813100000044],[123.53891080000005,25.732932100000028],[123.53938660000006,25.732836900000052],[123.53993390000005,25.733074800000054],[123.54012430000012,25.733669700000064],[123.54024330000004,25.73400280000004],[123.5402908000001,25.734335900000076],[123.54038600000001,25.734550100000035],[123.5406240000001,25.734669100000076],[123.54131400000006,25.734788000000037],[123.54140920000009,25.73459770000005],[123.54178990000003,25.73462150000006],[123.54207540000004,25.734573900000044],[123.54198030000009,25.734217000000058],[123.5416709000001,25.734074200000066],[123.5414330000001,25.73357450000003],[123.54186130000005,25.733384200000046],[123.5422420000001,25.73317000000003]]],[[[123.50679630000002,25.735443300000043],[123.50673160000008,25.73523320000004],[123.50657500000011,25.734959100000026],[123.50618750000001,25.73497290000006],[123.50588310000012,25.735208100000023],[123.50585540000009,25.735720100000037],[123.50598000000002,25.735844600000064],[123.50618750000001,25.735927600000025],[123.50631210000006,25.73610750000006],[123.50642280000011,25.736162900000068],[123.50650580000001,25.735996800000066],[123.50667180000005,25.736079800000027],[123.50683790000005,25.73614900000007],[123.50711460000002,25.736079800000027],[123.50711460000002,25.735886100000073],[123.50715610000009,25.73569240000006],[123.50699010000005,25.735595500000045],[123.50679630000002,25.735443300000043]]],[[[123.49095970000008,25.74057030000006],[123.49092160000009,25.740341900000033],[123.49052190000009,25.740208600000074],[123.49033150000002,25.740341900000033],[123.49033150000002,25.740589400000033],[123.49044570000001,25.740741600000035],[123.4905778000001,25.74085720000005],[123.49075030000006,25.740855900000042],[123.49090260000003,25.740779700000076],[123.49095970000008,25.74057030000006]]],[[[123.48779980000006,25.749136400000054],[123.48850410000011,25.74869860000007],[123.48882770000012,25.748546300000044],[123.48924650000004,25.74826070000006],[123.48962720000009,25.748222700000042],[123.49012210000001,25.74784200000005],[123.49010310000006,25.747461200000032],[123.49067420000006,25.74711860000008],[123.49111200000004,25.746756900000037],[123.4914927000001,25.74656660000005],[123.49200670000005,25.746090700000025],[123.49202570000011,25.74580510000004],[123.49227320000011,25.745595700000024],[123.49282520000008,25.74525310000007],[123.4935676,25.744567800000027],[123.49410060000002,25.744015800000057],[123.49421480000001,25.74355890000004],[123.49478590000001,25.743235300000038],[123.49512850000008,25.743102100000044],[123.49518560000001,25.742683300000067],[123.49465260000011,25.742607100000043],[123.49415770000007,25.74249290000006],[123.49373890000004,25.742321600000025],[123.49347240000009,25.742112200000065],[123.49307270000008,25.74197900000007],[123.49273000000005,25.741579200000047],[123.49227320000011,25.74138890000006],[123.49193050000008,25.741103300000077],[123.4917402000001,25.741312700000037],[123.49135950000004,25.741331700000046],[123.49095970000008,25.741255600000045],[123.49069320000001,25.741103300000077],[123.4899127000001,25.74087490000005],[123.48949400000004,25.740684500000043],[123.48903710000002,25.74028480000004],[123.48840890000008,25.740170600000056],[123.48795210000003,25.740341900000033],[123.48751420000008,25.740608400000042],[123.48715260000006,25.74030380000005],[123.4863150000001,25.74028480000004],[123.48530610000012,25.740380000000073],[123.4850967000001,25.74055130000005],[123.48488730000008,25.74089390000006],[123.48431630000005,25.740684500000043],[123.4838784000001,25.74053230000004],[123.48313600000006,25.740341900000033],[123.48220330000004,25.740437100000065],[123.48172740000007,25.740456100000074],[123.48159410000005,25.74062740000005],[123.48130860000003,25.740855900000042],[123.48088980000011,25.74057030000006],[123.48050910000006,25.740608400000042],[123.4802807000001,25.740913000000035],[123.47988090000001,25.74055130000005],[123.47942410000007,25.740741600000035],[123.47915760000001,25.740836800000068],[123.47898630000009,25.741084300000068],[123.47892920000004,25.741350800000077],[123.4787007000001,25.741236600000036],[123.47849130000009,25.74106530000006],[123.47812970000007,25.74089390000006],[123.47782510000002,25.740855900000042],[123.4774824000001,25.740932000000043],[123.4771588000001,25.741103300000077],[123.47691140000006,25.74116040000007],[123.47660680000001,25.740760700000067],[123.47618800000009,25.740513200000066],[123.47594050000009,25.740418000000034],[123.47536950000006,25.740170600000056],[123.47519820000002,25.74003730000004],[123.47529330000009,25.73977080000003],[123.4754266000001,25.73944720000003],[123.47516010000004,25.73929490000006],[123.47496970000009,25.73948530000007],[123.4747794000001,25.739866000000063],[123.47449380000012,25.739866000000063],[123.47430350000002,25.739599500000054],[123.47405600000002,25.739161700000068],[123.47424640000008,25.738800000000026],[123.47401790000004,25.738723900000025],[123.4736372000001,25.73870480000005],[123.4738847000001,25.738171800000032],[123.47359920000008,25.738152800000023],[123.47335170000008,25.738457400000073],[123.47293290000005,25.738800000000026],[123.47245700000008,25.738609600000075],[123.47219050000001,25.738723900000025],[123.47198110000011,25.738647700000058],[123.47184790000006,25.738457400000073],[123.47150520000002,25.738457400000073],[123.47120070000005,25.738343100000066],[123.47087710000005,25.738000500000055],[123.4703631000001,25.73761980000006],[123.4701156000001,25.737258100000076],[123.46963970000002,25.737143900000035],[123.46908770000005,25.73697260000006],[123.46857370000009,25.736687000000074],[123.46794560000001,25.736420500000065],[123.46752680000009,25.736211100000048],[123.46680340000012,25.736020800000063],[123.46644170000002,25.735887500000047],[123.46588970000005,25.735773300000062],[123.46549000000005,25.735735300000044],[123.46524250000004,25.735468800000035],[123.46489980000001,25.735354500000028],[123.46472850000009,25.735164200000042],[123.46457620000001,25.735030900000027],[123.46427170000004,25.734954800000025],[123.46392900000001,25.734973800000034],[123.46362450000004,25.73512610000006],[123.46343410000009,25.735240300000044],[123.4630724000001,25.735297400000036],[123.46250140000006,25.735259400000075],[123.46196840000005,25.735202300000026],[123.46179700000005,25.734992900000066],[123.46151150000003,25.734897700000033],[123.46118790000003,25.735011900000075],[123.46130210000001,25.735240300000044],[123.46114980000004,25.735354500000028],[123.46073100000001,25.73537360000006],[123.46038840000006,25.735735300000044],[123.45974120000005,25.73564010000007],[123.45939850000002,25.735773300000062],[123.45924630000002,25.736287300000072],[123.45901780000008,25.736649000000057],[123.45875130000002,25.737258100000076],[123.45831350000003,25.73809570000003],[123.4582564000001,25.738761900000043],[123.45819930000005,25.73921880000006],[123.45783760000006,25.739390100000037],[123.45814220000011,25.739618500000063],[123.45791380000003,25.73996120000004],[123.45783760000006,25.740399000000025],[123.4581803000001,25.741331700000046],[123.45852290000005,25.74188380000004],[123.4589036000001,25.74255000000005],[123.45920820000003,25.74331150000006],[123.45968410000012,25.743996700000025],[123.46010290000004,25.74441550000006],[123.46061680000003,25.744834300000036],[123.46084520000011,25.745043700000053],[123.46189220000008,25.745786100000032],[123.46309150000002,25.746490400000027],[123.46368160000009,25.746947300000045],[123.46434780000004,25.747518300000024],[123.46510920000003,25.747956200000033],[123.46575650000011,25.748336900000027],[123.46632750000003,25.748717600000077],[123.46647980000012,25.749079300000062],[123.46671320000007,25.749214600000073],[123.46701770000004,25.74910040000003],[123.46726520000004,25.749081300000057],[123.46776010000008,25.74940490000006],[123.46819790000006,25.749481100000025],[123.46876900000007,25.749766600000044],[123.46937820000005,25.750090200000045],[123.47012050000001,25.750413800000047],[123.47122460000003,25.750927800000056],[123.47223350000002,25.75123240000005],[123.47322340000005,25.751613100000043],[123.47470810000004,25.751974800000028],[123.47569800000008,25.75212700000003],[123.47666880000008,25.752336400000047],[123.47722090000002,25.752336400000047],[123.47796320000009,25.752203200000054],[123.47832490000008,25.751746300000036],[123.47855340000001,25.75128950000004],[123.47887700000001,25.750908800000047],[123.47931480000011,25.750737400000048],[123.47984990000009,25.75042380000008],[123.48041390000003,25.75018330000006],[123.4808518000001,25.75008820000005],[123.48159410000005,25.749993000000075],[123.48229850000007,25.749974000000066],[123.48277440000004,25.74976460000005],[123.48344060000011,25.749612300000024],[123.48399260000008,25.749745500000074],[123.48471600000005,25.749993000000075],[123.48524900000007,25.75008820000005],[123.48576300000002,25.75010720000006],[123.48690510000006,25.749688400000025],[123.4874000000001,25.749441000000047],[123.48779980000006,25.749136400000054]]],[[[123.54108020000001,25.778938500000038],[123.54091440000002,25.77920800000004],[123.54079000000002,25.77910440000005],[123.54076920000011,25.778772700000047],[123.54045830000007,25.778814200000056],[123.54018880000001,25.778876300000036],[123.53985710000006,25.77900070000004],[123.53956690000007,25.779166600000053],[123.53938030000006,25.77951900000005],[123.53962910000007,25.779664100000048],[123.53994000000012,25.779643400000054],[123.54023030000008,25.779560400000037],[123.54124600000011,25.779560400000037],[123.54178500000012,25.779456800000048],[123.54207520000011,25.77910440000005],[123.54176430000007,25.77904220000005],[123.54149480000001,25.77904220000005],[123.54132900000002,25.77889710000005],[123.54108020000001,25.778938500000038]]],[[[123.53863400000012,25.779332400000044],[123.5387584,25.779436100000055],[123.53894500000001,25.779456800000048],[123.53911080000012,25.779373900000053],[123.53919370000006,25.77927020000004],[123.53888280000001,25.779062900000042],[123.53865480000002,25.779125100000044],[123.53863400000012,25.779332400000044]]],[[[123.54327760000001,25.78051400000004],[123.54338130000008,25.780762800000048],[123.54333980000001,25.781135900000038],[123.54340200000001,25.781364000000053],[123.54331910000008,25.781633500000055],[123.54346420000002,25.78182000000004],[123.54363000000001,25.78208950000004],[123.54379590000008,25.782006600000045],[123.54387880000002,25.781737100000043],[123.54412750000006,25.78144690000005],[123.54458360000001,25.781156700000054],[123.54472870000006,25.78072130000004],[123.54441780000002,25.780762800000048],[123.54396170000007,25.780659100000037],[123.54352640000002,25.780265300000053],[123.54329830000006,25.779871400000047],[123.54284230000007,25.779747000000043],[123.54271790000007,25.77993360000005],[123.54298740000002,25.780016500000045],[123.54311180000002,25.780286000000046],[123.54327760000001,25.78051400000004]]],[[[123.55647120000003,25.72234350000008],[123.55668530000003,25.72189140000006],[123.55670910000003,25.721605800000077],[123.55673290000004,25.721058500000026],[123.55642360000002,25.720963400000073],[123.55623320000007,25.721367900000075],[123.55628080000008,25.721677200000045],[123.55643740000005,25.72194440000004],[123.55618560000005,25.722081700000047],[123.55597150000006,25.722414800000024],[123.55625700000007,25.722557600000073],[123.55647120000003,25.72234350000008]]],[[[123.55437720000009,25.724508800000024],[123.55430590000003,25.724032900000054],[123.55430590000003,25.723438000000044],[123.55504350000001,25.722866900000042],[123.55544800000007,25.722391000000073],[123.55594770000005,25.721415500000035],[123.5557573000001,25.721011000000033],[123.55547180000008,25.720582700000023],[123.55513870000004,25.72027330000003],[123.55525760000012,25.720630200000073],[123.55478180000011,25.720749200000057],[123.5542345,25.72043990000003],[123.55383000000006,25.72055890000007],[123.55342550000012,25.72043990000003],[123.55271160000007,25.72046370000004],[123.55187880000005,25.720844400000033],[123.5509032000001,25.72103480000004],[123.55042730000002,25.721177500000067],[123.54942800000003,25.721225100000026],[123.54892830000006,25.721415500000035],[123.54845240000009,25.721772400000077],[123.54800030000001,25.72179620000003],[123.54754820000005,25.721653400000037],[123.54697710000005,25.721772400000077],[123.54681060000007,25.722105500000055],[123.54647740000007,25.72234350000008],[123.54626330000008,25.722272100000055],[123.54597780000006,25.72205790000004],[123.5457636000001,25.722129300000063],[123.54571390000001,25.72236470000007],[123.54547810000008,25.722557600000073],[123.54516870000009,25.72222450000004],[123.54483560000006,25.722557600000073],[123.5449784000001,25.722985900000026],[123.54459770000005,25.723033500000042],[123.54455010000004,25.723390400000028],[123.54474040000002,25.724009100000046],[123.54504980000002,25.724342200000024],[123.54538290000005,25.724580200000048],[123.5457636000001,25.725056000000052],[123.54628710000009,25.725317800000028],[123.54676300000006,25.725365400000044],[123.54738160000011,25.725317800000028],[123.54773860000012,25.725436800000068],[123.54833340000005,25.725698500000078],[123.54876170000011,25.72584130000007],[123.54916620000006,25.72572230000003],[123.5495231000001,25.725698500000078],[123.54995150000002,25.725936400000023],[123.5506415000001,25.725817500000062],[123.55092700000012,25.725603300000046],[123.55154570000002,25.725365400000044],[123.55214060000003,25.725222600000052],[123.5528068000001,25.72524640000006],[123.55347310000002,25.72498470000005],[123.55347310000002,25.724746700000026],[123.55394890000002,25.724722900000074],[123.55437720000009,25.724508800000024]]],[[[123.56599710000012,25.755046900000025],[123.5657758000001,25.755201800000066],[123.56575370000007,25.755489400000044],[123.56590860000006,25.755710600000043],[123.56624040000008,25.755777000000023],[123.56661870000005,25.75541640000006],[123.5669041000001,25.75551150000007],[123.56725810000012,25.755732800000033],[123.56761210000002,25.75584340000006],[123.56774480000001,25.755489400000044],[123.56736870000009,25.75513540000003],[123.56716960000006,25.75491420000003],[123.56730240000002,25.754670800000042],[123.5669041000001,25.754516000000024],[123.56674930000008,25.754715100000055],[123.56652800000006,25.754958400000078],[123.5662847000001,25.754980600000067],[123.56599710000012,25.755046900000025]]],[[[124.56006910000008,25.92175910000003],[124.55968830000006,25.921930400000065],[124.55940280000004,25.921930400000065],[124.55911730000003,25.921911400000056],[124.55873660000009,25.921644900000047],[124.55839390000006,25.921530700000062],[124.55816550000009,25.921606800000063],[124.55803220000007,25.92174010000008],[124.55778480000004,25.92154970000007],[124.55744210000012,25.92143550000003],[124.55709610000008,25.92141090000007],[124.55692820000002,25.92151160000003],[124.5565855000001,25.92149260000008],[124.55622380000011,25.921568700000023],[124.55591930000003,25.921416500000078],[124.55576700000006,25.921625900000038],[124.55588120000004,25.92179720000007],[124.55580510000004,25.921968500000048],[124.55599540000003,25.92221600000005],[124.55639520000011,25.922406300000034],[124.55666170000006,25.922406300000034],[124.5569091000001,25.922577600000068],[124.5572327000001,25.922749000000067],[124.5574041000001,25.92303450000003],[124.5578799000001,25.923301000000038],[124.55827970000007,25.923339100000078],[124.55850810000004,25.92337710000004],[124.55883170000004,25.92341520000008],[124.55913630000009,25.92335810000003],[124.55961220000006,25.923186800000053],[124.55957410000008,25.922996400000045],[124.55944090000003,25.922939300000053],[124.55959320000011,25.92290120000007],[124.55980260000001,25.92290120000007],[124.56037360000005,25.92288220000006],[124.56098280000003,25.922729900000036],[124.5610779000001,25.922444400000074],[124.56096370000012,25.922254000000066],[124.56058300000007,25.92200660000003],[124.56006910000008,25.92175910000003]]],[[[124.5592501000001,25.92335600000007],[124.55921440000009,25.923421500000075],[124.55922040000007,25.923505900000066],[124.55941310000003,25.92354880000005],[124.55955950000009,25.923541800000066],[124.55963080000004,25.92351670000005],[124.5597795000001,25.92354050000006],[124.55995200000007,25.92351670000005],[124.55999370000006,25.92343930000004],[124.55988070000001,25.92335010000005],[124.55964270000004,25.92326680000008],[124.55936910000003,25.923320400000023],[124.5592501000001,25.92335600000007]]],[[[124.55943450000007,25.923641600000053],[124.55928580000011,25.923576100000048],[124.55899430000011,25.92349880000006],[124.55878020000011,25.923492900000042],[124.5586671000001,25.923546400000077],[124.5586671000001,25.923617800000045],[124.55889320000006,25.923790300000064],[124.5590003000001,25.92380220000007],[124.55918470000006,25.923754600000052],[124.55934530000002,25.92369510000003],[124.55943450000007,25.923641600000053]]],[[[124.55944640000007,25.92386760000005],[124.55938690000005,25.923909300000048],[124.55941670000004,25.924022300000047],[124.55962490000002,25.924004400000058],[124.5597557000001,25.92403420000005],[124.55998770000008,25.92406390000008],[124.5601008000001,25.92408770000003],[124.56008290000011,25.92396880000007],[124.56006510000009,25.92386170000003],[124.55999370000006,25.923766500000056],[124.55983900000001,25.923748700000033],[124.5598093000001,25.923837900000024],[124.55972600000007,25.923843800000043],[124.5595416000001,25.923897400000044],[124.55944640000007,25.92386760000005]]],[[[123.68694800000003,25.925412300000062],[123.68723350000005,25.925103000000036],[123.6874001000001,25.92488890000004],[123.6876380000001,25.924650900000074],[123.6876142000001,25.924365400000056],[123.68766180000011,25.924175000000048],[123.6879474000001,25.92412740000003],[123.68809010000007,25.92388950000003],[123.68809010000007,25.92369910000008],[123.68849460000001,25.923794300000054],[123.68880400000012,25.92367530000007],[123.68847080000012,25.923342200000036],[123.68847080000012,25.923128100000042],[123.68863740000006,25.92255700000004],[123.68849460000001,25.922057300000063],[123.68830430000003,25.921438600000045],[123.68792360000009,25.920843800000057],[123.6874477,25.920439300000055],[123.6868290000001,25.920129900000063],[123.68608610000001,25.91982550000006],[123.68549650000011,25.919416100000035],[123.68525860000011,25.919225700000027],[123.68475890000002,25.919154400000025],[123.68444960000011,25.919439900000043],[123.68394990000002,25.91929710000005],[123.683355,25.919225700000027],[123.68264120000003,25.919178200000033],[123.68216530000007,25.919178200000033],[123.68185590000007,25.919249500000035],[123.68149900000003,25.919011600000033],[123.68123730000002,25.919249500000035],[123.68030930000009,25.919677800000045],[123.67957170000011,25.91974920000007],[123.67900060000011,25.92015370000007],[123.67831050000007,25.920558200000073],[123.6781678000001,25.921129300000075],[123.67776330000004,25.921629000000053],[123.67757290000009,25.92210490000008],[123.67678770000009,25.922747300000026],[123.67621660000009,25.922913900000026],[123.67588350000005,25.92324700000006],[123.67593110000007,25.923770500000046],[123.67609760000005,25.924198800000056],[123.6762642000001,25.924508100000025],[123.67676390000008,25.925388500000054],[123.67712080000001,25.925959600000056],[123.67804880000006,25.92693520000006],[123.67847710000001,25.927458700000045],[123.67881020000004,25.927791800000023],[123.67881020000004,25.92807730000004],[123.67895300000009,25.928315300000065],[123.67923850000011,25.92810110000005],[123.67966680000006,25.928386700000033],[123.67992860000004,25.928743600000075],[123.68042830000002,25.928815000000043],[123.68078520000006,25.92869600000006],[123.68102310000006,25.92850560000005],[123.6813800000001,25.928815000000043],[123.6819273000001,25.928815000000043],[123.68242700000008,25.929052900000045],[123.68278390000012,25.928791200000035],[123.68332780000003,25.92876380000007],[123.6840926000001,25.928386700000033],[123.68414020000012,25.928053500000033],[123.68406880000009,25.927696600000047],[123.68433060000007,25.927720400000055],[123.68471130000012,25.927720400000055],[123.68473510000001,25.927482500000053],[123.68518720000009,25.926887600000043],[123.6860438000001,25.926292700000033],[123.68642450000004,25.925697900000046],[123.68694800000003,25.925412300000062]]],[[[124.55941070000006,25.92439710000008],[124.5592521000001,25.924298600000043],[124.55919660000006,25.924218600000074],[124.55911330000004,25.92416510000004],[124.55904780000003,25.924052000000074],[124.55896460000008,25.924010400000043],[124.55889910000008,25.924069900000063],[124.55893480000009,25.924194800000066],[124.55901810000012,25.924307800000065],[124.55923230000008,25.924504100000036],[124.55938690000005,25.924605300000053],[124.55952370000011,25.924652800000047],[124.55959510000002,25.924545800000033],[124.55947020000008,25.92448630000007],[124.55941070000006,25.92439710000008]]]]}}]}
