{"type":"FeatureCollection","features":[{"type":"Feature","properties":{"place":"shebaa-farms","region":"area/shebaa-farms","donors":"LB","rank":4,"whose_line":"Natural Earth editors","publisher":"Natural Earth (ne_10m_admin_0_disputed_areas)","source_url":"https://raw.githubusercontent.com/nvkelso/natural-earth-vector/v5.1.2/geojson/ne_10m_admin_0_disputed_areas.geojson","version_or_date":"v5.1.2 (git tag); read 2026-10-04","feature_id":"NE_ID 1159320907","licence":"public domain","notes":"No line stated by the parties (register); the UN's 2007 definition by its former cartographer Miklos Pinther is not available as data. No DoS or OSM polygon. HDX COD-AB Lebanon was 'prepared by ITOS to match the UN GIS boundaries' and has no separate unit.","input_sha256":"9cafef8b7dfb6b164dc58f218f981f4ace9f716f6c03795d4c62d1ac9f3d50f5","operation":"none (the source feature's geometry as published)","crs":"WGS84 longitude/latitude, as in the source (no reprojection)","source_features":[{"id":"NE_ID=1159320907","NE_ID":1159320907,"NAME":"Shebaa Farms","BRK_NAME":"Shebaa Farms","NOTE_BRK":"Admin. By Israel; Claimed by Lebanon","TYPE":"Disputed","ADMIN":"Israel"}]},"geometry":{"type":"Polygon","coordinates":[[[35.631092,33.274565],[35.652143,33.27666],[35.66049,33.289261],[35.698523,33.32267],[35.716197,33.326727],[35.718379,33.316773],[35.712313,33.306662],[35.695461,33.292506],[35.675912,33.275654],[35.654342,33.262173],[35.642209,33.266217],[35.631092,33.274565]]]}}]}
