{"type":"FeatureCollection","features":[{"type":"Feature","properties":{"place":"siachen","region":"area/indian-jammu-kashmir-ladakh","donors":"area/gilgit-baltistan","rank":3,"whose_line":"a later Natural Earth edition (NE_ID 1746708607) imported into OpenStreetMap","publisher":"OpenStreetMap contributors","source_url":"https://www.openstreetmap.org/relation/13559521","version_or_date":"snapshot 2026-10-04T06:57:51Z (Overpass attic query); relation 13559521 v10 (2026-09-03T12:38:19Z)","feature_id":"relation 13559521","licence":"ODbL 1.0","notes":"No agreed line exists, so DoS's 'Siachen' polygon (its own line; note 'Do not connect Line of Control lines to China') is not rank 2. The OSM relation carries ne_id 1746708607 and ne:brk_a3 B45: its outline is Natural Earth's, from an edition later than v5.1.2.","input_sha256":"1838423be70b3ca5632ef5eaec9e63dbcc02882905378bd38723d4f9e6125ed7","operation":"assembled from the OSM element's member ways (outer minus inner)","crs":"WGS84 longitude/latitude, as in the source (no reprojection)","source_features":[{"id":"relation 13559521 v10","osm":"relation/13559521","version":10,"timestamp":"2026-09-03T12:38:19Z","name":"Siachen Glacier Disputed Area","boundary":"disputed","admin_level":"2","claimed_by":"PK","disputed_by":"RU;ES;CN;TW;IN;NP;PK;TR","ne_id":"1746708607;1746708607"}]},"geometry":{"type":"Polygon","coordinates":[[[77.1167373,35.0534354],[77.1172038,35.0575944],[77.1203914,35.065026],[77.1183432,35.066975],[77.1164002,35.0714609],[77.113585,35.0804731],[77.1113362,35.0891261],[77.1071648,35.0906992],[77.0998763,35.090978],[77.0961099,35.0928904],[77.0948244,35.0938305],[77.0911403,35.0941405],[77.0858218,35.0970872],[77.0826356,35.0979979],[77.0823302,35.0992247],[77.0783403,35.1029067],[77.07824,35.1048653],[77.0804629,35.1090835],[77.0815074,35.1114256],[77.0818117,35.1165148],[77.0805971,35.1171302],[77.078355,35.1182016],[77.0730214,35.121349],[77.0719025,35.1220017],[77.0704553,35.1237956],[77.0701547,35.124796],[77.0699771,35.1257769],[77.070822,35.1271524],[77.0715915,35.1285754],[77.0718494,35.1296574],[77.0716684,35.1303058],[77.0693149,35.1354305],[77.0696026,35.1357499],[77.0707844,35.1366217],[77.0731076,35.1372163],[77.0749598,35.1381084],[77.075133,35.1381851],[77.0782427,35.1395624],[77.0793023,35.1405184],[77.079408,35.1405562],[77.0819983,35.1414817],[77.0839192,35.1457941],[77.0842237,35.1478261],[77.0849853,35.1518158],[77.0854814,35.15259],[77.0868566,35.1544863],[77.0865501,35.1564305],[77.0842223,35.1632711],[77.0841965,35.1642907],[77.0847793,35.1651138],[77.0863842,35.1665968],[77.0870052,35.1678323],[77.0853922,35.1691654],[77.0664296,35.1761388],[77.0639599,35.1762238],[77.0529714,35.1766018],[77.0498557,35.1791064],[77.0432982,35.1823895],[77.027926,35.1840521],[77.0174718,35.1829928],[77.0090221,35.1887686],[77.0085025,35.1891238],[77.0080819,35.1962923],[77.0049148,35.2010897],[76.9906239,35.2106346],[76.9984345,35.2246167],[77.0023484,35.226026],[77.0041281,35.2324808],[77.0007082,35.2384709],[76.9902455,35.2432237],[76.981412,35.2478958],[76.9748722,35.251321],[76.9771134,35.2603541],[76.9829589,35.2663497],[76.991427,35.2678605],[76.9945894,35.2690447],[76.9920163,35.2756663],[76.9926959,35.2783671],[76.9971505,35.279215],[76.9987485,35.2799806],[76.99909,35.2808501],[76.9991388,35.282098],[76.9992523,35.2833237],[76.9990656,35.2838924],[76.9986021,35.2845732],[76.9981569,35.2850899],[76.9973737,35.286351],[76.9974381,35.2884879],[77.0014061,35.2898621],[77.0032788,35.2912657],[77.006416,35.2944708],[77.0123727,35.2950872],[77.0156329,35.2947564],[77.021661,35.2954455],[77.0159517,35.3004427],[77.0130391,35.302476],[77.0038196,35.3058294],[76.9985844,35.311291],[76.9892241,35.3124798],[76.9862427,35.3140197],[76.984203,35.3163529],[76.9834851,35.319817],[76.9880901,35.3213428],[76.9901339,35.3274107],[76.9870955,35.3364086],[76.9777657,35.3449643],[76.9850699,35.350306],[76.9867093,35.3564523],[76.98301,35.3601272],[76.9686762,35.3591332],[76.9585053,35.3627101],[76.9522911,35.3703742],[76.9521967,35.3742585],[76.9506175,35.3777857],[76.954497,35.3826703],[76.9476134,35.3928654],[76.9398028,35.3968466],[76.9189459,35.4013942],[76.9131009,35.3968326],[76.9082772,35.3896048],[76.9034707,35.389094],[76.8983466,35.3869178],[76.8845622,35.3859102],[76.8711468,35.3881494],[76.8625895,35.3896328],[76.8541609,35.3956012],[76.8473288,35.3995612],[76.8468911,35.4059556],[76.8314673,35.4207293],[76.8386513,35.4262478],[76.8414837,35.4301294],[76.8409773,35.4354514],[76.8383509,35.4428429],[76.8300768,35.4494506],[76.8256566,35.4546805],[76.821262,35.4548622],[76.8154341,35.4609656],[76.8136403,35.4665582],[76.8100268,35.4726887],[76.8037611,35.4791821],[76.8040787,35.4837321],[76.7996069,35.4885823],[76.7939078,35.4911821],[76.7909552,35.4968774],[76.7936503,35.5017548],[76.7915732,35.5054091],[76.7941824,35.5091262],[76.7963368,35.5169301],[76.7893673,35.5185858],[76.7806727,35.5173772],[76.7747675,35.5157564],[76.7659871,35.5163013],[76.7587773,35.5183762],[76.758185,35.5253968],[76.7529931,35.5290004],[76.7530875,35.5323951],[76.7534823,35.5354684],[76.7478433,35.5387091],[76.7502637,35.5450855],[76.7488475,35.5513566],[76.7497487,35.5550366],[76.75386,35.5572641],[76.7603402,35.5590377],[76.766314,35.5625987],[76.7695498,35.5682959],[76.7716699,35.5723033],[76.7763648,35.5789632],[76.781034,35.5780557],[76.7857032,35.5767293],[76.7921748,35.579033],[76.7941489,35.5829351],[76.793694,35.5880725],[76.7902951,35.591688],[76.787748,35.5956244],[76.7828386,35.5994403],[76.7788668,35.6060543],[76.7698975,35.6142849],[76.764298,35.6199369],[76.7591802,35.6253527],[76.7475818,35.6318687],[76.7619059,35.6398999],[76.7694072,35.6390195],[76.7748145,35.6391754],[76.7821233,35.642549],[76.7810307,35.6464547],[76.7799332,35.6503773],[76.7774363,35.6548072],[76.777075,35.6583447],[76.7777161,35.6586321],[76.7784794,35.6590647],[76.7792226,35.659577],[76.779864,35.6600002],[76.7805019,35.6604209],[76.781025,35.6607736],[76.7816045,35.6611327],[76.7822672,35.661385],[76.7827169,35.6615049],[76.7833374,35.6615662],[76.7840716,35.6615553],[76.7848762,35.6614729],[76.7861669,35.6612305],[76.7874426,35.6609648],[76.7883618,35.6608571],[76.7894263,35.660806],[76.789971,35.6608707],[76.7903382,35.6610157],[76.7907918,35.661338],[76.7912648,35.6618833],[76.7916098,35.6625011],[76.7919268,35.6631545],[76.7921443,35.663425],[76.7925398,35.6637403],[76.7930811,35.6639884],[76.7943284,35.6642939],[76.795326,35.6644671],[76.7963128,35.6645352],[76.7974179,35.6645283],[76.7985162,35.6645201],[76.7993082,35.6644329],[76.7999784,35.6642564],[76.8006152,35.6640767],[76.8011982,35.663849],[76.8019847,35.6636751],[76.802701,35.6635984],[76.8035608,35.6635625],[76.8043654,35.6635707],[76.8049884,35.6637202],[76.8055207,35.6639011],[76.8058871,35.6641843],[76.8062453,35.6646211],[76.8064273,35.6650297],[76.8069586,35.6655975],[76.807798,35.6664193],[76.8085727,35.6669249],[76.8095497,35.6674625],[76.8109656,35.6682991],[76.8123513,35.6690774],[76.8131708,35.6696527],[76.8138117,35.6699721],[76.8141586,35.6700256],[76.8145329,35.67002],[76.8151189,35.6698231],[76.8158884,35.6694589],[76.8170561,35.6688772],[76.817684,35.6686209],[76.8184844,35.6683503],[76.8197585,35.6680138],[76.8205018,35.6677675],[76.822168,35.6669431],[76.8228398,35.6667214],[76.8233284,35.6666787],[76.8239776,35.6667277],[76.8251632,35.666933],[76.8258993,35.6670041],[76.827324,35.666959],[76.8281028,35.6670059],[76.828609,35.667104],[76.8297696,35.6674742],[76.8306697,35.6677896],[76.832011,35.6685096],[76.8328541,35.6688493],[76.8335059,35.6690038],[76.8340247,35.6689958],[76.8346839,35.6688447],[76.8355396,35.6684791],[76.8362133,35.6683396],[76.8372615,35.6682061],[76.8381221,35.6680519],[76.8382533,35.6681204],[76.8383781,35.6685416],[76.8387521,35.669147],[76.839094,35.6696119],[76.8395641,35.670016],[76.8414528,35.6713621],[76.8419512,35.6717423],[76.8424322,35.6719934],[76.8430108,35.6721021],[76.843876,35.6721476],[76.8445958,35.6721366],[76.8450005,35.6722009],[76.845653,35.6723907],[76.8462503,35.6726871],[76.8466857,35.6728332],[76.8472209,35.6729307],[76.8477248,35.672923],[76.8481551,35.6728459],[76.8485253,35.6726639],[76.8488353,35.6723654],[76.8490173,35.6721393],[76.8492251,35.6717835],[76.8495343,35.6714497],[76.849932,35.6712086],[76.8506597,35.6709154],[76.8511598,35.6707431],[76.8514309,35.6706332],[76.8518552,35.6702976],[76.8525444,35.6695819],[76.8531749,35.6688201],[76.8538741,35.6679162],[76.8544312,35.6670967],[76.8546943,35.6666461],[76.854826,35.6661151],[76.855115,35.6642891],[76.8551142,35.6636311],[76.8551031,35.6631494],[76.8551688,35.6628781],[76.8553451,35.6624053],[76.8559364,35.6611975],[76.8564916,35.6602958],[76.8571018,35.6592875],[76.8574628,35.658706],[76.8578566,35.6583004],[76.8581377,35.6580023],[76.858347,35.657717],[76.8585678,35.6573023],[76.8587846,35.6567113],[76.8588997,35.6560867],[76.8588538,35.655347],[76.8587707,35.6548665],[76.8587666,35.6546903],[76.8590007,35.6542283],[76.8596845,35.6532894],[76.8606257,35.6522759],[76.8614127,35.6514411],[76.861851,35.6510935],[76.8624185,35.6507322],[76.8629744,35.6504886],[76.863631,35.6502434],[76.8641581,35.6500002],[76.8646703,35.6497337],[76.8653632,35.6491941],[76.8660429,35.6487018],[76.8672081,35.6480373],[76.8678747,35.6476039],[76.8682983,35.6472448],[76.8684943,35.6470067],[76.8687164,35.6466507],[76.8688806,35.6462839],[76.8691206,35.6460804],[76.8694332,35.6458992],[76.8700615,35.6456779],[76.8706206,35.6455752],[76.8711537,35.6455905],[76.8714695,35.6455503],[76.8717969,35.6453924],[76.8720378,35.6452242],[76.8722175,35.6449041],[76.872367,35.6445257],[76.8726368,35.6437459],[76.8728445,35.6433901],[76.873294,35.642913],[76.8737618,35.6426002],[76.8743777,35.6424613],[76.8754138,35.6424452],[76.8760023,35.6423655],[76.8770496,35.6422082],[76.8775231,35.642142],[76.8781207,35.6418389],[76.8790152,35.6413079],[76.8795669,35.640888],[76.8800596,35.6404102],[76.8806267,35.640037],[76.8811235,35.6397355],[76.8814086,35.6396135],[76.8815193,35.6394237],[76.8815941,35.638929],[76.8816418,35.6385052],[76.8817915,35.6381385],[76.8819443,35.6379011],[76.8825535,35.6374802],[76.8831505,35.6371536],[76.8835726,35.6367357],[76.8840079,35.6362706],[76.8843254,35.6356898],[76.8845756,35.6353098],[76.8852138,35.6349002],[76.8857689,35.634633],[76.8863518,35.6343183],[76.8867483,35.6340418],[76.8871585,35.6337298],[76.8873555,35.6335387],[76.8874729,35.6333404],[76.8876355,35.6330232],[76.8880914,35.6326929],[76.8889627,35.6322361],[76.8895075,35.6318398],[76.8899838,35.6314169],[76.8904634,35.6311324],[76.8909003,35.6309594],[76.8912468,35.6307878],[76.8917023,35.6304391],[76.8920003,35.6301297],[76.8926157,35.6293723],[76.8931009,35.6288477],[76.8935543,35.6284159],[76.8939974,35.6280211],[76.8947416,35.6274555],[76.8952775,35.6271609],[76.8963239,35.6264613],[76.8973048,35.6258642],[76.8979426,35.6255772],[76.8983895,35.6253486],[76.8985568,35.6252536],[76.898789,35.6250284],[76.8989852,35.6247207],[76.8991463,35.6243581],[76.899259,35.623867],[76.8995404,35.6228563],[76.8996504,35.6222452],[76.8995742,35.6214156],[76.8995066,35.6204657],[76.8993959,35.6196089],[76.8993041,35.6185948],[76.8992402,35.618282],[76.899271,35.6181522],[76.8994697,35.617946],[76.9003205,35.617591],[76.9009604,35.6173962],[76.9012983,35.6173447],[76.9032225,35.6174344],[76.903777,35.6174533],[76.904036,35.6174123],[76.90455,35.6171549],[76.9056045,35.6168059],[76.9063665,35.6165169],[76.9069128,35.6161943],[76.9075457,35.6157043],[76.908532,35.614867],[76.9089534,35.6145187],[76.9092619,35.6141815],[76.9096298,35.6139633],[76.910077,35.6137531],[76.9113121,35.613392],[76.911906,35.6131702],[76.9129467,35.6127198],[76.9133726,35.6125653],[76.9145425,35.6123159],[76.915393,35.6119516],[76.9160873,35.6116728],[76.9167709,35.6114219],[76.9175441,35.6111326],[76.9182384,35.6108538],[76.9187323,35.6107075],[76.9195327,35.6106117],[76.9208669,35.6106181],[76.9217377,35.6106319],[76.9222786,35.6105587],[76.9229312,35.6104282],[76.9233919,35.6103101],[76.9239345,35.6103107],[76.9245353,35.6103749],[76.9252463,35.6103266],[76.9257083,35.6102639],[76.9265754,35.6101207],[76.9268132,35.6101354],[76.927257,35.6102575],[76.9276545,35.6103343],[76.9283884,35.6102948],[76.9293155,35.6102984],[76.9301651,35.6103679],[76.9305719,35.6103614],[76.9308872,35.6103102],[76.9313465,35.6101367],[76.9319942,35.6098032],[76.9324819,35.6093984],[76.9330128,35.6089098],[76.9332896,35.6086653],[76.9336846,35.6081697],[76.934046,35.6076838],[76.9348315,35.6069696],[76.9353729,35.6064531],[76.9360015,35.6057968],[76.9363476,35.6056158],[76.9367404,35.6054987],[76.9376544,35.6054286],[76.9381274,35.6053564],[76.9384308,35.6052777],[76.9390671,35.6049443],[76.9400938,35.6043923],[76.9412035,35.6040052],[76.941798,35.6038109],[76.942382,35.6036538],[76.9430996,35.6034115],[76.9443875,35.6029106],[76.9457416,35.6023441],[76.9469363,35.6017339],[76.9486177,35.600682],[76.9490641,35.600444],[76.9498133,35.6001087],[76.9503492,35.5998323],[76.9507058,35.5996235],[76.9512621,35.5992544],[76.9518158,35.5987838],[76.9524261,35.5983124],[76.952794,35.5981033],[76.9532074,35.5979027],[76.9538011,35.5976808],[76.9543504,35.5974964],[76.9551132,35.5972533],[76.955762,35.596975],[76.9564309,35.5965949],[76.956986,35.5961797],[76.9573609,35.5957951],[76.95756,35.5956164],[76.9578183,35.5955476],[76.9592707,35.5953117],[76.9603393,35.5951004],[76.9614308,35.594898],[76.9620843,35.5948135],[76.9629635,35.5947161],[76.9632781,35.5946371],[76.9635924,35.5945489],[76.96405,35.5943107],[76.9645487,35.5939056],[76.9648174,35.5937996],[76.965033,35.593833],[76.9657219,35.5942742],[76.9661103,35.5944432],[76.9664967,35.5945292],[76.9676792,35.5948146],[76.9691453,35.5951414],[76.96967,35.595336],[76.9699931,35.5956076],[76.9705294,35.5962728],[76.9717982,35.5982369],[76.9727637,35.599809],[76.973034,35.6002292],[76.9733106,35.6004462],[76.9737436,35.6005869],[76.9740715,35.6005907],[76.9743869,35.6005486],[76.9749702,35.6003637],[76.9758567,35.6000999],[76.9767226,35.5999195],[76.9781971,35.5996645],[76.9794222,35.5993766],[76.980512,35.5991095],[76.9814979,35.5987517],[76.9823595,35.5983959],[76.9828939,35.598064],[76.9830401,35.5980339],[76.9831653,35.5980688],[76.9834742,35.5982206],[76.9840978,35.5987551],[76.9850466,35.5996441],[76.985808,35.6002686],[76.9862746,35.6008517],[76.9864864,35.6011898],[76.9868472,35.6016085],[76.9873205,35.6020069],[76.9876907,35.6023516],[76.9882156,35.6030077],[76.9884975,35.6034369],[76.9888009,35.6038196],[76.9902377,35.6052361],[76.991417,35.6062967],[76.9920379,35.6067203],[76.992384,35.6070008],[76.9926627,35.6073008],[76.9929539,35.6076468],[76.9934439,35.6082572],[76.9935877,35.6085872],[76.9936402,35.6088818],[76.9936229,35.6090944],[76.9935737,35.6093906],[76.9933951,35.6099382],[76.9932721,35.610448],[76.9932628,35.6109836],[76.9933072,35.6114076],[76.9934536,35.611839],[76.9936625,35.6120571],[76.99404,35.6122355],[76.9943813,35.6123222],[76.9947443,35.6123716],[76.9953197,35.6123251],[76.9958928,35.6121864],[76.996555,35.6119908],[76.9973283,35.6117195],[76.9981339,35.611383],[76.9989632,35.6109224],[76.9993192,35.6107359],[76.9994728,35.6109179],[77.0003937,35.6106067],[77.0010586,35.6104775],[77.0019674,35.6103443],[77.0031331,35.6102522],[77.0039008,35.6102576],[77.0042332,35.6102067],[77.004842,35.6100875],[77.0056399,35.6099653],[77.0062619,35.6099277],[77.0071968,35.6099484],[77.0082236,35.6100857],[77.008883,35.610211],[77.0095297,35.6102729],[77.0100412,35.6102644],[77.0105173,35.6101747],[77.0112874,35.6098348],[77.0117176,35.6096914],[77.0121488,35.6095842],[77.0125924,35.6095314],[77.0130791,35.6094233],[77.0135647,35.6092699],[77.0141036,35.6090247],[77.0153967,35.6082491],[77.0157149,35.6080712],[77.0162869,35.6078164],[77.016627,35.607629],[77.0170095,35.6073592],[77.0178438,35.6069183],[77.0190713,35.6061892],[77.0201785,35.6055439],[77.0208571,35.6051056],[77.0218515,35.6043985],[77.0226369,35.6037858],[77.0233543,35.6031197],[77.0239511,35.6025283],[77.0244606,35.602002],[77.0248653,35.6017318],[77.0254591,35.6014584],[77.0263831,35.6010523],[77.0274957,35.6006248],[77.0283566,35.600365],[77.0287662,35.6002855],[77.0293531,35.6001847],[77.0302406,35.6000971],[77.0311852,35.600063],[77.0320414,35.6000577],[77.0332435,35.6000919],[77.0346452,35.6001046],[77.0356988,35.5999869],[77.0368166,35.5997681],[77.0376705,35.599672],[77.0389796,35.5995408],[77.0404105,35.5993894],[77.0409326,35.5993624],[77.0415887,35.5993604],[77.0420913,35.5994427],[77.0435344,35.5997725],[77.0439244,35.5998022],[77.0443247,35.5997954],[77.0455906,35.5997194],[77.0470692,35.5996943],[77.0477712,35.599746],[77.0485963,35.5998741],[77.0494772,35.6000611],[77.0502835,35.6001302],[77.0514955,35.6001187],[77.0522836,35.6000598],[77.0528161,35.6000053],[77.0537907,35.5998434],[77.0543896,35.5997787],[77.0552452,35.5997459],[77.0556676,35.5997387],[77.0560227,35.5997054],[77.0570165,35.599425],[77.057545,35.5992162],[77.0578748,35.5990652],[77.0583127,35.5987943],[77.0587067,35.5985423],[77.0605617,35.5975841],[77.0612224,35.5973275],[77.0619961,35.5971417],[77.0628389,35.5970455],[77.0637379,35.5969756],[77.0645708,35.596925],[77.064957,35.5968094],[77.0652544,35.5966953],[77.0658544,35.5962399],[77.0667619,35.5956339],[77.067388,35.5953325],[77.0678507,35.5951611],[77.0682791,35.5949539],[77.0686072,35.5947393],[77.0688244,35.5945358],[77.0691663,35.5939939],[77.069802,35.5927658],[77.0703617,35.5916117],[77.0709758,35.5904112],[77.0712945,35.5898334],[77.071581,35.5893016],[77.0723702,35.5884251],[77.0727814,35.5879821],[77.0730719,35.5876046],[77.0741651,35.5860144],[77.0749765,35.5851374],[77.0751915,35.5848521],[77.0753822,35.5844855],[77.0754745,35.5841842],[77.0755667,35.5834468],[77.0756421,35.5824917],[77.0757024,35.5822454],[77.0758505,35.5819522],[77.0763369,35.5814079],[77.0772945,35.5806011],[77.0781209,35.5798783],[77.0787313,35.5794046],[77.0795113,35.5790368],[77.0798071,35.5788682],[77.0800254,35.57871],[77.0802631,35.5784425],[77.0805808,35.5778284],[77.0808202,35.5771975],[77.0811592,35.5765467],[77.0815343,35.5760043],[77.0820508,35.5753414],[77.0827662,35.5746296],[77.0837601,35.5735133],[77.0844422,35.5728021],[77.0847555,35.5724515],[77.0853089,35.5714972],[77.0854778,35.5711491],[77.0856615,35.5709461],[77.0860434,35.570667],[77.087359,35.5699539],[77.0879175,35.5696263],[77.0883431,35.5693191],[77.0886796,35.5690045],[77.0889591,35.5686363],[77.0891154,35.5682339],[77.0892325,35.568032],[77.0896559,35.5676432],[77.09017,35.5673163],[77.0908391,35.5669686],[77.0913422,35.5666511],[77.0927294,35.5657005],[77.0934278,35.5651978],[77.0938846,35.5648084],[77.0940709,35.5647052],[77.0946366,35.5646591],[77.0956677,35.5645503],[77.0966547,35.5644605],[77.0987856,35.5643235],[77.0998719,35.5642046],[77.1015318,35.5639123],[77.1024865,35.5638593],[77.1041977,35.5638295],[77.1052337,35.5639113],[77.106181,35.5640038],[77.1068489,35.5640375],[77.1081615,35.5640691],[77.1097287,35.5640598],[77.1104058,35.5640207],[77.1107931,35.5639503],[77.111333,35.5637683],[77.1116843,35.5635986],[77.1120443,35.563338],[77.1127161,35.5626722],[77.1135239,35.5616861],[77.1146263,35.5604859],[77.1152859,35.559784],[77.1156972,35.5593589],[77.1163524,35.5589114],[77.1172045,35.5583424],[77.1177046,35.5579158],[77.1181496,35.5575083],[77.1183878,35.5572679],[77.1188478,35.5570055],[77.1195855,35.5567382],[77.1201394,35.5566648],[77.1210546,35.5563853],[77.1215394,35.5562224],[77.1220457,35.5560318],[77.1223452,35.5560084],[77.1226024,35.5560674],[77.1233082,35.556273],[77.1240003,35.556388],[77.124524,35.5564332],[77.125267,35.5563656],[77.1259307,35.5562449],[77.1264599,35.5560812],[77.1269689,35.5559905],[77.1276452,35.555924],[77.1281321,35.5558428],[77.1285171,35.5556906],[77.1291401,35.555289],[77.1299807,35.554711],[77.1313233,35.5537789],[77.1318812,35.5534421],[77.1334855,35.5527415],[77.134857,35.5520632],[77.1358243,35.5516555],[77.136496,35.5514165],[77.1371452,35.5511688],[77.1373292,35.5509839],[77.1378534,35.5502116],[77.1383621,35.549276],[77.1388417,35.5485045],[77.1395296,35.5476203],[77.1401105,35.5468924],[77.1404971,35.5463859],[77.1410246,35.5457407],[77.1415858,35.545113],[77.142051,35.5446324],[77.1425511,35.5442148],[77.1430745,35.543833],[77.1437989,35.5430753],[77.1446449,35.5422882],[77.145535,35.5414911],[77.1465128,35.5406471],[77.1476219,35.5397281],[77.1484038,35.539042],[77.1488288,35.5387256],[77.1491915,35.5385738],[77.1496225,35.5384844],[77.150388,35.5384344],[77.1513597,35.5381991],[77.1525405,35.5378873],[77.1536124,35.5376592],[77.1541002,35.5376142],[77.1544119,35.5376359],[77.1549342,35.5376356],[77.155692,35.5377129],[77.1563493,35.5377738],[77.1571158,35.5377601],[77.1577363,35.5376945],[77.1582441,35.5375673],[77.1587075,35.537441],[77.1591839,35.537387],[77.1597524,35.5374495],[77.16058,35.5376436],[77.1611173,35.5377884],[77.16134,35.5378026],[77.1625705,35.5376897],[77.16308,35.537626],[77.1636446,35.5375432],[77.1644061,35.5373479],[77.1650658,35.5370817],[77.1659449,35.5367117],[77.1666154,35.5364362],[77.1676143,35.5359731],[77.1681539,35.5357909],[77.1686728,35.5356634],[77.1694255,35.53555],[77.1698663,35.5354149],[77.1701186,35.5352922],[77.1703238,35.5350705],[77.1708172,35.5344076],[77.1713885,35.5337524],[77.1719633,35.5332243],[77.1724541,35.5328794],[77.1729905,35.532579],[77.1734415,35.5324074],[77.1745905,35.5321596],[77.174866,35.5320729],[77.1754249,35.5317812],[77.1759939,35.531453],[77.1765846,35.5311063],[77.1773022,35.5305211],[77.1778354,35.5301027],[77.1783247,35.5297032],[77.1787606,35.5293865],[77.1792602,35.5289597],[77.1797258,35.5285061],[77.1799838,35.5281835],[77.1805141,35.5272474],[77.1807982,35.526661],[77.1809602,35.5264854],[77.1811147,35.5264463],[77.1819003,35.5263231],[77.1825528,35.5262114],[77.1833567,35.5259425],[77.1838388,35.5256885],[77.1842554,35.5254811],[77.1846412,35.5253651],[77.1852839,35.525299],[77.1861625,35.5253285],[77.1867612,35.5252813],[77.1870038,35.5252133],[77.1872312,35.5249912],[77.187454,35.5246056],[77.1876416,35.524148],[77.1877806,35.5239457],[77.1880516,35.5236955],[77.1887049,35.5232022],[77.1893362,35.5227184],[77.1895752,35.5225142],[77.1899101,35.522163],[77.1901142,35.5219049],[77.1905962,35.5212422],[77.1909716,35.5207448],[77.1912534,35.5204854],[77.1914866,35.5204811],[77.1918324,35.5205293],[77.1927924,35.5206936],[77.1936737,35.5208229],[77.1944412,35.5208543],[77.195129,35.5208146],[77.195937,35.5206999],[77.1968629,35.5204287],[77.197469,35.5202451],[77.198332,35.5201113],[77.1994737,35.5200087],[77.2004586,35.5198636],[77.2008019,35.519821],[77.2012915,35.5198484],[77.2022727,35.5199758],[77.202999,35.520126],[77.2037634,35.5204482],[77.2042787,35.5206022],[77.2045008,35.5205982],[77.2051528,35.5204682],[77.2058376,35.5203194],[77.2067248,35.5202577],[77.2074143,35.5202815],[77.207805,35.520347],[77.2082902,35.5206197],[77.208914,35.5210806],[77.2093116,35.5214003],[77.2100888,35.5217858],[77.2107607,35.5219733],[77.2119118,35.5222156],[77.2135752,35.522503],[77.2144919,35.5227041],[77.2154885,35.5229856],[77.2162141,35.5231085],[77.2172159,35.5231718],[77.2186439,35.5233817],[77.219102,35.5234732],[77.2193044,35.5235603],[77.2198606,35.5239861],[77.2216581,35.5255063],[77.2223889,35.5262195],[77.2228096,35.526566],[77.2233424,35.5269467],[77.2238615,35.5272369],[77.2245043,35.5275793],[77.2257719,35.5280101],[77.2264339,35.5282431],[77.2269402,35.52847],[77.2275041,35.5287684],[77.2281558,35.5290288],[77.2285927,35.529157],[77.2293053,35.5292074],[77.2299961,35.5292764],[77.2309667,35.5294129],[77.2324403,35.5296581],[77.2336819,35.5295533],[77.2352136,35.5294886],[77.2363465,35.5294676],[77.2376707,35.5295339],[77.2383257,35.5295126],[77.2390671,35.5293989],[77.2396749,35.5292787],[77.2400609,35.5291716],[77.2403802,35.5290657],[77.2410044,35.5287362],[77.2416647,35.5285059],[77.2419207,35.5285193],[77.242348,35.5287021],[77.2437035,35.5294944],[77.2446052,35.52995],[77.2454016,35.5302167],[77.2460519,35.5304226],[77.2467879,35.5305179],[77.2480455,35.5305853],[77.2494371,35.5306774],[77.2499302,35.5307896],[77.2503677,35.5309833],[77.2528629,35.5325442],[77.2535789,35.5329201],[77.2544366,35.5333149],[77.2553764,35.5338091],[77.2561559,35.5342487],[77.256988,35.5346728],[77.2576317,35.5349851],[77.258248,35.5352619],[77.2584714,35.5353659],[77.2590479,35.5361119],[77.2594489,35.536573],[77.2598398,35.5369909],[77.2604153,35.5375953],[77.2613844,35.5386055],[77.2619457,35.5391212],[77.2628562,35.5398249],[77.2632432,35.5400988],[77.2639236,35.5404608],[77.2645061,35.5407887],[77.2648349,35.5408762],[77.2650381,35.5408868],[77.2653259,35.5407733],[77.2656819,35.540572],[77.2663743,35.5401048],[77.2670056,35.5396605],[77.2679418,35.5390806],[77.2701112,35.5378216],[77.2709023,35.5374174],[77.2715815,35.5371091],[77.2723925,35.5367838],[77.2727845,35.5366106],[77.2730535,35.5364542],[77.2733063,35.5363485],[77.2735695,35.5363003],[77.2738966,35.5363302],[77.2742969,35.5364524],[77.2750918,35.536805],[77.2759646,35.5371057],[77.2769704,35.5374327],[77.2775021,35.5375236],[77.2780763,35.537556],[77.2791787,35.5375568],[77.2805095,35.5375244],[77.2810574,35.5375645],[77.2816146,35.5376188],[77.282094,35.5377323],[77.2827817,35.5380364],[77.2834723,35.5384414],[77.2840759,35.5388913],[77.2845988,35.5392923],[77.2850258,35.5397311],[77.285513,35.5401184],[77.2857229,35.5403667],[77.2860923,35.5406408],[77.2863791,35.5408011],[77.2871185,35.541061],[77.2879464,35.5413336],[77.288553,35.5415744],[77.2892767,35.5418995],[77.2900226,35.5423899],[77.2906253,35.5428037],[77.2912387,35.5432823],[77.2916684,35.5435047],[77.2922114,35.5436818],[77.2924962,35.5437701],[77.2927215,35.5439388],[77.2931528,35.5445289],[77.2934349,35.5451435],[77.2936575,35.5452185],[77.2945671,35.5452589],[77.2950782,35.545242],[77.2955852,35.5450809],[77.2960811,35.5448408],[77.2965743,35.5445071],[77.2967289,35.54436],[77.296923,35.5440535],[77.2971239,35.5436748],[77.2973538,35.5433893],[77.2978833,35.5430909],[77.2983118,35.5429602],[77.2986453,35.5429034],[77.2989979,35.5428966],[77.2993608,35.5429402],[77.2997357,35.5430988],[77.3001861,35.543429],[77.3005861,35.5438467],[77.3007514,35.5440742],[77.3009017,35.5443957],[77.3010922,35.5448894],[77.3013889,35.5453956],[77.3017549,35.5458571],[77.3020342,35.5460608],[77.302427,35.5462263],[77.3027101,35.546257],[77.3029393,35.5462526],[77.3033864,35.5461575],[77.3040233,35.5459147],[77.3047012,35.5455629],[77.3053163,35.5451764],[77.3060079,35.5446874],[77.3066235,35.5443152],[77.3071097,35.5440464],[77.3076666,35.5437834],[77.3080934,35.5435951],[77.3086511,35.5433609],[77.3091058,35.5432225],[77.3095871,35.5430907],[77.3100436,35.5430171],[77.3103574,35.5428885],[77.3107124,35.5426583],[77.3109268,35.5424451],[77.3111383,35.5421311],[77.3112936,35.5417028],[77.3113725,35.5410742],[77.3114632,35.5405463],[77.3115346,35.539961],[77.3115733,35.5397729],[77.3116806,35.5395185],[77.3118982,35.5391107],[77.3122341,35.5385204],[77.3125359,35.537974],[77.3129938,35.537338],[77.3134297,35.5368539],[77.3140185,35.536475],[77.3143609,35.5365777],[77.3148555,35.5367545],[77.3156366,35.5372368],[77.3159167,35.5374693],[77.3164995,35.5381069],[77.3170847,35.5388309],[77.3171756,35.5389229],[77.3172549,35.5389213],[77.3178344,35.5385282],[77.3181507,35.538486],[77.3186519,35.5384332],[77.3189342,35.5384349],[77.3192049,35.5383432],[77.3195592,35.5380913],[77.3198498,35.5377686],[77.3199204,35.5374645],[77.3199799,35.5370813],[77.3200539,35.5368924],[77.3203049,35.536729],[77.320631,35.5365678],[77.3210403,35.5363768],[77.3214625,35.536226],[77.3218276,35.5360957],[77.3221704,35.5359733],[77.3226183,35.5358545],[77.3232842,35.5356781],[77.3241411,35.5354672],[77.3248741,35.5352728],[77.326374,35.5351015],[77.3269047,35.5349829],[77.3274314,35.5347707],[77.327802,35.5345503],[77.3282561,35.5341793],[77.3286825,35.5338206],[77.3287788,35.5336946],[77.3287636,35.5331765],[77.3288485,35.5327555],[77.3289984,35.5321821],[77.3291418,35.5317086],[77.329361,35.5311444],[77.3295464,35.5308578],[77.3297239,35.5306659],[77.3299822,35.5304602],[77.3305209,35.5301797],[77.3311622,35.5298071],[77.331485,35.5295792],[77.3318253,35.5292795],[77.3322177,35.5288522],[77.3325157,35.5285062],[77.3327922,35.5281207],[77.3329811,35.5278947],[77.3331416,35.5277299],[77.3338834,35.527294],[77.334491,35.5269747],[77.335358,35.5265326],[77.3360726,35.5262097],[77.3366324,35.5259866],[77.337113,35.5258549],[77.3376152,35.5258142],[77.3380909,35.525831],[77.3384655,35.5259156],[77.3386272,35.5256634],[77.3386407,35.5254734],[77.3386542,35.5252834],[77.3386342,35.5250257],[77.3385695,35.5248077],[77.338475,35.5245198],[77.3383972,35.5240905],[77.3383712,35.5235275],[77.3383054,35.5227791],[77.3382335,35.5224273],[77.3380816,35.5220554],[77.3378601,35.5217137],[77.3375274,35.5211867],[77.3375333,35.5210857],[77.3375835,35.520991],[77.3380547,35.5208233],[77.3384203,35.5206576],[77.3387415,35.5204856],[77.3389047,35.5203383],[77.339375,35.5198318],[77.3396507,35.5193075],[77.3397156,35.5191116],[77.3397225,35.5187438],[77.3397085,35.5179584],[77.3396205,35.5176573],[77.3394908,35.5174436],[77.3391392,35.5171765],[77.3378281,35.5163514],[77.337449,35.5160487],[77.3372751,35.5158287],[77.3369535,35.5153808],[77.3363517,35.5146932],[77.3357422,35.5140419],[77.3356031,35.5138067],[77.3355624,35.5136201],[77.3355933,35.5134681],[77.3356407,35.5132797],[77.3359135,35.5129573],[77.3364316,35.5122769],[77.3368246,35.511844],[77.3370904,35.5115865],[77.3374152,35.5112343],[77.3376618,35.5109195],[77.3379887,35.5103365],[77.3384339,35.5095782],[77.3388186,35.5088571],[77.3389514,35.5085734],[77.3390307,35.5082692],[77.3390899,35.5078788],[77.3391126,35.5074458],[77.339155,35.5070846],[77.3392633,35.5065635],[77.3394237,35.5060125],[77.3396497,35.5052945],[77.3399392,35.5046402],[77.34013,35.5042256],[77.3403901,35.5037736],[77.3406882,35.5034146],[77.3411261,35.5030097],[77.3414678,35.5026354],[77.3416262,35.5023224],[77.3416932,35.5018958],[77.3417085,35.5015135],[77.3417924,35.5013677],[77.3419988,35.5011907],[77.342669,35.5008965],[77.3434127,35.5007019],[77.3436661,35.5006249],[77.3441108,35.5004576],[77.344684,35.5001654],[77.3451515,35.4998752],[77.3457944,35.4995527],[77.3465229,35.4991421],[77.347049,35.4987426],[77.347582,35.4982781],[77.3479711,35.4980182],[77.3486047,35.4976815],[77.3488292,35.4975186],[77.3493453,35.4970832],[77.3498477,35.4967779],[77.3502269,35.4964822],[77.351119,35.4956358],[77.3513514,35.4954439],[77.3516479,35.4953372],[77.3521238,35.4953351],[77.352484,35.4952921],[77.3526941,35.4952447],[77.3531543,35.4950051],[77.3535427,35.4947236],[77.3538309,35.4946315],[77.3541531,35.4944954],[77.3546648,35.4942115],[77.3554092,35.4937429],[77.3559828,35.493465],[77.3564366,35.4933119],[77.3567707,35.4932838],[77.3573528,35.493294],[77.3578742,35.4933415],[77.358222,35.4934789],[77.3586872,35.4937149],[77.3591214,35.4940956],[77.3597067,35.4948194],[77.3604338,35.495872],[77.3611523,35.496932],[77.3613552,35.497238],[77.3621907,35.4980794],[77.3627759,35.498796],[77.3630534,35.4992447],[77.363162,35.499639],[77.3632717,35.4997738],[77.3635629,35.4997825],[77.3640694,35.4996212],[77.3645658,35.4994168],[77.3649792,35.4993871],[77.3658927,35.4992755],[77.3667996,35.4992433],[77.3693351,35.4991358],[77.369811,35.4991337],[77.3701611,35.4990475],[77.3705004,35.4988967],[77.3710266,35.4985043],[77.3715326,35.4980258],[77.3721285,35.4973077],[77.3724795,35.4969548],[77.3726951,35.496792],[77.3726571,35.496699],[77.3721353,35.4960389],[77.3716659,35.4953634],[77.3713228,35.4947862],[77.3711045,35.4942571],[77.3709001,35.4939007],[77.3707746,35.4935284],[77.3707588,35.4932908],[77.3708177,35.4928932],[77.370866,35.4924381],[77.3708054,35.491877],[77.3707319,35.4914748],[77.3706304,35.4913182],[77.3706085,35.4911745],[77.3706138,35.4904536],[77.3705403,35.4900513],[77.3705146,35.4897779],[77.3705196,35.4896481],[77.3705665,35.4894453],[77.3706917,35.489205],[77.3709456,35.4888468],[77.3713221,35.4884646],[77.3718333,35.4878635],[77.3719767,35.4876444],[77.3720678,35.487448],[77.3720254,35.4872037],[77.371759,35.4868341],[77.3716677,35.4867278],[77.371674,35.4866412],[77.3717434,35.4866038],[77.3720974,35.4866545],[77.3726555,35.4867516],[77.3731127,35.4867138],[77.3735583,35.4865825],[77.3744356,35.4861472],[77.3748489,35.4858147],[77.3750954,35.4855071],[77.3751654,35.4851885],[77.3751051,35.4849374],[77.3749999,35.4846583],[77.3746813,35.4843114],[77.3745871,35.4841042],[77.3745818,35.4839241],[77.3746631,35.4836918],[77.3749869,35.4833178],[77.3753404,35.4830514],[77.3762115,35.4827027],[77.3766966,35.4824192],[77.3770501,35.4821527],[77.3774436,35.4817485],[77.3776628,35.4814126],[77.3777598,35.4811152],[77.3777834,35.4807183],[77.3776679,35.4803889],[77.3776502,35.4800865],[77.3776783,35.4795454],[77.3777504,35.4792989],[77.3778971,35.4788923],[77.3780458,35.4785578],[77.3781713,35.4780291],[77.3783106,35.4770749],[77.3784418,35.4764452],[77.3787678,35.4755449],[77.3790878,35.4750412],[77.3793431,35.4747334],[77.3797326,35.4744951],[77.3802297,35.4743195],[77.380501,35.4742565],[77.3811339,35.4742008],[77.3815719,35.4741128],[77.3819302,35.474012],[77.3822241,35.4738188],[77.3828284,35.473396],[77.3832886,35.4731635],[77.3838581,35.4730513],[77.384641,35.473007],[77.3851806,35.4730756],[77.3855526,35.4731404],[77.385879,35.4731555],[77.3861609,35.47315],[77.3865024,35.4730783],[77.3867957,35.4728635],[77.3870103,35.4726718],[77.3872442,35.4725374],[77.3877407,35.4723402],[77.3884841,35.4721525],[77.3895478,35.471771],[77.3902116,35.4715704],[77.3906051,35.4714689],[77.3914504,35.4711495],[77.3924462,35.4708558],[77.3930216,35.4706498],[77.3934034,35.4704476],[77.3937599,35.4702891],[77.3939442,35.4702638],[77.3941227,35.4703396],[77.3949032,35.470807],[77.3954843,35.471091],[77.3961787,35.4713295],[77.3969068,35.4715169],[77.3976639,35.4717902],[77.3990117,35.4720734],[77.4005882,35.4723448],[77.4010286,35.472336],[77.4016377,35.4723743],[77.4022748,35.4724626],[77.4032594,35.4726808],[77.4040391,35.4728239],[77.404799,35.4728952],[77.405205,35.472916],[77.4059958,35.4728425],[77.4063253,35.4729585],[77.4073866,35.4733842],[77.4076626,35.4734796],[77.4078117,35.473455],[77.4079687,35.4734014],[77.4083207,35.4730917],[77.408996,35.4723934],[77.409246,35.4722082],[77.4095517,35.4721156],[77.409994,35.4721717],[77.4103943,35.4723006],[77.4111916,35.4724433],[77.4116489,35.4724125],[77.4122018,35.4723366],[77.4125865,35.4722352],[77.4132057,35.4720209],[77.4139203,35.4717544],[77.4145195,35.4714613],[77.4150999,35.4711253],[77.4154491,35.4710174],[77.4159841,35.4709346],[77.4177367,35.4706111],[77.418598,35.4705362],[77.4195027,35.4704388],[77.4205749,35.4703452],[77.4212875,35.4703093],[77.4216505,35.4703668],[77.4223007,35.4705989],[77.4231223,35.4709644],[77.4234327,35.4710303],[77.4236,35.4710269],[77.4238949,35.4708696],[77.4245362,35.4705107],[77.4249835,35.4701485],[77.4255573,35.4695964],[77.4262481,35.4688328],[77.4269058,35.468142],[77.4273884,35.4674908],[77.4277962,35.4669852],[77.4279864,35.4665705],[77.4281886,35.4662637],[77.4283524,35.4661451],[77.4286144,35.4660677],[77.4293788,35.4659947],[77.4297209,35.4659445],[77.4301133,35.4658069],[77.430359,35.4657731],[77.4306788,35.4658604],[77.4312684,35.4661296],[77.4321994,35.4666154],[77.4323772,35.4666695],[77.4325714,35.46668],[77.4327726,35.4666327],[77.4329382,35.4665717],[77.4330679,35.4664898],[77.4332564,35.466313],[77.4336393,35.46557],[77.4341582,35.4649541],[77.4348682,35.4642478],[77.4356255,35.4636486],[77.4363006,35.4632457],[77.4367803,35.4630847],[77.4375343,35.4629613],[77.4382821,35.4629246],[77.4387958,35.4630151],[77.4391154,35.4630952],[77.4394406,35.463067],[77.4397635,35.4629667],[77.4401118,35.4628299],[77.4408917,35.4623961],[77.4414993,35.4620955],[77.4418289,35.461923],[77.4420649,35.4618606],[77.4428965,35.4619735],[77.4432661,35.4619588],[77.4437231,35.4619207],[77.4441247,35.4617972],[77.4446385,35.4615994],[77.4450559,35.461418],[77.4452434,35.4615007],[77.4455391,35.461956],[77.4457769,35.462535],[77.4461974,35.4630383],[77.4470227,35.4638144],[77.4479812,35.4646239],[77.4485919,35.465008],[77.4490205,35.4651939],[77.4494051,35.4653807],[77.449847,35.4657178],[77.4504948,35.4661587],[77.4512467,35.4665471],[77.4516701,35.4668557],[77.4519677,35.4670803],[77.4522515,35.4671394],[77.4526299,35.4671245],[77.4534477,35.4670718],[77.453757,35.4671016],[77.4541202,35.4671662],[77.4554465,35.4676078],[77.4569137,35.4680465],[77.4578655,35.4683442],[77.4590206,35.4686595],[77.4603927,35.4691577],[77.4608746,35.4693569],[77.4615548,35.4697034],[77.4622909,35.4701497],[77.4625438,35.4703536],[77.462871,35.4706785],[77.4635294,35.4714652],[77.4640936,35.4720519],[77.4645988,35.4727264],[77.4649275,35.4731017],[77.4653905,35.4735463],[77.4659518,35.4740394],[77.4663406,35.4743631],[77.4668972,35.4746977],[77.4675504,35.4750231],[77.4689506,35.4755711],[77.4697357,35.4758866],[77.4701985,35.4760357],[77.4706869,35.4761554],[77.471333,35.4762503],[77.4717932,35.476313],[77.4720939,35.4763501],[77.4723163,35.4764176],[77.4726932,35.4766405],[77.4731895,35.4770196],[77.4735222,35.4772362],[77.4740953,35.4775344],[77.4748538,35.4778432],[77.4758981,35.4782759],[77.4767072,35.4785116],[77.4772755,35.4786513],[77.4781117,35.478908],[77.4793586,35.4793365],[77.4813652,35.4801097],[77.4823082,35.4804003],[77.4826169,35.4804083],[77.4832201,35.4802518],[77.48413,35.4800384],[77.4847071,35.4798896],[77.4858856,35.4795265],[77.4860705,35.4795227],[77.4865428,35.4796932],[77.4922963,35.4816576],[77.4959036,35.4828948],[77.4981039,35.4836566],[77.4989231,35.483928],[77.4994493,35.4841905],[77.5024954,35.4852179],[77.5041229,35.4857768],[77.5047756,35.4860548],[77.5052144,35.4861116],[77.5056391,35.4860839],[77.5058546,35.4859854],[77.5062469,35.4856574],[77.5067324,35.4853651],[77.5073788,35.4850695],[77.507914,35.4848984],[77.5084286,35.4848031],[77.5094032,35.4847075],[77.5100012,35.4847045],[77.5104986,35.4847976],[77.5108599,35.48495],[77.5113184,35.4852697],[77.5116366,35.4855171],[77.5121709,35.4856847],[77.5125862,35.485723],[77.5129752,35.4856585],[77.5135541,35.4854113],[77.5144951,35.4849778],[77.5153587,35.4846399],[77.5160988,35.4843987],[77.5165105,35.4843243],[77.5167642,35.4843472],[77.5169652,35.4845217],[77.5171484,35.484866],[77.5172733,35.4851832],[77.5175014,35.4854888],[77.5178188,35.485708],[77.518262,35.4859057],[77.5189848,35.4862198],[77.5195071,35.4863688],[77.5200039,35.4864431],[77.5205556,35.4864316],[77.5210357,35.4863369],[77.5213632,35.4861419],[77.5218433,35.4856803],[77.5223019,35.4852663],[77.5230337,35.4847618],[77.5236199,35.4843827],[77.5240493,35.4841385],[77.5244139,35.4840274],[77.5247587,35.4840202],[77.5251038,35.4840224],[77.5254881,35.4841742],[77.5261626,35.4844141],[77.5273072,35.4849733],[77.5280269,35.485184],[77.5285807,35.4852383],[77.5292473,35.4852243],[77.5297872,35.4852036],[77.53002,35.4852927],[77.5301638,35.4854779],[77.5302357,35.4859373],[77.5305001,35.4862986],[77.5311714,35.4868019],[77.5319778,35.4872083],[77.533136,35.487833],[77.533976,35.4882104],[77.5346491,35.4884032],[77.5351104,35.4884406],[77.5357661,35.4884456],[77.5364991,35.4883455],[77.5374262,35.4882037],[77.5383725,35.4879392],[77.5387023,35.4878194],[77.5392006,35.4875738],[77.5397181,35.4872054],[77.5403455,35.4866748],[77.5405889,35.4863687],[77.5410049,35.4857015],[77.5413832,35.4849315],[77.5417812,35.4840577],[77.5422706,35.4835301],[77.5426207,35.4833251],[77.5433212,35.4832915],[77.544195,35.4832825],[77.5446635,35.483188],[77.5453596,35.4830134],[77.5457963,35.4830042],[77.5465098,35.4830173],[77.5473075,35.483151],[77.5476904,35.4832558],[77.5485753,35.4832371],[77.5493695,35.4832579],[77.54988,35.4833977],[77.5509973,35.4838161],[77.5531191,35.4847213],[77.5544946,35.4853036],[77.5552303,35.4856549],[77.5557096,35.4858987],[77.5560037,35.4861088],[77.5564569,35.4866166],[77.5570321,35.4873475],[77.5572933,35.4876054],[77.5574472,35.4877432],[77.5579568,35.4878547],[77.5584395,35.4878445],[77.5591836,35.4877346],[77.5596386,35.4875744],[77.5601232,35.4872632],[77.5611159,35.4866495],[77.5618068,35.486315],[77.5628326,35.4860204],[77.5644766,35.4856374],[77.5652327,35.4855461],[77.5662034,35.4853279],[77.5675252,35.4849423],[77.5685032,35.4845922],[77.5694793,35.4841858],[77.5705391,35.483881],[77.5712802,35.483677],[77.5718545,35.4836554],[77.5723914,35.4835405],[77.5727868,35.4833157],[77.5734036,35.4828228],[77.5742854,35.4819856],[77.5750121,35.4813304],[77.5751996,35.4810818],[77.5753712,35.4806925],[77.5755123,35.4800686],[77.5755747,35.4798604],[77.5756757,35.479783],[77.5758584,35.4797414],[77.576159,35.4797914],[77.5770241,35.4802339],[77.5777136,35.4805766],[77.5781784,35.4807266],[77.5786381,35.4807168],[77.5789704,35.4806814],[77.5794601,35.4805299],[77.5802797,35.4802678],[77.5811021,35.4800903],[77.5818805,35.4799795],[77.582304,35.479914],[77.5824739,35.4798351],[77.5826865,35.4795555],[77.5806212,35.4776796],[77.5685132,35.4666346],[77.5526187,35.4521331],[77.5041111,35.4078607],[77.4621569,35.36955],[77.422193,35.3330398],[77.3872895,35.3011391],[77.3432801,35.260898],[77.2871571,35.2095516],[77.1283794,35.0641113],[77.1179709,35.0545681],[77.1167684,35.053464],[77.1167373,35.0534354]]]}}]}
