{"type":"FeatureCollection","features":[{"type":"Feature","properties":{"place":"somaliland","region":"area/somaliland","donors":"SO","rank":3,"whose_line":"OpenStreetMap mappers (de facto)","publisher":"OpenStreetMap contributors","source_url":"https://www.openstreetmap.org/relation/3586169","version_or_date":"snapshot 2026-10-04T06:57:51Z (Overpass attic query); relation 3586169 v72 (2026-03-21T21:12:06Z)","feature_id":"relation 3586169","licence":"ODbL 1.0","notes":"No dataset of Somaliland's own line found. Candidate not used: the union of Somalia's five north-western 1984 regions in HDX COD-AB Somalia (Awdal, Woqooyi Galbeed, Togdheer, Sool, Sanaag), because Somalia states no Somaliland line and the union is a construction. Register: Somaliland lost a significant eastern part to SSC-Khatumo (sool-sanaag-cayn); this outline does not show that.","input_sha256":"1838423be70b3ca5632ef5eaec9e63dbcc02882905378bd38723d4f9e6125ed7","operation":"assembled from the OSM element's member ways (outer minus inner)","crs":"WGS84 longitude/latitude, as in the source (no reprojection)","source_features":[{"id":"relation 3586169 v72","osm":"relation/3586169","version":72,"timestamp":"2026-03-21T21:12:06Z","name":"Soomaaliland أرض الصومال","name:en":"Somaliland","boundary":"administrative","admin_level":"3"}]},"geometry":{"type":"Polygon","coordinates":[[[49.0400009,10.3500004],[49.0483949,10.0228711],[49.0600014,9.5699997],[49.0800591,9.1395245],[48.7299995,8.7799997],[48.375996,8.4437907],[48.1300011,8.21],[47.9399986,8.0200005],[47.9199982,8.0],[47.0136256,8.0006638],[47.0118848,8.0007395],[46.9931464,8.0015542],[46.250015,8.2543942],[46.2247272,8.262866],[46.1435209,8.2899305],[45.7196234,8.4306598],[45.6262438,8.4617456],[45.6002341,8.4703528],[45.5990713,8.4707637],[45.5984781,8.4710001],[45.5978975,8.4712024],[45.2900009,8.57202],[45.267553,8.5794232],[44.6899986,8.7725346],[44.689684,8.7726398],[44.4139411,8.863872],[44.4078997,8.8657909],[44.4018673,8.8677532],[44.3941597,8.8703961],[44.3802386,8.874995],[44.3702942,8.8782268],[44.3689366,8.8786499],[44.3618662,8.8809545],[44.3602906,8.8814766],[44.3516775,8.8843321],[44.3359015,8.8896062],[44.3276083,8.8921651],[44.3210078,8.8943873],[44.3194399,8.8948733],[44.3183361,8.8953162],[44.3168777,8.8957786],[44.3161658,8.8958785],[44.3077492,8.8983971],[44.3068656,8.898706],[44.270414,8.9114478],[44.235265,8.9220376],[44.1501284,8.9501931],[44.1238136,8.9587537],[44.0629811,8.9788762],[44.0539709,8.9818599],[44.0326734,8.9890437],[44.0161782,8.9937649],[44.0064382,8.9955251],[43.9983881,8.9990716],[43.9966517,8.999778],[43.971644,9.026278],[43.9581024,9.0389638],[43.9509129,9.0450979],[43.9440309,9.0516324],[43.9396549,9.0561169],[43.9348035,9.0601421],[43.9148855,9.0796374],[43.8960953,9.1010904],[43.8805992,9.1170622],[43.8702942,9.1235529],[43.8622099,9.134172],[43.8405811,9.1583358],[43.8220081,9.1768204],[43.8034343,9.1954818],[43.7765133,9.2227324],[43.7645835,9.2340978],[43.7446118,9.2541263],[43.7024615,9.2972897],[43.6858295,9.313407],[43.6686286,9.3309322],[43.6598095,9.3404881],[43.6429276,9.3567568],[43.6319099,9.3561059],[43.61538,9.3567242],[43.6083174,9.358622],[43.5999138,9.3577062],[43.5931809,9.3588813],[43.5857757,9.3625123],[43.5795704,9.3651592],[43.5685938,9.3686609],[43.5634661,9.3705978],[43.5574651,9.3710649],[43.551497,9.3724717],[43.5436577,9.3766773],[43.5318606,9.3787856],[43.5178197,9.3811483],[43.5156989,9.3815052],[43.4944735,9.396336],[43.4863323,9.3990225],[43.4805029,9.4058824],[43.4635587,9.4157664],[43.4551203,9.4277782],[43.4500666,9.4355116],[43.4392087,9.447098],[43.4347454,9.4586167],[43.432245,9.4718043],[43.4311209,9.4742859],[43.4310285,9.4744924],[43.4139945,9.5125862],[43.4101642,9.5324139],[43.4056579,9.5450315],[43.3997997,9.5520162],[43.3786606,9.5647246],[43.3700058,9.5740585],[43.3667637,9.5767746],[43.3600646,9.5815895],[43.3520908,9.5864787],[43.3433117,9.5930577],[43.3301664,9.6017074],[43.3261344,9.6031493],[43.3223119,9.6034684],[43.3217598,9.6035145],[43.3159109,9.6032818],[43.2982271,9.6060745],[43.2862243,9.6736703],[43.2569505,9.8428969],[43.1825041,9.8824411],[43.1623616,9.890751],[43.1500369,9.8992399],[43.1453208,9.8989255],[43.1445662,9.8928889],[43.138341,9.8862864],[43.1291604,9.8862864],[43.1161824,9.8886598],[43.1088147,9.8920896],[43.1022698,9.8951363],[43.1018327,9.8954685],[43.1016085,9.8956389],[43.1013008,9.8958715],[43.0902762,9.9042515],[43.0861984,9.9080894],[43.0655694,9.9611012],[43.062451,9.9663784],[43.0358252,10.0337825],[43.0293487,10.0404989],[43.0247911,10.0510533],[43.0161557,10.0601684],[43.0084798,10.0721621],[42.9974456,10.0836759],[42.9736983,10.0932708],[42.9698603,10.1021461],[42.9576269,10.1143796],[42.9417953,10.1333295],[42.9125309,10.1618743],[42.8873443,10.1896995],[42.859727,10.2289648],[42.8552083,10.2396968],[42.832803,10.2779176],[42.8177444,10.318312],[42.8168394,10.320731],[42.8156695,10.3238579],[42.8051258,10.3517233],[42.7921345,10.4036885],[42.7631394,10.4564069],[42.7569262,10.4720341],[42.7471356,10.5119494],[42.7403575,10.5207986],[42.7324498,10.5266353],[42.7230358,10.5287063],[42.7198821,10.5336369],[42.708703,10.5780592],[42.7098797,10.6221873],[42.7189996,10.6474874],[42.7219414,10.6510176],[42.7384159,10.6763177],[42.7657753,10.7216226],[42.7972534,10.7628088],[42.8407931,10.8219404],[42.8549141,10.836944],[42.8693292,10.8607731],[42.875213,10.8704813],[42.9093387,10.9128443],[42.929985,10.9468917],[42.96164,10.98441],[42.967222,10.997222],[43.2280068,11.4119034],[43.2546296,11.4563717],[43.2546924,11.4564766],[43.2549194,11.4568557],[43.2553059,11.4575013],[43.2558086,11.4583409],[43.255872,11.4584469],[43.2560136,11.4586833],[43.2560983,11.4588248],[43.2562523,11.4590821],[43.2565916,11.4596486],[43.2569427,11.4602351],[43.2569738,11.4602871],[43.2573469,11.4609101],[43.2574443,11.4610728],[43.2700094,11.4946333],[43.3442521,11.6223286],[43.425311,11.711432],[43.4690538,11.7160828],[43.5075268,11.711735],[43.5444694,11.700291],[43.5785461,11.6821645],[43.5895062,11.6742468],[43.6174565,11.6495489],[43.6403334,11.6202153],[43.6558173,11.591455],[43.6662184,11.5612706],[43.6722045,11.5237431],[43.6713862,11.4995518],[43.6747776,11.4860759],[43.6828918,11.4748646],[43.6976137,11.4452143],[43.707212,11.4135855],[43.7114289,11.3808328],[43.7101525,11.3478409],[43.7049501,11.3226683],[43.7021122,11.314187],[43.7145471,11.3006815],[43.7289767,11.2795077],[43.735839,11.2672855],[43.7500758,11.2360007],[43.754058,11.2223024],[43.7688869,11.1963889],[43.7730047,11.1870353],[43.8013823,11.1495665],[43.8108485,11.133047],[43.8229418,11.108374],[43.8353098,11.0873305],[43.8641404,11.0534589],[43.9018947,11.0090972],[43.9454092,10.9620336],[44.0108503,10.8986479],[44.0336791,10.8784237],[44.05602,10.8600141],[44.088006,10.8358099],[44.1238645,10.81396],[44.1546865,10.7905372],[44.1735333,10.7801152],[44.1855481,10.7711466],[44.1914471,10.7667432],[44.2100934,10.7497179],[44.2283441,10.7294222],[44.2435602,10.7219365],[44.2613967,10.7111318],[44.3199783,10.6695676],[44.3890544,10.6069294],[44.3909736,10.6056484],[44.4113093,10.5979296],[44.441785,10.6015644],[44.4753937,10.599948],[44.4988685,10.5971798],[44.5400045,10.5895104],[44.5601466,10.5886431],[44.5818897,10.5845245],[44.6218241,10.5982817],[44.6392727,10.6024011],[44.6612255,10.6067333],[44.6745065,10.6079454],[44.7070699,10.6154712],[44.7469278,10.6194082],[44.7803269,10.6174139],[44.7873371,10.6161517],[44.8058074,10.6174573],[44.8454576,10.6148763],[44.8665589,10.6110462],[44.8901471,10.6256138],[44.9385833,10.6470439],[44.9529703,10.6601392],[44.9620267,10.6667879],[44.9792548,10.6782388],[44.9966163,10.6881329],[45.014347,10.6958665],[45.0339881,10.7025054],[45.0579762,10.7080967],[45.0719447,10.7097948],[45.0788859,10.7140345],[45.107706,10.7267956],[45.1285681,10.7509625],[45.1464191,10.7672918],[45.1613633,10.7864478],[45.1734413,10.7996674],[45.189451,10.8139142],[45.2082281,10.8279367],[45.2347888,10.8428285],[45.2586874,10.8521552],[45.2775833,10.8577389],[45.309249,10.8634467],[45.334667,10.8649718],[45.3893634,10.8612964],[45.401912,10.8678962],[45.4135947,10.8721613],[45.4265936,10.8809282],[45.4341578,10.8845885],[45.4507246,10.9040302],[45.4846279,10.9309442],[45.4917676,10.9353495],[45.5212144,10.9501922],[45.5497411,10.9594412],[45.5736655,10.9637925],[45.5853275,10.9726667],[45.6143097,10.9893458],[45.6199003,10.9957418],[45.6483174,11.019678],[45.6799225,11.0388101],[45.7145201,11.0519555],[45.767303,11.0661823],[45.8059172,11.0696387],[45.8395,11.0667937],[45.8721447,11.0585077],[45.9029538,11.0450087],[45.9299308,11.0274179],[45.9771513,11.010975],[45.990054,11.0056061],[46.0137566,10.9938448],[46.0447589,10.9750742],[46.0829415,10.9668764],[46.0947914,10.9655199],[46.1666755,10.980346],[46.2042498,10.9836583],[46.2198675,10.9831287],[46.2339988,10.9840544],[46.2665595,10.9813261],[46.2905658,10.9758935],[46.337605,10.9576629],[46.3611353,10.9447018],[46.3749112,10.9357987],[46.3958675,10.9200213],[46.4278053,10.8918763],[46.4569377,10.9039511],[46.4816316,10.9117602],[46.5498023,10.9264021],[46.5757923,10.9289261],[46.5981292,10.9420608],[46.6095026,10.9475845],[46.6182271,10.9535538],[46.6655598,10.9761747],[46.6691253,10.9778787],[46.7117701,11.003534],[46.7248232,11.0145494],[46.746018,11.0274924],[46.7741139,11.0524581],[46.7808714,11.056594],[46.790795,11.0672749],[46.8202962,11.0892549],[46.8533402,11.1055958],[46.875602,11.1119697],[46.919879,11.1411666],[46.9492047,11.1531632],[46.9655053,11.157276],[46.9770004,11.169422],[46.9889499,11.1876805],[47.0183789,11.2170597],[47.0318657,11.2269844],[47.0372123,11.267385],[47.0496297,11.301906],[47.067886,11.3331914],[47.0915267,11.3607437],[47.1026485,11.3715859],[47.12924,11.3923041],[47.1587636,11.4088581],[47.1908871,11.4211957],[47.2246613,11.4280052],[47.2591157,11.4290914],[47.2932604,11.4244235],[47.3261145,11.414136],[47.3567347,11.3985247],[47.3865482,11.3756183],[47.4155704,11.3782137],[47.4284524,11.3773728],[47.4669801,11.3814329],[47.5132259,11.3840909],[47.5412737,11.3830825],[47.5612819,11.3811438],[47.5935746,11.3741214],[47.6066864,11.3700948],[47.6305563,11.3604506],[47.6635493,11.3423876],[47.6893222,11.3234787],[47.7092728,11.3072199],[47.7093255,11.3071708],[47.7107633,11.307513],[47.7641409,11.3203629],[47.7978781,11.3228183],[47.8330511,11.3195406],[47.8498905,11.3159582],[47.8576498,11.3186442],[47.8881034,11.3254732],[47.9208301,11.3275495],[47.969991,11.321079],[47.9782093,11.3181714],[47.9911398,11.3187795],[48.0226477,11.3259992],[48.0739021,11.3296489],[48.083828,11.3387358],[48.0908728,11.3433817],[48.1066133,11.3578474],[48.1362096,11.3781175],[48.1605606,11.3903844],[48.2017308,11.4033821],[48.2173538,11.418882],[48.2412865,11.4365068],[48.2724114,11.4532313],[48.2899738,11.4600935],[48.3136643,11.4666986],[48.3318978,11.4736195],[48.3635685,11.481613],[48.4042432,11.485602],[48.4188907,11.4847547],[48.4483672,11.4973185],[48.4876766,11.5072871],[48.5096138,11.5101613],[48.537177,11.5117352],[48.5702862,11.5103818],[48.5909866,11.5163278],[48.599258,11.5172247],[48.6164925,11.5218895],[48.656361,11.5261119],[48.6879922,11.5239748],[48.7186536,11.5170948],[48.7641867,11.5020441],[48.7938613,11.4939853],[48.8118053,11.4902403],[48.8367661,11.4827108],[48.8946395,11.4606507],[48.9170997,11.4504895],[48.93961,11.4426599],[48.9175808,11.2419833],[48.9175835,11.2414099],[48.9178009,11.2390003],[48.9505005,11.1052303],[49.0017509,10.8955402],[49.0299988,10.7799997],[49.0348892,10.5696497],[49.0400009,10.3500004]]]}}]}
