{"type":"FeatureCollection","features":[{"type":"Feature","properties":{"place":"undof-zone","region":"area/undof-zone","donors":"SY;area/golan-heights","rank":2,"whose_line":"the 1974 Israel–Syria disengagement lines (UNDOF Lines A and B) as drawn by the US Department of State","publisher":"US Department of State, Office of the Geographer and Global Issues (World Polygons, high-resolution layer DoS_WP_11_4)","source_url":"https://data.geodata.state.gov/WorldPolygons.zip","version_or_date":"World Polygons 11.4 BETA, 2025-02-24; read 2026-10-04","feature_id":"DoS_WP_11_4 fid 303; 304","licence":"US government work, not subject to US copyright (17 U.S.C. § 105)","notes":"Union of DoS 'UNDOF Zone - Israel Sovereignty' and 'UNDOF Zone - Syria Sovereignty' (DoS splits the zone by its view of sovereignty; the union is the zone).","input_sha256":"55fab422ef09e35eb48d68141b9ece0ace86d4276dfe332a04dfd401c0bfc80c","operation":"union of the 2 source features","crs":"WGS84 longitude/latitude, as in the source (no reprojection)","source_features":[{"id":"DoS_WP_11_4 fid 303","WP_Name":"UNDOF Zone - Israel Sovereignty","WP_ID":"37973625-25f5-4d83-bf18-829036a11c03","Map_Label":null,"NOTES":null,"US_Recog":null,"Show_Disp":null,"GENC_3":"ISR"},{"id":"DoS_WP_11_4 fid 304","WP_Name":"UNDOF Zone - Syria Sovereignty","WP_ID":"f0399608-9767-4a07-b94c-d3ea9c98252a","Map_Label":"UNDOF Zone","NOTES":null,"US_Recog":null,"Show_Disp":null,"GENC_3":"SYR"}]},"geometry":{"type":"Polygon","coordinates":[[[35.75809700000008,32.74547910000007],[35.75952100000006,32.74686200000008],[35.761708000000056,32.74911700000007],[35.76498900000007,32.75260300000008],[35.76741500000003,32.755063000000064],[35.769944000000066,32.75776300000007],[35.77216500000003,32.76005200000003],[35.774181000000056,32.76223900000008],[35.77650500000004,32.76459700000004],[35.77941000000004,32.76767300000006],[35.78234800000007,32.770782000000054],[35.784741000000054,32.77320800000007],[35.78655100000003,32.775190000000066],[35.78938800000003,32.77782200000007],[35.79256600000008,32.78123900000003],[35.795026000000064,32.783768000000066],[35.79724700000003,32.78602300000006],[35.799776000000065,32.788688000000036],[35.802066000000025,32.79101200000002],[35.80479900000006,32.79398500000008],[35.807499000000064,32.79671900000005],[35.81064300000003,32.79999900000007],[35.81218000000007,32.80160600000005],[35.81477700000005,32.804305000000056],[35.81771700000007,32.807312000000024],[35.82106500000003,32.810798000000034],[35.823867000000064,32.81377100000003],[35.825815000000034,32.81578700000006],[35.82790000000006,32.818111000000044],[35.83036000000004,32.820708000000025],[35.83275200000003,32.82306600000004],[35.83497300000005,32.825458000000026],[35.83712600000007,32.82785000000007],[35.838801000000046,32.832395000000076],[35.84040700000003,32.837076000000025],[35.84163700000005,32.840562000000034],[35.843346000000054,32.845004000000074],[35.84447300000005,32.84835300000003],[35.845601000000045,32.85129200000006],[35.84652300000005,32.85388900000004],[35.84573700000004,32.860176000000024],[35.84488300000004,32.865815000000055],[35.844371000000024,32.87025700000004],[35.84604500000006,32.87490500000007],[35.84860800000007,32.881466000000046],[35.850317000000075,32.88655700000004],[35.85144400000007,32.89038500000004],[35.853084000000024,32.89315300000004],[35.85431500000004,32.895237000000066],[35.85657000000003,32.89827800000006],[35.858415000000036,32.90084100000007],[35.860671000000025,32.90367800000007],[35.86234500000006,32.90603500000003],[35.86425900000006,32.90890600000006],[35.86579700000004,32.911366000000044],[35.867710000000045,32.91430500000007],[35.86955500000005,32.91673100000003],[35.87160600000004,32.91946500000006],[35.87304100000006,32.921515000000056],[35.873725000000036,32.92257500000005],[35.87451000000004,32.923190000000034],[35.87642400000004,32.92424900000003],[35.87973900000003,32.92578700000007],[35.881857000000025,32.92688000000004],[35.884250000000065,32.92975100000007],[35.886573000000055,32.93279200000006],[35.88869200000005,32.935321000000044],[35.890640000000076,32.937850000000026],[35.893339000000026,32.94116400000007],[35.895321000000024,32.94379600000008],[35.896244000000024,32.945197000000064],[35.891152000000034,32.95141600000005],[35.888828000000046,32.95435500000008],[35.88705100000004,32.95650800000004],[35.88455700000003,32.95972000000006],[35.882404000000065,32.96238500000004],[35.88055900000006,32.96457200000003],[35.87833800000004,32.967306000000065],[35.876937000000055,32.97017600000004],[35.875331000000074,32.97318400000006],[35.872221000000025,32.97523400000006],[35.870922000000064,32.97817300000003],[35.86924800000003,32.98186300000003],[35.86815400000006,32.98473400000006],[35.867642000000046,32.98613500000005],[35.86753900000008,32.98907400000007],[35.86733400000003,32.99146600000006],[35.86654800000008,32.99539500000003],[35.866228000000035,32.99703600000004],[35.865680000000054,32.999225000000024],[35.86529000000007,33.00125700000007],[35.86482100000006,33.003055000000074],[35.86454700000007,33.004657000000066],[35.86431300000004,33.00653300000005],[35.86423400000007,33.009426000000076],[35.86400000000003,33.012357000000065],[35.863883000000044,33.01407700000004],[35.86364800000007,33.01552300000003],[35.86353100000008,33.01845400000008],[35.863492000000065,33.02044700000005],[35.86278900000008,33.02330000000006],[35.862280000000055,33.02607500000005],[35.86149900000004,33.02998400000007],[35.86071700000008,33.03397000000007],[35.860209000000054,33.03658900000005],[35.85966200000007,33.03952000000004],[35.859192000000064,33.04174800000004],[35.85876300000007,33.04436700000008],[35.85821500000003,33.04667200000006],[35.85786400000006,33.048939000000075],[35.85723800000005,33.05218300000007],[35.85669100000007,33.05476300000004],[35.85602700000004,33.05812400000008],[35.85555800000003,33.060313000000065],[35.85505000000006,33.062970000000064],[35.85473700000006,33.06426000000005],[35.854464000000064,33.06601900000004],[35.854385000000036,33.06769900000006],[35.85430700000006,33.069341000000065],[35.85430700000006,33.07043500000003],[35.85387700000007,33.07242900000006],[35.85329100000007,33.07438300000007],[35.852783000000045,33.07665000000003],[35.85215800000003,33.07926800000007],[35.85172800000004,33.08083200000004],[35.851571000000035,33.08282500000007],[35.85141500000003,33.084505000000036],[35.85129800000004,33.08622500000007],[35.851180000000056,33.08810100000005],[35.850790000000075,33.09017300000005],[35.85055500000004,33.09236100000004],[35.85028100000005,33.09384600000004],[35.850047000000075,33.095566000000076],[35.84981300000004,33.09744200000006],[35.849578000000065,33.099162000000035],[35.849461000000076,33.10076400000003],[35.84926500000006,33.102445000000046],[35.84707700000007,33.102836000000025],[35.84430200000003,33.10346100000004],[35.84234800000007,33.103852000000074],[35.84035400000005,33.10420400000004],[35.83910400000008,33.10447700000003],[35.837931000000026,33.10482900000005],[35.836524000000054,33.10529800000006],[35.83363200000008,33.106236000000024],[35.83148200000005,33.106979000000024],[35.82980200000003,33.107526000000064],[35.82698800000003,33.108464000000026],[35.82507300000003,33.109050000000025],[35.822610000000054,33.11002700000006],[35.81971800000008,33.11116100000004],[35.81655200000006,33.112450000000024],[35.81588800000003,33.11276300000003],[35.81120400000003,33.11480900000004],[35.80637000000007,33.11698400000006],[35.80667200000005,33.123752000000025],[35.80703500000004,33.130097000000035],[35.81338000000005,33.13209100000006],[35.82081500000004,33.134217000000035],[35.82103100000006,33.134502000000055],[35.822171000000026,33.13587000000007],[35.823037000000056,33.13751200000007],[35.82426900000007,33.139564000000064],[35.825545000000034,33.14138800000006],[35.82736900000003,33.14403200000004],[35.82933000000003,33.14667700000007],[35.83133600000008,33.14959500000003],[35.83284100000003,33.15169300000008],[35.834847000000025,33.15452000000005],[35.83762800000005,33.15839500000004],[35.839680000000044,33.16149600000006],[35.841094000000055,33.16345700000005],[35.84036400000008,33.166648000000066],[35.83945300000005,33.16979500000008],[35.83872300000007,33.17216600000006],[35.83772000000005,33.17608700000005],[35.836944000000074,33.180191000000036],[35.83626000000004,33.18393000000003],[35.83575900000005,33.18721300000004],[35.83548500000006,33.18903700000004],[35.83498400000008,33.19127100000003],[35.83471000000003,33.192548000000045],[35.83106200000003,33.194736000000034],[35.829421000000025,33.195557000000065],[35.826001000000076,33.196971000000076],[35.822718000000066,33.19833900000003],[35.82089400000007,33.19888600000007],[35.81788500000005,33.20034500000003],[35.816700000000026,33.20084600000007],[35.815149000000076,33.20143900000005],[35.812824000000035,33.202169000000026],[35.81250400000005,33.20581600000003],[35.81209400000006,33.20841500000006],[35.811866000000066,33.211516000000074],[35.811866000000066,33.21470800000003],[35.811547000000076,33.21616700000004],[35.81145600000008,33.21894800000007],[35.811319000000026,33.221821000000034],[35.811319000000026,33.22665400000005],[35.81145600000008,33.23176100000006],[35.81168400000007,33.23664000000008],[35.81163800000007,33.23910200000006],[35.81145600000008,33.243981000000076],[35.81118200000003,33.24589600000007],[35.81123300000007,33.24673000000007],[35.81119300000006,33.24791200000004],[35.809537000000034,33.248898000000054],[35.80744800000008,33.25004100000007],[35.805634000000055,33.25153900000004],[35.80386000000004,33.25303700000006],[35.80216500000006,33.254338000000075],[35.80039100000005,33.25575800000007],[35.79920800000008,33.25678300000004],[35.797158000000024,33.25796500000007],[35.795029000000056,33.25922700000007],[35.793176000000074,33.260331000000065],[35.790654000000075,33.26186800000005],[35.787618000000066,33.26376000000005],[35.78481900000003,33.26545600000003],[35.782729000000074,33.26675700000004],[35.780522000000076,33.26793900000007],[35.78020600000008,33.26817600000004],[35.77973300000008,33.26991000000004],[35.77910200000008,33.27200000000005],[35.77823500000005,33.275469000000044],[35.777644000000066,33.27822900000007],[35.780049000000076,33.280673000000036],[35.782256000000075,33.282999000000075],[35.78466100000003,33.28536400000007],[35.78682900000007,33.28757200000007],[35.789510000000064,33.29021400000005],[35.79163900000003,33.292342000000076],[35.79384700000003,33.29455000000007],[35.79605400000003,33.29683700000004],[35.79834100000005,33.29916300000008],[35.80011500000006,33.30089700000008],[35.801258000000075,33.302001000000075],[35.80252000000007,33.30377500000003],[35.80453000000006,33.30641700000007],[35.80626500000005,33.30870300000004],[35.80792100000008,33.311029000000076],[35.81032600000003,33.31402500000007],[35.811469000000045,33.315720000000056],[35.80969500000003,33.31666700000005],[35.80673800000005,33.31800700000008],[35.80401800000004,33.319308000000035],[35.801889000000074,33.32013600000005],[35.79656700000004,33.32246200000003],[35.79195400000003,33.32451200000003],[35.787933000000066,33.32616800000005],[35.78442400000006,33.32774500000005],[35.77496300000007,33.33196300000003],[35.773514000000034,33.33262600000006],[35.77395100000007,33.33306700000003],[35.77415600000006,33.333394000000055],[35.774534000000074,33.333882000000074],[35.77508100000006,33.33399300000008],[35.775473000000034,33.33400800000004],[35.77634800000004,33.333935000000054],[35.777139000000034,33.33377200000007],[35.777667000000065,33.333589000000075],[35.778065000000026,33.33353600000004],[35.778474000000074,33.33370200000007],[35.778973000000065,33.33442700000006],[35.77948500000008,33.33453500000007],[35.78007700000006,33.33455200000003],[35.78043500000007,33.33461200000005],[35.780624000000046,33.33514400000007],[35.78078700000003,33.335402000000045],[35.781085000000076,33.33532800000006],[35.78157900000008,33.33528600000005],[35.781836000000055,33.33536400000003],[35.78228100000007,33.33536000000004],[35.78280100000006,33.335236000000066],[35.78334700000005,33.335079000000064],[35.783764000000076,33.33496500000007],[35.78461400000003,33.33510800000005],[35.78523700000005,33.335416000000066],[35.78575200000006,33.335582000000045],[35.78668200000004,33.33567100000005],[35.78768500000007,33.33568100000008],[35.78934300000003,33.33572400000003],[35.79055500000004,33.33572400000003],[35.791329000000076,33.335717000000045],[35.79165900000004,33.33598400000005],[35.79209000000003,33.33640400000007],[35.79242000000005,33.33649800000006],[35.79324200000008,33.33671300000003],[35.793454000000054,33.33763400000004],[35.79367300000007,33.338411000000065],[35.79418300000003,33.338892000000044],[35.79475400000007,33.33943000000005],[35.79577800000004,33.33996100000007],[35.796485000000075,33.34065000000004],[35.797199000000035,33.34081900000007],[35.79810100000003,33.34161100000006],[35.79908500000005,33.34217000000007],[35.80055100000004,33.342741000000046],[35.80106100000006,33.34322600000007],[35.802130000000034,33.343470000000025],[35.802542000000074,33.34367400000008],[35.80317500000007,33.344535000000064],[35.80415300000004,33.34525400000007],[35.80517500000008,33.34586600000006],[35.806047000000035,33.34636500000005],[35.80659700000007,33.34700200000003],[35.80707800000005,33.34783200000004],[35.80796600000008,33.34838800000006],[35.80902200000003,33.34913300000005],[35.80989800000003,33.34937200000007],[35.811074000000076,33.34965600000004],[35.81163900000007,33.350171000000046],[35.811585000000036,33.35042000000004],[35.811094000000026,33.35082900000003],[35.81099500000005,33.351365000000044],[35.81103100000007,33.35177700000003],[35.81149400000004,33.352171000000055],[35.81235400000003,33.35207400000007],[35.813244000000054,33.35209200000003],[35.814361000000076,33.35178900000005],[35.815487000000076,33.35170400000004],[35.816482000000065,33.35194100000007],[35.81726100000003,33.35235800000004],[35.81804000000005,33.35295400000007],[35.818512000000055,33.35402400000004],[35.819177000000025,33.35491900000005],[35.81951200000003,33.356652000000054],[35.819859000000065,33.35788500000007],[35.82043300000004,33.35943400000008],[35.82056600000004,33.360307000000034],[35.82025300000004,33.36158000000006],[35.819638000000054,33.36306700000006],[35.81945100000007,33.36399800000004],[35.81955800000003,33.36513400000007],[35.81944900000008,33.36563200000006],[35.81864000000007,33.366656000000035],[35.81729300000006,33.367522000000065],[35.81672000000003,33.36792000000003],[35.81603000000007,33.368490000000065],[35.81565000000006,33.36895000000004],[35.81557000000004,33.36981000000003],[35.815900000000056,33.37088000000006],[35.816220000000044,33.37166000000008],[35.816140000000075,33.37235000000004],[35.81627000000003,33.37295000000006],[35.81635000000006,33.37373000000008],[35.81711000000007,33.37495000000007],[35.81738000000007,33.375620000000026],[35.81764000000004,33.376360000000034],[35.81786000000005,33.37728000000004],[35.818520000000035,33.378300000000024],[35.819290000000024,33.379710000000046],[35.819390000000055,33.38101000000006],[35.819000000000074,33.381740000000036],[35.81857000000008,33.382930000000044],[35.819120000000055,33.38457000000005],[35.819360000000074,33.38555000000002],[35.819480000000055,33.38655000000006],[35.820070000000044,33.38770000000005],[35.82050000000004,33.388360000000034],[35.82087000000007,33.38895000000008],[35.82163000000003,33.390030000000024],[35.82197000000008,33.391140000000064],[35.82232000000005,33.39206000000007],[35.823180000000036,33.39321000000007],[35.824200000000076,33.39438000000007],[35.82531000000006,33.39548000000008],[35.82635000000005,33.39661000000007],[35.827440000000024,33.39758000000006],[35.828850000000045,33.39856000000003],[35.83000000000004,33.39915000000008],[35.83122000000003,33.39949000000007],[35.831560000000025,33.39969000000008],[35.83220000000006,33.40039000000007],[35.833290000000034,33.40082000000007],[35.83463000000006,33.401200000000074],[35.83555000000007,33.401770000000056],[35.83657000000005,33.40256000000005],[35.83766000000003,33.40324000000004],[35.839000000000055,33.40389000000005],[35.839530000000025,33.40417000000008],[35.84098000000006,33.40482000000003],[35.841950000000054,33.40563000000003],[35.84297000000004,33.406330000000025],[35.84342000000004,33.40701000000007],[35.84451000000007,33.40778000000006],[35.84478000000007,33.40882000000005],[35.84519000000006,33.409620000000075],[35.84554000000003,33.41074000000003],[35.845800000000054,33.412010000000066],[35.84633000000008,33.412750000000074],[35.847830000000044,33.41336000000007],[35.84887000000003,33.41348000000005],[35.850370000000055,33.41292000000004],[35.85161000000005,33.41267000000005],[35.853260000000034,33.41346000000004],[35.85426000000007,33.41405000000003],[35.85539000000006,33.413500000000056],[35.85681000000005,33.41388000000006],[35.857120000000066,33.41461000000004],[35.85710000000006,33.41542000000004],[35.85728000000006,33.41613000000007],[35.85891000000004,33.41703000000007],[35.86012000000005,33.41749000000004],[35.86224000000004,33.41792000000004],[35.86411000000004,33.41819000000004],[35.865230000000054,33.41927000000004],[35.866570000000024,33.41928000000007],[35.869080000000054,33.419800000000066],[35.87029000000007,33.42032000000006],[35.87096890000004,33.420496300000025],[35.871042000000045,33.42010400000004],[35.87118900000007,33.41957300000007],[35.87139600000006,33.418656000000055],[35.87151400000005,33.41791800000004],[35.87181000000004,33.41691300000008],[35.87201600000003,33.41564200000005],[35.87225300000006,33.41434200000003],[35.872401000000025,33.413042000000075],[35.872460000000046,33.411298000000045],[35.872460000000046,33.41050000000007],[35.872460000000046,33.40961400000003],[35.872164000000055,33.40878600000008],[35.871721000000036,33.40745700000008],[35.87151400000005,33.40665900000005],[35.87113000000005,33.40574300000003],[35.870805000000075,33.40488600000003],[35.87036200000006,33.40411700000004],[35.86971200000005,33.40323100000006],[35.86918000000003,33.40246200000007],[35.86847000000006,33.40166500000004],[35.86787900000007,33.40086700000006],[35.86687500000005,33.400010000000066],[35.86584000000005,33.399005000000045],[35.86489500000005,33.39835500000004],[35.86424500000004,33.39770500000003],[35.86329900000004,33.39696600000008],[35.86267800000007,33.39646400000004],[35.86185100000006,33.39584300000007],[35.86037300000004,33.394809000000066],[35.85871800000007,33.39362700000004],[35.85718200000008,33.39253300000007],[35.855616000000055,33.39123300000006],[35.85407900000007,33.39019900000005],[35.85266100000007,33.38922300000007],[35.85168500000003,33.388366000000076],[35.85023700000005,33.38739100000004],[35.84905500000008,33.38662300000004],[35.84790300000003,33.38585500000005],[35.84692800000005,33.38487900000007],[35.845893000000046,33.384082000000035],[35.84483000000006,33.38304700000003],[35.843943000000024,33.38224900000006],[35.843057000000044,33.381215000000054],[35.84219900000005,33.38035800000006],[35.84143100000006,33.379383000000075],[35.84087000000005,33.378437000000076],[35.84010100000006,33.377196000000026],[35.839451000000054,33.37589600000007],[35.83912600000008,33.375068000000056],[35.838771000000065,33.37409300000007],[35.83832800000005,33.373177000000055],[35.83785500000005,33.372172000000035],[35.837590000000034,33.37131500000004],[35.837146000000075,33.37013300000007],[35.836910000000046,33.36909900000006],[35.836614000000054,33.36836000000005],[35.83631900000006,33.36765100000002],[35.83602300000007,33.36688300000003],[35.83575700000006,33.36596700000007],[35.83558000000005,33.36505100000005],[35.835432000000026,33.36422300000004],[35.83516600000007,33.36292300000002],[35.83510700000005,33.36194800000004],[35.83504800000003,33.360352000000034],[35.83493000000004,33.359613000000024],[35.83490000000006,33.35881500000005],[35.834782000000075,33.35757400000006],[35.834782000000075,33.35648100000003],[35.834782000000075,33.35547600000007],[35.83481100000006,33.35435300000006],[35.83493000000004,33.35340800000006],[35.83493000000004,33.35255100000006],[35.83507800000007,33.35130900000007],[35.835255000000075,33.35033400000003],[35.835728000000074,33.34912300000008],[35.83593500000006,33.348059000000035],[35.836141000000055,33.34678800000006],[35.836348000000044,33.345458000000065],[35.83652500000005,33.344719000000055],[35.836910000000046,33.343833000000075],[35.837087000000054,33.343094000000065],[35.837353000000064,33.34223700000007],[35.83767800000004,33.341026000000056],[35.83800300000007,33.34016900000006],[35.83835800000003,33.33922300000006],[35.838712000000044,33.33827700000006],[35.83918500000004,33.33724300000006],[35.83962900000006,33.33615000000003],[35.84004200000004,33.334997000000044],[35.84051500000004,33.33396300000004],[35.84095800000006,33.33298800000006],[35.841608000000065,33.33180600000003],[35.842052000000024,33.33094900000003],[35.842524000000026,33.33015100000006],[35.84323400000005,33.328791000000024],[35.843972000000065,33.32740200000006],[35.84459300000003,33.326280000000054],[35.84503600000005,33.32515700000005],[35.845657000000074,33.324063000000024],[35.84598200000005,33.32311800000008],[35.846366000000046,33.32214200000004],[35.84660300000007,33.321285000000046],[35.84692800000005,33.32031000000006],[35.847282000000064,33.31915800000007],[35.84763700000008,33.31841900000006],[35.84781400000003,33.317562000000066],[35.84816900000004,33.31599600000004],[35.848257000000046,33.315109000000064],[35.84849400000007,33.31339500000007],[35.848583000000076,33.31233100000003],[35.84878900000007,33.31123800000006],[35.84884900000003,33.31023300000004],[35.84884900000003,33.30902200000003],[35.84884900000003,33.308253000000036],[35.84884900000003,33.307071000000064],[35.84884900000003,33.30600700000008],[35.84881900000005,33.30523900000003],[35.84881900000005,33.30441200000007],[35.84881900000005,33.303702000000044],[35.84864200000004,33.30287500000003],[35.84837600000003,33.30172300000004],[35.84822800000006,33.30077700000004],[35.84805000000006,33.29944700000004],[35.84763700000008,33.29864900000007],[35.847282000000064,33.29782200000005],[35.84695700000003,33.29702400000008],[35.84654400000005,33.29610800000006],[35.84601100000003,33.29528000000005],[35.845627000000036,33.294571000000076],[35.84497700000003,33.29395100000005],[35.844209000000035,33.29312300000004],[35.84323400000005,33.29232500000006],[35.842052000000024,33.29152700000003],[35.840426000000036,33.290670000000034],[35.838978000000054,33.29002000000003],[35.83770800000008,33.28942900000004],[35.836673000000076,33.288838000000055],[35.83466400000003,33.28798100000006],[35.83327500000007,33.28739000000007],[35.83182700000003,33.28682900000007],[35.83034900000007,33.286208000000045],[35.82937400000003,33.285765000000026],[35.82801500000005,33.285262000000046],[35.826478000000066,33.28481900000003],[35.825473000000045,33.28422800000004],[35.82449800000006,33.28381400000006],[35.82375900000005,33.283371000000045],[35.82316800000007,33.282898000000046],[35.82245900000004,33.28245500000003],[35.82228200000003,33.281953000000044],[35.82228200000003,33.28136200000006],[35.82228200000003,33.28088900000006],[35.82234100000005,33.28035700000004],[35.82251800000006,33.279855000000055],[35.822962000000075,33.27941100000004],[35.82352300000008,33.27902700000004],[35.82402600000006,33.27876100000003],[35.825060000000065,33.27855400000004],[35.82630100000006,33.27828800000003],[35.827867000000026,33.27828800000003],[35.830054000000075,33.27834800000005],[35.83232900000007,33.27849500000008],[35.835285000000056,33.27876100000003],[35.83776700000004,33.27902700000004],[35.84013100000004,33.279175000000066],[35.84270200000003,33.279175000000066],[35.84391300000004,33.27905700000008],[35.84506600000003,33.27882000000005],[35.846366000000046,33.27855400000004],[35.847519000000034,33.278170000000046],[35.84908500000006,33.27746100000007],[35.85026700000003,33.27704700000004],[35.85168500000003,33.27619000000004],[35.85328100000004,33.275333000000046],[35.85402000000005,33.27489000000003],[35.85458100000005,33.27435800000006],[35.85526100000004,33.27367900000007],[35.855763000000024,33.27302800000007],[35.85620700000004,33.272024000000044],[35.85670900000008,33.27110800000003],[35.85712300000006,33.26948200000004],[35.85765500000008,33.26788600000003],[35.858246000000065,33.26646800000003],[35.85833400000007,33.26543400000003],[35.85857100000004,33.263986000000045],[35.85907300000008,33.26197600000006],[35.85951600000004,33.259967000000074],[35.85981200000003,33.258223000000044],[35.86001900000008,33.25656800000007],[35.86049200000008,33.253791000000035],[35.86090500000006,33.250717000000066],[35.861289000000056,33.24876700000004],[35.861762000000056,33.24684600000006],[35.861815000000036,33.24590200000006],[35.862171000000046,33.24505800000003],[35.86310400000008,33.24221300000005],[35.86412700000005,33.23919100000006],[35.865504000000044,33.23536800000005],[35.866660000000024,33.232924000000025],[35.868171000000075,33.22967900000003],[35.86919400000005,33.227723000000026],[35.870971000000054,33.225145000000055],[35.87283800000006,33.222390000000075],[35.87408300000004,33.220612000000074],[35.875549000000035,33.21878900000007],[35.87670500000007,33.217234000000076],[35.87803800000006,33.215678000000025],[35.87923900000004,33.21412200000003],[35.87999400000007,33.21332200000006],[35.88079400000004,33.212256000000025],[35.88270600000004,33.21038900000008],[35.88492800000006,33.208255000000065],[35.886839000000066,33.206522000000064],[35.88915100000003,33.20429900000005],[35.891151000000036,33.202166000000034],[35.89217300000007,33.20101000000005],[35.89301700000004,33.19954400000006],[35.893151000000046,33.19852100000003],[35.893328000000054,33.19718800000004],[35.89319500000005,33.19665500000008],[35.89328400000005,33.19616600000006],[35.89244000000008,33.19443200000006],[35.89181700000006,33.19301000000007],[35.89043900000007,33.19145400000008],[35.88915100000003,33.190387000000044],[35.88786100000004,33.18909800000006],[35.886884000000066,33.188165000000026],[35.88612800000004,33.18723200000005],[35.88497200000006,33.18598700000007],[35.883906000000025,33.18465400000008],[35.88279400000005,33.18318700000003],[35.88279400000005,33.18149800000003],[35.883417000000065,33.18007600000004],[35.884217000000035,33.17927600000007],[35.88555000000008,33.17820900000004],[35.88666200000006,33.17736400000007],[35.88772800000004,33.17687500000005],[35.888884000000076,33.17647500000004],[35.89008400000006,33.17629800000003],[35.891151000000036,33.17616400000003],[35.89257300000003,33.17629800000003],[35.89301700000004,33.17647500000004],[35.89457300000004,33.177320000000066],[35.89581800000008,33.17794200000003],[35.896840000000054,33.17874200000006],[35.89804000000004,33.17972000000003],[35.89928500000008,33.18038700000005],[35.90052900000006,33.180787000000066],[35.901996000000054,33.18096500000007],[35.903062000000034,33.18096500000007],[35.90412900000007,33.18003100000004],[35.90595200000007,33.17834200000004],[35.907463000000064,33.17625300000003],[35.90844100000004,33.17514200000005],[35.90933000000007,33.17345300000005],[35.91075200000006,33.17065300000007],[35.91244100000006,33.167230000000075],[35.91417500000006,33.16545200000007],[35.91630800000007,33.162874000000045],[35.91790800000007,33.16069600000003],[35.91768600000006,33.159096000000034],[35.91724100000005,33.15682900000007],[35.916619000000026,33.15402900000004],[35.916086000000064,33.15136200000006],[35.91573000000005,33.14976200000007],[35.91528600000004,33.14762900000005],[35.91461900000007,33.14500600000002],[35.91417500000006,33.14300600000007],[35.91341900000003,33.13949500000007],[35.912708000000066,33.13611700000007],[35.912397000000055,33.13411700000006],[35.91213000000005,33.13296100000008],[35.90990700000003,33.13211700000005],[35.90715200000005,33.131139000000076],[35.90386300000006,33.130161000000044],[35.90075100000007,33.129139000000066],[35.89817300000004,33.12829400000004],[35.89524000000006,33.12691600000005],[35.89444000000003,33.12558300000006],[35.89417300000008,33.12451600000003],[35.89386200000007,33.122960000000035],[35.89390700000007,33.121627000000046],[35.89408400000008,33.12056000000007],[35.89444000000003,33.11944900000003],[35.89497300000005,33.11793800000004],[35.89537300000006,33.11731600000007],[35.89577300000008,33.11678200000006],[35.89666200000005,33.11629300000004],[35.897196000000065,33.11598200000003],[35.90035100000006,33.11540400000007],[35.90524000000005,33.11478200000005],[35.905463000000054,33.11264900000003],[35.90595200000007,33.10815900000006],[35.90475200000003,33.10820400000006],[35.89866200000006,33.10784800000005],[35.89395100000007,33.10798100000005],[35.88755000000003,33.10815900000006],[35.881950000000074,33.10798100000005],[35.87594900000005,33.10767000000004],[35.86981600000007,33.10740400000003],[35.86879300000004,33.10469200000006],[35.868393000000026,33.10255900000004],[35.86852700000003,33.09975900000006],[35.868438000000026,33.09558100000004],[35.86848200000003,33.093714000000034],[35.86808200000007,33.09020300000003],[35.86768200000006,33.08842500000003],[35.86741600000005,33.08611300000007],[35.86706000000004,33.08349100000004],[35.86679300000003,33.08184600000004],[35.86683800000003,33.08073500000006],[35.86719300000004,33.079135000000065],[35.86834900000008,33.07593500000007],[35.86946000000006,33.073357000000044],[35.86946000000006,33.07211200000006],[35.869638000000066,33.069934000000046],[35.86981600000007,33.067623000000026],[35.869905000000074,33.066467000000046],[35.869905000000074,33.06491200000005],[35.86972700000007,33.062734000000034],[35.86950500000006,33.06086700000003],[35.869683000000066,33.059267000000034],[35.86959400000006,33.057578000000035],[35.86972700000007,33.05624500000005],[35.869905000000074,33.05522200000007],[35.87021600000003,33.05388900000003],[35.87039400000003,33.052778000000046],[35.87052700000004,33.05166600000007],[35.87119400000006,33.04922200000004],[35.871683000000075,33.04708800000003],[35.87226000000004,33.04482100000007],[35.872749000000056,33.04282100000006],[35.87341600000008,33.040332000000035],[35.874172000000044,33.03797700000007],[35.874172000000044,33.037221000000045],[35.87421600000005,33.03593200000006],[35.87435000000005,33.034687000000076],[35.87466100000006,33.03157600000003],[35.87501600000007,33.029220000000066],[35.875283000000024,33.02668700000004],[35.87563800000004,33.02415300000007],[35.875860000000046,33.020864000000074],[35.87603800000005,33.01913100000007],[35.87635000000006,33.01708600000006],[35.87666100000007,33.01473000000004],[35.876794000000075,33.013397000000055],[35.87710500000003,33.012241000000074],[35.87710500000003,33.01126400000004],[35.87710500000003,33.010241000000065],[35.877016000000026,33.009041000000025],[35.876839000000075,33.007397000000026],[35.87652700000007,33.005130000000065],[35.87643900000006,33.00335200000006],[35.87652700000007,33.00206300000008],[35.87675000000007,32.999663000000055],[35.87692800000008,32.996996000000024],[35.876971000000026,32.99532700000003],[35.87710800000008,32.99331100000006],[35.87755200000004,32.99273000000005],[35.87813300000005,32.99214900000004],[35.878611000000035,32.99184200000008],[35.879841000000056,32.991363000000035],[35.88264300000003,32.990406000000064],[35.88619700000004,32.98958600000003],[35.88910200000004,32.98886900000008],[35.89245100000005,32.98804800000005],[35.894877000000065,32.98733100000004],[35.89774700000004,32.986203000000046],[35.90044700000004,32.98531500000007],[35.90277100000003,32.98415300000005],[35.90468400000003,32.98326400000008],[35.90547000000004,32.982718000000034],[35.90666600000003,32.98165800000004],[35.90854600000006,32.98029100000008],[35.909913000000074,32.97902700000003],[35.91107500000004,32.97800200000006],[35.91257800000005,32.97666900000007],[35.91425300000003,32.975951000000066],[35.916337000000055,32.97475500000007],[35.91913900000003,32.97287600000004],[35.92262500000004,32.97075700000005],[35.926008000000024,32.96843400000006],[35.92436800000007,32.96556300000003],[35.92252200000007,32.96303400000005],[35.920267000000024,32.959583000000066],[35.91958400000004,32.95825000000008],[35.91842100000008,32.95572200000004],[35.91739700000005,32.953193000000056],[35.91452600000008,32.94765700000005],[35.91329600000006,32.94649500000003],[35.91138200000006,32.944650000000024],[35.90881900000005,32.942053000000044],[35.90666600000003,32.939832000000024],[35.90509400000008,32.93826000000007],[35.90307800000005,32.93614100000008],[35.900686000000064,32.934056000000055],[35.898397000000045,32.93197200000003],[35.89665400000007,32.93036600000005],[35.89412500000003,32.92831600000005],[35.89060500000005,32.92517200000003],[35.888521000000026,32.92346300000003],[35.88811100000004,32.92291600000004],[35.88630000000006,32.92021700000004],[35.88438600000006,32.91690200000005],[35.88226700000007,32.913963000000024],[35.880490000000066,32.911264000000074],[35.878543000000036,32.90866700000004],[35.876356000000044,32.90586500000006],[35.87526200000008,32.90408800000006],[35.873519000000044,32.90214000000003],[35.87157200000007,32.899714000000074],[35.87058100000007,32.89831300000003],[35.87006800000006,32.89735600000006],[35.86842800000005,32.894588000000056],[35.866787000000045,32.89233200000007],[35.865387000000055,32.890521000000035],[35.86432700000006,32.888949000000025],[35.86316500000004,32.887343000000044],[35.86217400000004,32.88522500000005],[35.86111500000004,32.883038000000056],[35.85978200000005,32.880304000000024],[35.859304000000066,32.87856100000005],[35.85821000000004,32.874802000000045],[35.856741000000056,32.86988100000008],[35.85561300000006,32.86653200000006],[35.85431500000004,32.862022000000024],[35.85260600000004,32.856486000000075],[35.85188800000003,32.85375200000004],[35.85082900000003,32.84961700000002],[35.849394000000075,32.84476500000005],[35.848471000000075,32.84107400000005],[35.84795900000006,32.839263000000074],[35.84713900000003,32.83622200000008],[35.84635300000008,32.833454000000074],[35.846250000000055,32.83102800000006],[35.84611300000006,32.82904600000006],[35.84580600000004,32.82566300000008],[35.84546400000005,32.82060500000006],[35.84447300000005,32.81951200000003],[35.842457000000024,32.81732500000004],[35.840543000000025,32.81544500000007],[35.839176000000066,32.813702000000035],[35.83733100000006,32.81172000000004],[35.836204000000066,32.81049000000007],[35.83418700000004,32.80833700000005],[35.831522000000064,32.80560400000007],[35.82882300000006,32.802631000000076],[35.82786600000003,32.801503000000025],[35.82666900000004,32.80010200000004],[35.82434600000005,32.79764200000005],[35.823731000000066,32.79545500000006],[35.823184000000026,32.79313100000007],[35.82294500000006,32.79292600000008],[35.82202200000006,32.79237900000004],[35.82068900000007,32.79162700000006],[35.818639000000076,32.79036300000007],[35.81546100000003,32.788586000000066],[35.812317000000064,32.78674100000006],[35.80883200000005,32.784827000000064],[35.80722600000007,32.783870000000036],[35.80459500000006,32.78240100000005],[35.80162100000007,32.780692000000045],[35.798785000000066,32.779120000000034],[35.79799900000006,32.778676000000075],[35.79622200000006,32.777685000000076],[35.794377000000054,32.776557000000025],[35.79318100000006,32.77573700000005],[35.79232600000006,32.77515600000004],[35.79143800000003,32.77437000000003],[35.79027600000006,32.77320800000007],[35.78890900000005,32.77208100000007],[35.78761100000003,32.77068000000003],[35.78648300000003,32.76951800000006],[35.784501000000034,32.767502000000036],[35.781494000000066,32.76452900000004],[35.778248000000076,32.76128300000005],[35.77701700000006,32.75977900000004],[35.77565100000004,32.758583000000044],[35.773532000000046,32.75643000000008],[35.77120800000006,32.75414000000006],[35.76898700000004,32.751851000000045],[35.76662900000008,32.74952700000006],[35.764215000000036,32.74704800000006],[35.763217000000054,32.74616800000007],[35.76260000000008,32.74604800000003],[35.76217100000008,32.74596500000007],[35.76127500000007,32.74570900000003],[35.76074100000005,32.74553000000003],[35.76016500000003,32.74544000000003],[35.75922300000008,32.74542900000006],[35.75865700000003,32.74537200000003],[35.758301000000074,32.74530900000008],[35.75778290000005,32.74521620000007],[35.75809700000008,32.74547910000007]]]}}]}
