{"type":"FeatureCollection","features":[{"type":"Feature","properties":{"place":"wake","region":"UM","donors":"","rank":2,"whose_line":"the coastline (uncontested), as drawn by the US Department of State","publisher":"US Department of State, Office of the Geographer and Global Issues (World Polygons, high-resolution layer DoS_WP_11_4)","source_url":"https://data.geodata.state.gov/WorldPolygons.zip","version_or_date":"World Polygons 11.4 BETA, 2025-02-24; read 2026-10-04","feature_id":"DoS_WP_11_4 fid 317","licence":"US government work, not subject to US copyright (17 U.S.C. § 105)","notes":"The United States administers Wake; DoS ranked 2 as for Guantanamo.","input_sha256":"55fab422ef09e35eb48d68141b9ece0ace86d4276dfe332a04dfd401c0bfc80c","operation":"none (the source feature's geometry as published)","crs":"WGS84 longitude/latitude, as in the source (no reprojection)","source_features":[{"id":"DoS_WP_11_4 fid 317","WP_Name":"Wake Island","WP_ID":"6352c5b1-585b-41ac-b5e7-a33d8b145b43","Map_Label":"Wake Island (U.S.)","NOTES":null,"US_Recog":"Dependency or Area of Special Sovereignty","Show_Disp":null,"GENC_3":"XWK"}]},"geometry":{"type":"MultiPolygon","coordinates":[[[[166.64804090000007,19.302396500000043],[166.64827890000004,19.300611900000035],[166.6489213000001,19.298446600000034],[166.64958760000002,19.29701890000007],[166.65011100000004,19.295924300000024],[166.6508725000001,19.294615600000043],[166.6518718000001,19.293021400000043],[166.6529902000001,19.290784700000074],[166.65339470000004,19.28895250000005],[166.6536089000001,19.287976900000046],[166.65348990000007,19.285074000000066],[166.6535851000001,19.28257560000003],[166.65365640000005,19.280077100000028],[166.65410850000012,19.27755490000004],[166.65479860000005,19.27555620000004],[166.65546480000012,19.273866700000042],[166.65615490000005,19.272415300000034],[166.6567973000001,19.27079720000006],[166.65720180000005,19.270440300000075],[166.65691630000003,19.270250000000033],[166.65667840000003,19.270035800000073],[166.65603590000012,19.269893000000025],[166.65551240000002,19.270035800000073],[166.6546082000001,19.270487900000035],[166.65401340000005,19.270892400000037],[166.65337090000003,19.271368300000063],[166.65294260000007,19.271368300000063],[166.65237150000007,19.271511100000055],[166.6516577000001,19.271749000000057],[166.6511104000001,19.272201100000075],[166.6503728,19.272534200000052],[166.64911170000005,19.27315290000007],[166.64761260000012,19.273842900000034],[166.64687500000002,19.274152300000026],[166.64578040000004,19.274342600000068],[166.64501900000005,19.274699600000076],[166.64418620000004,19.27491370000007],[166.64337720000003,19.275461000000064],[166.64254440000002,19.275936900000033],[166.64178290000007,19.276317600000027],[166.64097390000006,19.276531700000078],[166.64018870000007,19.277198000000055],[166.63928450000003,19.277673900000025],[166.63816610000003,19.278102200000035],[166.63716680000005,19.278554300000053],[166.63638160000005,19.278768400000047],[166.63578670000004,19.279101600000047],[166.63533460000008,19.27957740000005],[166.63385930000004,19.28019610000007],[166.63200330000006,19.28081480000003],[166.63093260000005,19.28110030000005],[166.63030690000005,19.281336400000043],[166.6291648,19.281931300000053],[166.62821300000007,19.28243100000003],[166.6271422000001,19.28288310000005],[166.6258097000001,19.283263800000043],[166.62447720000011,19.28345420000005],[166.62409650000006,19.28362070000003],[166.62304960000006,19.284120400000063],[166.6225975000001,19.28397760000007],[166.6215505,19.28431080000007],[166.62047970000003,19.28464390000005],[166.61924240000008,19.285143600000026],[166.61831440000003,19.285714600000063],[166.61776720000012,19.286333300000024],[166.61679160000006,19.287189900000044],[166.61574460000008,19.288046500000064],[166.6149832000001,19.288665200000025],[166.61457870000004,19.28871280000004],[166.61407900000006,19.288665200000025],[166.61396000000002,19.28883170000006],[166.61407900000006,19.289022100000068],[166.61479280000003,19.289355200000045],[166.6152211000001,19.289688300000023],[166.61626810000007,19.29004530000003],[166.61700570000005,19.290402200000074],[166.61755300000004,19.290663900000027],[166.61786230000007,19.29059250000006],[166.61826680000001,19.29033080000005],[166.61857620000012,19.290116600000033],[166.61881410000012,19.290021500000023],[166.61893310000005,19.289926300000047],[166.61898070000007,19.28966450000007],[166.61924240000008,19.28940280000006],[166.61950420000005,19.289545600000054],[166.61943280000003,19.28987870000003],[166.6190997000001,19.290402200000074],[166.6187427000001,19.290854300000035],[166.61860000000001,19.291282600000045],[166.61812410000005,19.29163950000003],[166.61750540000003,19.291877400000033],[166.6171485000001,19.29175850000007],[166.61733890000005,19.291615700000023],[166.61695810000003,19.29123500000003],[166.61664880000012,19.290878100000043],[166.61593500000004,19.29033080000005],[166.61517350000008,19.290092900000047],[166.6143883000001,19.289688300000023],[166.61369830000012,19.28947420000003],[166.6130796000001,19.28947420000003],[166.61272270000006,19.289617000000078],[166.61255610000012,19.289854900000023],[166.6122944000001,19.29014040000004],[166.61181850000003,19.290235600000074],[166.61129500000004,19.290402200000074],[166.6109381000001,19.29073530000005],[166.6106288000001,19.29099700000006],[166.6107002000001,19.29133020000006],[166.61050980000005,19.291377800000078],[166.61027190000004,19.291377800000078],[166.6103432000001,19.291544300000055],[166.6101767,19.291687100000047],[166.60962940000002,19.29180610000003],[166.60891560000005,19.292305800000065],[166.60832070000004,19.292591300000026],[166.60765440000011,19.29299580000003],[166.60720230000004,19.293471700000055],[166.606893,19.293876200000057],[166.60620300000005,19.29401900000005],[166.6054415000001,19.29497070000002],[166.6049657000001,19.295256300000062],[166.6043946000001,19.295494200000064],[166.60377590000007,19.296041500000058],[166.60265760000004,19.296565000000044],[166.60187240000005,19.297017100000062],[166.6008968000001,19.29761190000005],[166.59992120000004,19.298397200000068],[166.59942150000006,19.298992000000055],[166.59920740000007,19.299872400000027],[166.5990408,19.300633900000037],[166.59935010000004,19.301062200000047],[166.59965950000003,19.301776000000075],[166.6000878000001,19.302513600000054],[166.60044470000003,19.30320370000004],[166.60084920000008,19.303560600000026],[166.60139650000008,19.303560600000026],[166.60196750000011,19.303132300000073],[166.60258620000002,19.302751600000022],[166.60301450000009,19.30172840000006],[166.60344280000004,19.300491100000045],[166.6041090000001,19.29970590000005],[166.6054653000001,19.298968200000047],[166.60622680000006,19.298587500000053],[166.60720230000004,19.298135400000035],[166.60772580000003,19.297707100000025],[166.60774960000003,19.29732640000003],[166.60774960000003,19.296945700000038],[166.60751170000003,19.29675530000003],[166.60730020000005,19.296426300000064],[166.6068974000001,19.29606830000006],[166.6063739000001,19.29580660000005],[166.60594560000004,19.295497200000057],[166.60575530000006,19.29514030000007],[166.60618360000012,19.294807200000037],[166.60663570000008,19.29514030000007],[166.60704020000003,19.29544960000004],[166.6076826000001,19.295735200000024],[166.60846790000005,19.29606830000006],[166.60896750000006,19.29630620000006],[166.60941960000002,19.296115900000075],[166.60927690000005,19.29580660000005],[166.60939580000002,19.295687600000065],[166.6098479000001,19.295973100000026],[166.61008590000006,19.296187300000042],[166.61049040000012,19.296258700000067],[166.61056180000003,19.29590170000006],[166.61072830000012,19.29535450000003],[166.6112518000001,19.29502130000003],[166.6117753000001,19.294759600000077],[166.61227500000007,19.294164700000067],[166.6126319000001,19.293641300000047],[166.61353610000003,19.29311780000006],[166.61470200000008,19.292237400000033],[166.6153683000001,19.29166630000003],[166.61598700000002,19.291761500000064],[166.61686740000005,19.292142200000058],[166.61774780000007,19.29211840000005],[166.61867570000004,19.291713900000047],[166.61919920000003,19.290976300000068],[166.61991310000008,19.289810300000056],[166.6201748000001,19.28904890000007],[166.62088860000006,19.288477800000067],[166.62176900000009,19.288097100000073],[166.62222110000005,19.288216100000056],[166.62279220000005,19.28833510000004],[166.62324430000012,19.28819230000005],[166.6239819000001,19.287787800000046],[166.62448160000008,19.287930500000073],[166.62490990000003,19.28819230000005],[166.62526690000004,19.288644400000067],[166.6258855000001,19.288382600000034],[166.6264328000001,19.288120900000024],[166.62678970000002,19.288097100000073],[166.62693250000007,19.288573000000042],[166.62712280000005,19.28876340000005],[166.6272894000001,19.288692000000026],[166.6272418000001,19.28819230000005],[166.62736080000002,19.28769260000007],[166.6280270000001,19.286645600000043],[166.6288836000001,19.286050800000055],[166.63009720000002,19.285717600000055],[166.6315486000001,19.28509900000006],[166.63264320000008,19.285051400000043],[166.63366640000004,19.284765900000025],[166.6351416000001,19.28448030000004],[166.63747350000006,19.283956800000055],[166.63802080000005,19.283885500000054],[166.63847290000012,19.284028200000023],[166.6394722000001,19.284028200000023],[166.64025750000008,19.283956800000055],[166.64120920000005,19.283433400000035],[166.64170890000003,19.283385800000076],[166.64225620000002,19.28317160000006],[166.6429462000001,19.283076400000027],[166.6435411000001,19.283028900000033],[166.64377910000007,19.283243000000027],[166.64444530000003,19.28317160000006],[166.6448974000001,19.282933700000058],[166.64513540000007,19.28271950000004],[166.6454447000001,19.282505400000048],[166.64561120000008,19.282505400000048],[166.64534950000007,19.282814700000074],[166.64515910000011,19.28357610000006],[166.64549230000011,19.28405200000003],[166.64589680000006,19.284266200000047],[166.6460158000001,19.284694500000057],[166.64637270000003,19.284837200000027],[166.64646790000006,19.285265500000037],[166.6462775000001,19.28552730000007],[166.64613470000006,19.286621800000034],[166.64606330000004,19.287145300000077],[166.6462537000001,19.287621200000046],[166.64637270000003,19.28816850000004],[166.64613470000006,19.28833510000004],[166.64634890000002,19.288525400000026],[166.6465154000001,19.288739600000042],[166.64639650000004,19.289120300000036],[166.64596820000008,19.28933440000003],[166.6454447000001,19.28964380000002],[166.64508780000006,19.29016720000004],[166.64470710000012,19.290714500000036],[166.6443977,19.291023800000062],[166.6441598,19.29166630000003],[166.64392180000004,19.292142200000058],[166.6440884000001,19.29268950000005],[166.64401700000008,19.29318920000003],[166.64373150000006,19.29354610000007],[166.6438266,19.293998200000033],[166.6443025000001,19.29428370000005],[166.64449290000005,19.294640600000037],[166.6443263000001,19.294807200000037],[166.64373150000006,19.29471200000006],[166.6434935000001,19.29495000000003],[166.64323180000008,19.29561620000004],[166.64311280000004,19.295973100000026],[166.64358870000012,19.29633000000007],[166.64366010000003,19.29678210000003],[166.6432794000001,19.297091500000022],[166.64277970000012,19.297091500000022],[166.6418993000001,19.297876700000074],[166.6413996000001,19.298447800000076],[166.64130440000008,19.298923700000046],[166.64130440000008,19.299875400000076],[166.64149480000003,19.300541700000053],[166.6419231000001,19.30087480000003],[166.64209820000008,19.301184100000057],[166.6423552000001,19.30141260000005],[166.64269780000006,19.301541100000065],[166.64301190000003,19.301598200000058],[166.6430405000001,19.301798000000076],[166.64319750000004,19.302012200000036],[166.6435259000001,19.302112100000045],[166.64355440000008,19.30231200000003],[166.64384000000007,19.302383400000053],[166.6441112000001,19.302483300000063],[166.64402560000008,19.30265460000004],[166.64386850000005,19.30282600000004],[166.6437115000001,19.302968700000065],[166.64368290000004,19.303182900000024],[166.64395420000005,19.30331140000004],[166.6440196000001,19.303514800000073],[166.64359130000003,19.303467200000057],[166.64344860000006,19.30377660000005],[166.6432344000001,19.30401450000005],[166.64337720000003,19.304276300000026],[166.6434723000001,19.304538000000036],[166.64313920000006,19.30477590000004],[166.6419019000001,19.305323200000032],[166.6413546000001,19.30537080000005],[166.6408311,19.305132900000046],[166.6404980000001,19.30518040000004],[166.63999830000012,19.30503770000007],[166.6397128000001,19.30446660000007],[166.63926070000002,19.30420490000006],[166.63802340000007,19.303919300000075],[166.63783300000011,19.303633800000057],[166.63771410000004,19.30287240000007],[166.63735710000003,19.30251540000006],[166.63661950000005,19.302206100000035],[166.63604840000005,19.302134700000067],[166.63550120000002,19.30199200000004],[166.63519180000003,19.302229900000043],[166.63471590000006,19.30268200000006],[166.63443040000004,19.303300700000023],[166.63438280000003,19.303919300000075],[166.6342638000001,19.30477590000004],[166.63435900000002,19.305275600000073],[166.63452560000007,19.305846700000075],[166.63443040000004,19.306441600000028],[166.63440660000003,19.306988800000056],[166.63497770000004,19.307345800000064],[166.63573910000002,19.30751230000004],[166.63669090000008,19.307655100000034],[166.63740470000005,19.308035800000027],[166.63795200000004,19.30855930000007],[166.6386182000001,19.308821000000023],[166.6397604000001,19.309059000000047],[166.64090250000004,19.309344500000066],[166.64194950000012,19.309558700000025],[166.64318680000008,19.309677600000043],[166.64490000000012,19.309772800000076],[166.6465181000001,19.309653800000035],[166.64711290000002,19.309392100000025],[166.64780300000007,19.308583100000078],[166.6481599000001,19.307607500000074],[166.64823130000002,19.305989500000067],[166.64801710000006,19.30446660000007],[166.64804090000007,19.302396500000043]]],[[[166.62561140000003,19.30481240000006],[166.62516530000005,19.30466370000005],[166.6244514000001,19.30466370000005],[166.6236484000001,19.30469350000004],[166.6228453000001,19.304782700000032],[166.62258750000012,19.305126400000063],[166.6225479000001,19.304990900000064],[166.62213150000002,19.30481240000006],[166.62165560000005,19.305050400000027],[166.6212392000001,19.305526300000054],[166.62135810000007,19.305823700000076],[166.62168530000008,19.305734500000028],[166.6219827000001,19.305556000000024],[166.62222070000007,19.305556000000024],[166.62266670000008,19.305397500000026],[166.6226001000001,19.305169600000056],[166.6228453000001,19.30549650000006],[166.62317250000012,19.305734500000028],[166.62367810000012,19.306002200000023],[166.62436220000006,19.30618060000006],[166.62486780000006,19.306359100000066],[166.62543300000004,19.30594270000006],[166.62605760000008,19.305526300000054],[166.6266524,19.305020600000034],[166.62626580000006,19.304931400000044],[166.62596830000007,19.304782700000032],[166.62561140000003,19.30481240000006]]],[[[166.6215644,19.315799600000048],[166.62265890000003,19.31513330000007],[166.62494320000008,19.31342010000003],[166.62627570000006,19.312658700000043],[166.62756060000004,19.311706900000047],[166.62865510000006,19.31108830000005],[166.63008280000008,19.31008890000004],[166.63103460000002,19.309375000000045],[166.6314629000001,19.308613600000058],[166.63160570000002,19.30789980000003],[166.63184360000002,19.30728110000007],[166.63193880000006,19.306710100000032],[166.63217670000006,19.30609140000007],[166.6328906000001,19.305615500000044],[166.6331285000001,19.305044400000043],[166.63265260000003,19.304568500000073],[166.63189120000004,19.30423540000004],[166.63112980000005,19.30423540000004],[166.63060630000007,19.30433060000007],[166.63003830000002,19.304571200000055],[166.63017800000011,19.304949200000067],[166.63022560000002,19.305472700000053],[166.63036840000007,19.305805900000053],[166.6288455,19.305805900000053],[166.62817930000006,19.305901000000063],[166.62760820000005,19.305710700000077],[166.62722750000012,19.305567900000028],[166.62692010000012,19.30543700000004],[166.62644420000004,19.305675000000065],[166.62596830000007,19.30612110000004],[166.62543300000004,19.306240100000025],[166.62513550000006,19.30665650000003],[166.62457040000004,19.307132400000057],[166.62436220000006,19.307370400000025],[166.62412140000004,19.30772500000006],[166.62370590000012,19.308232900000064],[166.62332520000007,19.30875640000005],[166.62294440000005,19.309375000000045],[166.6223258000001,19.310041300000023],[166.62189750000005,19.310612400000025],[166.6218023,19.311135800000045],[166.6217547000001,19.31161170000007],[166.62127880000003,19.312468300000035],[166.6209457000001,19.31337250000007],[166.62051740000004,19.314134000000024],[166.61994630000004,19.314657400000044],[166.61904210000012,19.315371300000038],[166.61842350000006,19.315276100000062],[166.61671020000006,19.316513400000076],[166.61613920000002,19.316989300000046],[166.61594880000007,19.317179700000054],[166.61571090000007,19.317036900000062],[166.61513980000007,19.31694170000003],[166.6149494000001,19.317608000000064],[166.61513980000007,19.318083900000033],[166.61556810000002,19.318321800000035],[166.6160440000001,19.318321800000035],[166.61723370000004,19.318083900000033],[166.6177096,19.317560400000048],[166.61847110000008,19.31722730000007],[166.61923250000007,19.316656200000068],[166.62004150000007,19.315989900000034],[166.6206602000001,19.315847200000064],[166.6215644,19.315799600000048]]]]}}]}
