{"type":"FeatureCollection","features":[{"type":"Feature","properties":{"place":"ye-socotra","region":"rule/ye-socotra","donors":"YE","rank":1,"whose_line":"Yemen's official governorate of Socotra (adm1 YE32)","publisher":"Central Statistical Organization (CSO) of Yemen, via OCHA's COD-AB on HDX (cod-ab-yem)","source_url":"https://data.humdata.org/dataset/6b2656e2-b915-4671-bfed-468d5edcd80a/resource/c79a3728-44cd-4d20-8ea4-ecfab88c1450/download/yem_admin_boundaries.geojson.zip","version_or_date":"COD-AB Yemen v01, valid_on 2019-11-22; HDX resource last_modified 2026-01-26; read 2026-10-04","feature_id":"yem_admin1.geojson adm1_pcode YE32","licence":"CC BY-IGO","notes":"Replaces the planned OSM relation 5486640. Not a dispute: the outline of the governorate whose entry rule makes the region.","input_sha256":"4529c4450f4ef6e4728c80ab010a6bdc1ed9c4644294c14717fdddf6c2528972","operation":"none (the source feature's geometry as published)","crs":"WGS84 longitude/latitude, as in the source (no reprojection)","source_features":[{"id":"yem_admin1.geojson adm1_pcode=YE32","adm1_name":"Socotra","adm1_name1":"سقطرى","adm1_pcode":"YE32","valid_on":"2019-11-22","version":"v01","area_sqkm":3906.91018792}]},"geometry":{"type":"MultiPolygon","coordinates":[[[[54.163799919000155,12.667819987000144],[54.16256992000007,12.668469987000094],[54.157029920000184,12.671429988000114],[54.14755992000016,12.676599987000088],[54.141089921000116,12.67981998700003],[54.13553992200019,12.682779987000174],[54.129329922000124,12.68716998800005],[54.12454992200003,12.691759988000058],[54.119059923000066,12.69706998700019],[54.111429924,12.700779988000136],[54.10514992400016,12.702579988000025],[54.098589924000066,12.702509988000088],[54.097199924000165,12.701849988],[54.09050992500005,12.698709988000076],[54.09044992500009,12.698549987999968],[54.09022992500013,12.69844998800005],[54.08797992500013,12.69308998800011],[54.085489925,12.687739988000146],[54.08189992500013,12.682749988000069],[54.077089926000156,12.679039988000056],[54.07208992600016,12.676099987999976],[54.06569992600009,12.673669988000029],[54.05976992700016,12.670989988000144],[54.05339992700016,12.669719988000054],[54.047239927000135,12.667299988000025],[54.04266992800012,12.663159988000132],[54.0423899270001,12.662909988000024],[54.03536992800008,12.660489988],[54.029999928000166,12.659309988000075],[54.022049929000104,12.656289989000072],[54.01740992800012,12.653409989000124],[54.01335992900016,12.651649989000191],[54.00904992900007,12.650349988000187],[54.00316993000018,12.64954998900015],[53.99728993000019,12.648749989000066],[53.99141993000018,12.648199989000034],[53.98204993100018,12.650679989000025],[53.9762499310001,12.652219989000116],[53.97567993100017,12.650839989000133],[53.97463993100013,12.648359989000085],[53.97727993200016,12.638159989000087],[53.97382993100007,12.633799989000124],[53.96688993100014,12.63396998900015],[53.96057993200003,12.634829989000082],[53.95525993200005,12.637079989000085],[53.94854993300004,12.64031998900009],[53.942619933000174,12.6420499890001],[53.941579934,12.64235998900017],[53.93529993400017,12.644159989000059],[53.92737993500009,12.645769990000133],[53.922689935000164,12.646829988999968],[53.921569935000036,12.647089989],[53.91526993500014,12.648649989000091],[53.90777993500018,12.649069990000157],[53.907509935000064,12.648809990000132],[53.90351993500013,12.64478999000005],[53.899129936000065,12.641049990000056],[53.89412993600013,12.638109990000146],[53.88912993600013,12.635169990000065],[53.88199993699999,12.631819990000167],[53.876739937000195,12.627949990000047],[53.876679937000176,12.62784999000013],[53.87645993700011,12.627689990000022],[53.873269937000146,12.622589990000108],[53.870539937000046,12.616769989999966],[53.86712993700013,12.612149989999978],[53.86214993700003,12.609959990000164],[53.8574799380001,12.606889990000184],[53.85343993800012,12.603659990000097],[53.84762993800007,12.600109989999964],[53.84294993800012,12.59606999],[53.835999939000146,12.596559991000163],[53.83044994000005,12.597549990000061],[53.818559939000124,12.598489991000122],[53.81242994000013,12.597849991000146],[53.80608994100004,12.597679990000188],[53.80271994100008,12.60316999100013],[53.80192993999998,12.603919991000168],[53.79814994100013,12.607519990000071],[53.79193994200017,12.611669991000156],[53.786859941000046,12.614389990000063],[53.78131994200004,12.617579991000127],[53.7759999430001,12.620059991000119],[53.767899943000145,12.623789991000024],[53.762109943000155,12.626289991000135],[53.756309943000076,12.628779991000101],[53.75098994400014,12.631259991000093],[53.74649994400011,12.633059990999982],[53.744739944000116,12.633769991000122],[53.739659944000095,12.63671999100012],[53.733939945000145,12.641799991000028],[53.733819945000164,12.641909991000034],[53.72798994500005,12.647119991000181],[53.722479945000146,12.651259991000074],[53.72089994600003,12.65260999100002],[53.715939945000116,12.656839992000187],[53.71146994600019,12.659999992000166],[53.70822994600013,12.662439992000088],[53.70663994600005,12.66364999200016],[53.70184994600004,12.667529992000027],[53.69608994700013,12.67166999200009],[53.69148994699998,12.675079992000178],[53.68642994700019,12.678489992000038],[53.68090994800008,12.681919992000132],[53.67585994700016,12.686049991],[53.67151994800014,12.690149991000169],[53.666049948000136,12.695929992000117],[53.65953994800009,12.697739992000095],[53.6531599490001,12.697899992000032],[53.652749949000054,12.69790999200012],[53.646429949000094,12.698299992000102],[53.63917994900015,12.698479992000046],[53.63262995000008,12.69910999200016],[53.62537995000008,12.699519992000148],[53.61834995000015,12.699689992000174],[53.61730995100015,12.699729992000073],[53.61691995100006,12.699739992000048],[53.61178995100016,12.699849992000054],[53.61135995000018,12.69988999200018],[53.60571995100008,12.700469992000023],[53.599639951000086,12.701089992],[53.59262995200015,12.702189992000058],[53.58673995200007,12.702539992000084],[53.58538995200007,12.702619992000109],[53.58279995200019,12.702879992000135],[53.579309952000074,12.703239992000078],[53.573259953,12.705269993000115],[53.56794995300015,12.707749992],[53.56241995300019,12.711179992000154],[53.55686995300016,12.713899992000108],[53.55104995300019,12.71521999200013],[53.545189954000136,12.71512999200013],[53.53909995400005,12.715279993000024],[53.53321995400006,12.714479993000054],[53.52962995400003,12.713419992000013],[53.526609955000026,12.712529993000032],[53.52065995400005,12.709379992000095],[53.52039995500007,12.709129992000157],[53.51602995500019,12.704749993000064],[53.51107995500007,12.70184999300011],[53.511019956000155,12.70819999300005],[53.510699955000064,12.710249993000048],[53.51001995500013,12.714579992000097],[53.504969956000195,12.710229993000155],[53.50042995600006,12.706349992000185],[53.494969956000034,12.704129993000095],[53.489819956000076,12.701999993000072],[53.48904995600009,12.701679993000084],[53.48893995600008,12.701489993000166],[53.488769956000056,12.701419993000059],[53.48557995600004,12.6960899930001],[53.48470995600019,12.690229993],[53.481989956,12.685119993000171],[53.47812995600003,12.680739993000145],[53.47382995600009,12.67573999300015],[53.469489957000064,12.67204999300003],[53.463529956000116,12.668189993],[53.45720995700009,12.668349994000039],[53.451359957000136,12.668729993000113],[53.445499958000084,12.668629993000025],[53.43842995699998,12.667629993000048],[53.43183995800018,12.66636999400015],[53.426189958000066,12.665109993999977],[53.420259959000134,12.662659993000034],[53.41454995900017,12.659279994000087],[53.40928995899998,12.65563999300008],[53.403129959000125,12.65319999400009],[53.40313995900004,12.653059993000113],[53.40284995900004,12.652939993000132],[53.40314995900019,12.646819993000065],[53.405339959,12.641349993000063],[53.40705995900004,12.635429993000173],[53.40920995900012,12.628549993000036],[53.409469958000045,12.620779993000042],[53.407429959000126,12.614709994000066],[53.40539995800009,12.608879993000073],[53.406179958000166,12.603209993000064],[53.405979959000035,12.595919994000042],[53.40577995900003,12.588399994000099],[53.405559958000026,12.58063999300009],[53.40538995800017,12.573819993000143],[53.404729958000075,12.567479994000053],[53.402459958,12.561419993000186],[53.39949995900014,12.555849993000095],[53.3956199590001,12.551469993000069],[53.39174995900004,12.547569994000071],[53.386809959000175,12.544429994000154],[53.37944995900017,12.541079994000086],[53.37331995900013,12.539579994000121],[53.36694996000017,12.537849994000169],[53.36081996000013,12.536589994],[53.35492996100015,12.535559994000039],[53.34857996000011,12.534539994000056],[53.34244996000007,12.533509994000099],[53.33659996100016,12.533659994000061],[53.328619961000186,12.533379993999972],[53.322069962000114,12.53353999400008],[53.31361996200013,12.533279994000054],[53.31347996200009,12.533019994000028],[53.31333996100011,12.533019994000028],[53.31059996199997,12.528259994],[53.310389962000045,12.527909994000026],[53.311629962000154,12.521999994000055],[53.31525996099998,12.517439994000028],[53.32058996100011,12.515189994000025],[53.32963996100017,12.511909994000064],[53.33700996100015,12.507499994000057],[53.34296996000006,12.502409994000061],[53.34845996000013,12.497319994000122],[53.35278996000011,12.492989993000037],[53.356399959999976,12.487729993000016],[53.362859959000104,12.484519994000095],[53.37102995900017,12.483129993000091],[53.37684996000007,12.481109994000064],[53.382159959000035,12.478629994000187],[53.38789995900015,12.47448999300002],[53.39317995800013,12.470359993000102],[53.39823995800009,12.467169994000017],[53.40330995800019,12.463749993000135],[53.41043995700011,12.45863999400018],[53.415009958000155,12.454529994000097],[53.420329957000035,12.451809994000143],[53.42799995700017,12.44949999400012],[53.439619956000115,12.445919993000132],[53.44489995600003,12.44202999300012],[53.45065995600004,12.438829994000116],[53.45598995600011,12.43610999300006],[53.461779955,12.433619993000093],[53.46680995500003,12.429019993000168],[53.470899955,12.424919993],[53.47542995500004,12.418459993000056],[53.479769954,12.414589993000106],[53.48283995500009,12.41336999300006],[53.48556995400014,12.412329993000185],[53.492719954,12.408149993000166],[53.49755995400011,12.40497999300004],[53.502349954000124,12.400619993000078],[53.506429953000065,12.395579993000183],[53.51005995300005,12.390789993000169],[53.51366995300015,12.38575999200009],[53.518419953000034,12.379519993000088],[53.52226995300009,12.374729993000074],[53.52730995200011,12.370349993000048],[53.53282995200016,12.366699993],[53.537879952000026,12.362809993000042],[53.54174995200009,12.358479992000127],[53.5434599510001,12.35584999300005],[53.54489995100005,12.353639992000069],[53.545799951000106,12.352259992000086],[53.54773995100004,12.346099993000166],[53.54825995100009,12.340449992000117],[53.5482799510001,12.340199993000112],[53.550939951000146,12.334729993000167],[53.55372995100004,12.334119993000115],[53.55629995100003,12.33354999300002],[53.55699995100008,12.333399993000057],[53.56331995000011,12.333249992000162],[53.56985995100007,12.332379993000018],[53.57639995,12.33174999300013],[53.58244995000018,12.329479992000188],[53.58916995000004,12.327199991999976],[53.59497994900016,12.325409992000061],[53.601969949000136,12.324059992000059],[53.60803994800011,12.322649992000095],[53.60988994900015,12.322219992000043],[53.613239948000114,12.320659992000117],[53.61520994800003,12.319739992000052],[53.621219948000146,12.316529992000028],[53.626539947000026,12.31404999200015],[53.633269947000144,12.311769992000166],[53.64117994700007,12.309689992000187],[53.648849947000144,12.30738999200014],[53.65791994500012,12.304579991000082],[53.66556994500013,12.30179999100011],[53.673939945000086,12.299239992000082],[53.681149944000026,12.297179992],[53.687189944000124,12.295389992000025],[53.69422994400014,12.295689992000177],[53.699919944000044,12.298139992000017],[53.70578994300013,12.298459992000062],[53.712799943000164,12.297819991000097],[53.718639942000095,12.296959991],[53.72471994200009,12.296829991000095],[53.731739942000104,12.296179991000145],[53.73828994200005,12.295779991000074],[53.74740994100017,12.295559991000175],[53.754439941000044,12.295149991000187],[53.76099994000009,12.29498999100008],[53.7675699400001,12.295539991000112],[53.773909940000124,12.295849991000182],[53.77977994000014,12.296179991000145],[53.78566993900017,12.297679990000177],[53.79369993900019,12.299839991000113],[53.80007993900017,12.301559991000147],[53.805959938,12.302349990000039],[53.81230993800017,12.303369991000125],[53.81866993700015,12.304639991000045],[53.82433993700016,12.306149991000098],[53.831859937000104,12.30689999000009],[53.83796993599998,12.30745999000004],[53.84452993600007,12.307769991000043],[53.85063993600011,12.308319989999973],[53.85629993600014,12.309359990000075],[53.86263993500006,12.31014999000007],[53.86852993499997,12.311179990000028],[53.874879934000035,12.311959990000048],[53.88359993400013,12.313869990000171],[53.890199933000076,12.315349990000072],[53.897759933000145,12.31751999000005],[53.90409993300017,12.317839989000106],[53.91114993200006,12.318609989000038],[53.918499932000145,12.32172999],[53.92699993100007,12.32409998999998],[53.93311993100019,12.325129989000061],[53.94085993000016,12.325409990000026],[53.94764993000007,12.325239989000067],[53.95651992900008,12.323849990000099],[53.96234992900003,12.32275999000018],[53.96911992800017,12.321889989],[53.974979928000096,12.321749989000182],[53.981769928,12.321569989000182],[53.987609927000165,12.320969989000105],[53.99603992700008,12.320759989000123],[54.0042499270001,12.321029989000124],[54.01108992600018,12.322749989000101],[54.01749992600014,12.32565998900003],[54.022059925,12.32952998900015],[54.02208992600009,12.329579988000091],[54.0223399250001,12.329789989000176],[54.02647992500016,12.335569989000021],[54.029559925000115,12.34049998900008],[54.03555992500003,12.34356998900006],[54.04238992400019,12.344799988000148],[54.04850992400014,12.345829988000105],[54.05488992300019,12.34754998800014],[54.060569923000116,12.34999998800015],[54.06812992200008,12.351929988000165],[54.075609922000126,12.351749988],[54.08190992200019,12.350419988000112],[54.08747992100018,12.348399988000097],[54.093049921000045,12.346629988000018],[54.100299921000044,12.345969987000046],[54.10683992000003,12.345099988000072],[54.11456991900019,12.344909987999984],[54.12205991900015,12.344719988000122],[54.12978991800014,12.344539988000122],[54.13889991700012,12.343379987000162],[54.14499991700018,12.343699988000083],[54.149799917000166,12.348049987000024],[54.157429917000115,12.352569987000095],[54.16576991600016,12.357549987000027],[54.17031991500011,12.361189987000103],[54.17557991500013,12.36506998700014],[54.181309915000156,12.368929987000115],[54.18707991400015,12.374199987000054],[54.187359915000116,12.374449987000162],[54.19157991400016,12.378929987000106],[54.196209914000065,12.382679987000074],[54.20122991300002,12.38631998700015],[54.20667991300013,12.388539987000172],[54.21236991300003,12.39074998700005],[54.21757991300012,12.393209987000034],[54.22214991200019,12.397099986000057],[54.222319912000046,12.39726998600014],[54.22242991200005,12.397359987000186],[54.22772991200003,12.402409987000055],[54.23182991200014,12.40677998600006],[54.23620991100006,12.41117998600015],[54.24137991100008,12.414979986000105],[54.247799911000186,12.418349986000067],[54.24793991000013,12.418539986000155],[54.24808991000009,12.418609986000092],[54.251729910000165,12.423459986000125],[54.25563991000001,12.429249986000116],[54.25943990900009,12.435319986000138],[54.26472991000003,12.437469986000053],[54.27038990900019,12.438979986000106],[54.27699990800005,12.440459986000178],[54.28353990800014,12.44029998600007],[54.29056990800018,12.439889986000082],[54.296419907000086,12.439749986000038],[54.30322990600018,12.440049985000087],[54.30933990600016,12.440839986000185],[54.31639990500014,12.441839985000058],[54.325569905,12.442799985000079],[54.331919904000074,12.44405998500008],[54.33806990400018,12.445789985000033],[54.345129903000156,12.447499985000093],[54.351079903000084,12.45016998500006],[54.35673990300012,12.451679985000112],[54.363559902000134,12.452689985000177],[54.3701299010001,12.452999983999973],[54.376939900000195,12.45353998500019],[54.384709900000075,12.454759984000134],[54.38993990000006,12.457459984000081],[54.396139899000104,12.461309984000138],[54.40254989800019,12.46443998400008],[54.40776989800008,12.466899984000065],[54.414849898,12.468609984000182],[54.42031989700007,12.471539984000117],[54.425349897000046,12.475649984000029],[54.429919896000115,12.479769983000097],[54.436069896,12.481969984000159],[54.441979896000134,12.483949983000116],[54.44888989499998,12.48799998300018],[54.44887989500006,12.48809998400003],[54.44916989500007,12.488269984000056],[54.448389895,12.493939984000065],[54.44832989500003,12.500289984000176],[54.450379895000026,12.50682998300016],[54.45398989500006,12.513189983000018],[54.45878989400012,12.516009983000117],[54.46404989400014,12.51963998399998],[54.46971989400015,12.521619983000107],[54.47541989300004,12.52406998400005],[54.48253989300014,12.527659983000035],[54.48873989200018,12.531509983000092],[54.49107989200019,12.53256998300003],[54.49514989200014,12.534409983000046],[54.501289891000056,12.536369983000043],[54.506549890000144,12.537259983000126],[54.5085898910001,12.537609982000049],[54.51563989000016,12.538139983000121],[54.522679889000074,12.538669982000158],[54.52852988800015,12.538539982000088],[54.53789988800003,12.545149982000055],[54.53819988800018,12.545389982000188],[54.534509888,12.549939983000172],[54.52979988900012,12.550209983000116],[54.527259889000106,12.550359981999975],[54.521169890000124,12.550509982000165],[54.514609889999974,12.550669983000148],[54.5084998910001,12.549879983000153],[54.50238989100012,12.549319983000032],[54.49653989100011,12.54945998300002],[54.495269892000124,12.549399983000058],[54.48996989300008,12.549149983000177],[54.482949893000125,12.549799983000128],[54.47550989400014,12.551859983000043],[54.46998989400009,12.555529983000099],[54.464939894000054,12.55940998400007],[54.45961989500017,12.561899984000036],[54.45313989600004,12.56510998400006],[54.4475998960001,12.568069984000033],[54.44251989700018,12.570789983999987],[54.437209897000116,12.57373998300011],[54.432149898000034,12.577159983000115],[54.42732989800004,12.580809983000108],[54.422029899000165,12.583999984000172],[54.413689899000076,12.587729984000077],[54.40581989999998,12.591449984],[54.39957990099998,12.594429984000044],[54.39378990100005,12.597159984000143],[54.388719902,12.600339984000186],[54.382699902000184,12.60330998500018],[54.37645990200008,12.606049985000027],[54.37087990300017,12.607599984000103],[54.362709904000155,12.608979985000133],[54.35404990400002,12.609189985000114],[54.347019905000025,12.60935998499997],[54.34071990600006,12.610219985000072],[54.33253990600019,12.610889985000085],[54.326229907000084,12.611519984999973],[54.32037990700013,12.612129986000127],[54.31454990800012,12.612979984999981],[54.308509908000076,12.614779985000098],[54.30317990800012,12.61725998500009],[54.29623990900012,12.620489985],[54.29000991000004,12.623939986000096],[54.28425991000017,12.627839985000094],[54.27943991000018,12.631729985000106],[54.274599911000166,12.634899986000107],[54.26929991200012,12.638089986000068],[54.263299912000036,12.641529986000137],[54.25799991300016,12.644719986000098],[54.2526899130001,12.647439986000109],[54.24596991300007,12.650429986000063],[54.23855991400012,12.653429986000106],[54.23249991400013,12.654759986000045],[54.22530991500008,12.65704998700005],[54.216239916,12.660099986000091],[54.210919917000126,12.662579987000186],[54.20728991600009,12.667139986000109],[54.20556991600006,12.672589987000094],[54.20572991700004,12.678469987000085],[54.203769917000045,12.684169985999972],[54.197409917000186,12.682679986000153],[54.197139917000186,12.68241998700006],[54.19312991700008,12.678389987],[54.188509918000136,12.674419987000022],[54.18840991800005,12.674319987000047],[54.188229918000104,12.674169985999981],[54.184609918000035,12.670509987000116],[54.18412991800011,12.67002998700002],[54.18006991800013,12.666159987000128],[54.173499919000164,12.665609987000096],[54.16764991900004,12.665759987000058],[54.163799919000155,12.667819987000144]]],[[[52.12796998699997,12.234379999],[52.121949987000164,12.237589998000146],[52.11611998800015,12.238439998000104],[52.11021998800015,12.237169998000013],[52.10453998800017,12.234959999000068],[52.09817998800014,12.233699999000066],[52.092359989000045,12.235259999],[52.0867799880001,12.23680999800007],[52.08068998800019,12.236719998000126],[52.07458998800013,12.236629998000126],[52.06871998800011,12.236309998000081],[52.06326998800017,12.233849998000153],[52.06070998900003,12.234619999000188],[52.06242998800013,12.228929998000183],[52.06628998900004,12.224369998000043],[52.06750998900009,12.217749998000102],[52.07305998800018,12.21548999800018],[52.07910998800003,12.213229998000031],[52.08493998800009,12.212379998000074],[52.09121998800015,12.21057999900006],[52.09626998800019,12.20669999800009],[52.101509988000146,12.201149998000119],[52.106819987999984,12.198429998000108],[52.11311998800011,12.197339998000132],[52.11988998800018,12.196229998000149],[52.126169988000186,12.194659998000077],[52.131739988000106,12.19287999800008],[52.138439988000016,12.189189999000064],[52.14277998800014,12.185079998000049],[52.14857998800005,12.18305999800009],[52.15444998700019,12.18314999800009],[52.16031998700004,12.18370999800004],[52.16618998700005,12.184259998000073],[52.17201998700017,12.183189997999989],[52.17854998700005,12.181849998000132],[52.18435998700011,12.18029999800018],[52.18992998700003,12.178039998000031],[52.19619998600018,12.176009998000097],[52.202009986000064,12.1742299980001],[52.207599987000094,12.172899998],[52.214139987000124,12.172269998000104],[52.22206998700011,12.170899998000095],[52.22785998600017,12.16840999800013],[52.229819986000166,12.162709998000139],[52.234879986000124,12.159529998000096],[52.24160998600007,12.156779998000104],[52.24811998600012,12.15496999800007],[52.25368998600004,12.15294999800011],[52.25970998500014,12.150449998],[52.26594998600012,12.147239997999975],[52.27153998600011,12.145929998000156],[52.27855998500013,12.145749998000156],[52.28441998600016,12.145609998000111],[52.290269985,12.145469998000067],[52.29612998600004,12.145319998000105],[52.302699985000174,12.145399998000187],[52.309019985000134,12.145479998000042],[52.31536998400014,12.146029998000074],[52.32146998400003,12.146349998000062],[52.32756998400009,12.14690999800007],[52.3341599850001,12.147689996999986],[52.34050998500004,12.148709998000129],[52.3463899840001,12.149499998000124],[52.352959984000165,12.149809998000023],[52.35859998500007,12.15084999800007],[52.364489984000045,12.151659998000127],[52.37105998400011,12.151959998000109],[52.37674998300008,12.15440999800012],[52.3764499830001,12.16053999800016],[52.37282998400019,12.165089998000042],[52.37062998400006,12.170559998000044],[52.37358998399998,12.17589999800009],[52.37769998400006,12.18073999800015],[52.382969984,12.184609997000166],[52.38918998400004,12.188919997000085],[52.39305998300006,12.193769998],[52.38717998400017,12.19296999800008],[52.38149998400007,12.190999998000166],[52.375849984000126,12.189959998000063],[52.37019998400018,12.188919998000188],[52.364329984000165,12.188829998000188],[52.35753998400003,12.188989998000125],[52.351689984000075,12.189139998000087],[52.34582998400015,12.189049996999984],[52.339489984000124,12.188499998000054],[52.33244998499998,12.188429998000117],[52.32635998500007,12.188339998000117],[52.320509985000115,12.188499998000054],[52.31395998500011,12.18888999799998],[52.30862998499998,12.191129997000132],[52.30282998500007,12.193859998000164],[52.29701998500002,12.195179998000128],[52.29095998600019,12.196509998000067],[52.28511998500005,12.196889998000074],[52.278089986000055,12.197059997000167],[52.2722399860001,12.197199998000144],[52.266379986000175,12.197349998000107],[52.26052998600005,12.197719997999968],[52.254679985000166,12.19810999800012],[52.24884998600015,12.19894999800016],[52.241839986000116,12.199589997999965],[52.23550998600001,12.199749998000073],[52.226849986000104,12.199959998000054],[52.218639986000085,12.19968999800011],[52.212789986000075,12.199839998000073],[52.206939987,12.200209998000105],[52.20111998600015,12.201769998000032],[52.19553998700019,12.20331999800004],[52.18833998700006,12.205849998000133],[52.18206998699998,12.207879998000067],[52.17649998700011,12.209889998000108],[52.170009988,12.212649998000188],[52.16468998800019,12.215129999000112],[52.160109987000055,12.219009998000104],[52.155559987000174,12.224059998000143],[52.15124998800019,12.229109999000059],[52.146199987000045,12.232999998000139],[52.13990998700007,12.23385999800007],[52.134039988000154,12.233999998000115],[52.12796998699997,12.234379999]]],[[[53.08104996700018,12.164099995000129],[53.07523996800006,12.165889995000043],[53.06941996800009,12.16720999600011],[53.06219996800007,12.168799995000143],[53.05619996800016,12.17223999500004],[53.05088996800009,12.175429995000172],[53.04530996900013,12.176739996000094],[53.03923996900011,12.17782999600007],[53.03321996900007,12.180329996000125],[53.027659969000126,12.182589995000171],[53.021979970000075,12.180609995000111],[53.01923997000006,12.174559995000152],[53.01581997000005,12.16969999500003],[53.011719970000115,12.165089996000063],[53.00647997000016,12.162159995000025],[53.00063997000012,12.16277999600004],[52.99428997000018,12.162229996],[52.98795997000008,12.161909995000087],[52.98788997000014,12.159329996000054],[52.99103997000003,12.15453999600004],[52.99562997000004,12.151139996000097],[53.001929970000106,12.150039996000032],[53.00821996900015,12.148709995000047],[53.012559970000154,12.144599995000135],[53.017119970000124,12.140019995999978],[53.021719970000106,12.136609996000118],[53.02746996900004,12.132939995000129],[53.03445996900018,12.131359996000072],[53.04051996800007,12.130039995000175],[53.04704996900006,12.128929994999964],[53.053309969000054,12.12642999500008],[53.05909996800011,12.123929994999969],[53.06539996800018,12.122839996000152],[53.073149968000166,12.123589995000088],[53.07903996700014,12.124619995000046],[53.08565996700008,12.12680999600019],[53.09092996700019,12.131149995000158],[53.09342996700008,12.136739995000141],[53.0935999670001,12.14284999500012],[53.09163996700016,12.148309995000147],[53.08919996700007,12.153539995000187],[53.08559996800017,12.159049995000089],[53.08104996700018,12.164099995000129]]],[[[53.311129959000084,12.111739994000118],[53.30677996000014,12.115619995000031],[53.30195996000009,12.119029994000186],[53.29641996000004,12.122219993999977],[53.29011996000014,12.12307999400008],[53.28424996000007,12.122989994000136],[53.27839996100005,12.123129994000124],[53.27158996100019,12.122829995000131],[53.264079961,12.122069994000185],[53.257749961000115,12.121989995000035],[53.25162996100016,12.12119999500004],[53.245969962,12.119689994999987],[53.25194996200008,12.115549994000048],[53.25748996200019,12.112589994000075],[53.26332996200006,12.111739994000118],[53.26937996100014,12.110409995000111],[53.27612996100015,12.108849994000082],[53.28338996100007,12.10841999400003],[53.28946996000013,12.108269994000068],[53.2981299600001,12.107589995000183],[53.30724996000009,12.106649994000122],[53.311129959000084,12.111739994000118]]],[[[53.17525996500018,12.131749995000064],[53.169629964000194,12.137389995000092],[53.1662399650001,12.131749995000064],[53.17525996500018,12.131749995000064]]],[[[53.16191996800012,12.64416999499997],[53.15587996800008,12.645729995000124],[53.15804996800006,12.639559994000024],[53.16191996800012,12.64416999499997]]],[[[53.1506299670001,12.633609995000029],[53.14822996800001,12.635009995000075],[53.14515996800003,12.630709995000075],[53.1506299670001,12.633609995000029]]]]}}]}
